{"type":"FeatureCollection","features":[{"type":"Feature","id":"way/4727746/2","properties":{"destination":"Belfast;Picton","highway":"trunk","lanes":"2","maxspeed":"60","name":"Main North Road","oneway":"yes","ref":"SH 74","id":"way/4727746/2","weighting":10},"geometry":{"type":"LineString","coordinates":[[172.62224770000006,-43.4605735],[172.62261900000001,-43.4600098]]}}
,
{"type":"Feature","id":"way/4727746/3","properties":{"destination":"Belfast;Picton","highway":"trunk","lanes":"2","maxspeed":"60","name":"Main North Road","oneway":"yes","ref":"SH 74","id":"way/4727746/3","weighting":10},"geometry":{"type":"LineString","coordinates":[[172.62261900000001,-43.4600098],[172.6229202,-43.4595544]]}}
,
{"type":"Feature","id":"way/4727746/4","properties":{"destination":"Belfast;Picton","highway":"trunk","lanes":"2","maxspeed":"60","name":"Main North Road","oneway":"yes","ref":"SH 74","id":"way/4727746/4","weighting":10},"geometry":{"type":"LineString","coordinates":[[172.6229202,-43.4595544],[172.6233108,-43.4589639]]}}
,
{"type":"Feature","id":"way/4727746/5","properties":{"destination":"Belfast;Picton","highway":"trunk","lanes":"2","maxspeed":"60","name":"Main North Road","oneway":"yes","ref":"SH 74","id":"way/4727746/5","weighting":10},"geometry":{"type":"LineString","coordinates":[[172.6233108,-43.4589639],[172.6243351,-43.4573598]]}}
,
{"type":"Feature","id":"way/4900809/0","properties":{"bicycle":"no","foot":"no","highway":"trunk","lanes":"2","layer":"-2","maxheight":"4.27","maxlength":"21","maxspeed":"50","maxwidth":"2.6","motorroad":"yes","name":"Tunnel Road","oneway":"no","ref":"SH 74","start_date":"1964-02-27","tunnel":"yes","id":"way/4900809/0","weighting":10},"geometry":{"type":"LineString","coordinates":[[172.7169169,-43.60250960000001],[172.70695249999994,-43.5865408]]}}
,
{"type":"Feature","id":"way/14028224/0","properties":{"bicycle":"no","bridge":"yes","foot":"no","highway":"motorway","lanes":"2","layer":"1","maxspeed":"100","name":"Christchurch Southern Motorway","oneway":"yes","ref":"SH 76","start_date":"1981-05-04","id":"way/14028224/0","weighting":10},"geometry":{"type":"LineString","coordinates":[[172.59731280000005,-43.5467897],[172.59833000000006,-43.54693980000001]]}}
,
{"type":"Feature","id":"way/14029322/0","properties":{"bicycle":"no","bridge":"yes","foot":"no","highway":"motorway","lanes":"2","layer":"1","maxspeed":"100","name":"Christchurch Southern Motorway","oneway":"yes","ref":"SH 76","start_date":"1981-05-04","id":"way/14029322/0","weighting":10},"geometry":{"type":"LineString","coordinates":[[172.60422630000005,-43.547746499999995],[172.6051978,-43.547840599999994]]}}
,
{"type":"Feature","id":"way/23135700/0","properties":{"highway":"trunk","junction":"roundabout","lanes":"2","maxspeed":"70","oneway":"yes","id":"way/23135700/0","weighting":10},"geometry":{"type":"LineString","coordinates":[[172.72061069999998,-43.5254642],[172.7206928,-43.525454]]}}
,
{"type":"Feature","id":"way/23135700/1","properties":{"highway":"trunk","junction":"roundabout","lanes":"2","maxspeed":"70","oneway":"yes","id":"way/23135700/1","weighting":10},"geometry":{"type":"LineString","coordinates":[[172.7206928,-43.525454],[172.72080449999999,-43.5254746]]}}
,
{"type":"Feature","id":"way/23135700/2","properties":{"highway":"trunk","junction":"roundabout","lanes":"2","maxspeed":"70","oneway":"yes","id":"way/23135700/2","weighting":10},"geometry":{"type":"LineString","coordinates":[[172.72080449999999,-43.5254746],[172.7208699,-43.52551190000002]]}}
,
{"type":"Feature","id":"way/23135700/3","properties":{"highway":"trunk","junction":"roundabout","lanes":"2","maxspeed":"70","oneway":"yes","id":"way/23135700/3","weighting":10},"geometry":{"type":"LineString","coordinates":[[172.7208699,-43.52551190000002],[172.7209202,-43.52557630000002]]}}
,
{"type":"Feature","id":"way/23135700/4","properties":{"highway":"trunk","junction":"roundabout","lanes":"2","maxspeed":"70","oneway":"yes","id":"way/23135700/4","weighting":10},"geometry":{"type":"LineString","coordinates":[[172.7209202,-43.52557630000002],[172.7209307,-43.525636100000014]]}}
,
{"type":"Feature","id":"way/23135700/5","properties":{"highway":"trunk","junction":"roundabout","lanes":"2","maxspeed":"70","oneway":"yes","id":"way/23135700/5","weighting":10},"geometry":{"type":"LineString","coordinates":[[172.7209307,-43.525636100000014],[172.7209097,-43.525699300000014]]}}
,
{"type":"Feature","id":"way/23135700/6","properties":{"highway":"trunk","junction":"roundabout","lanes":"2","maxspeed":"70","oneway":"yes","id":"way/23135700/6","weighting":10},"geometry":{"type":"LineString","coordinates":[[172.7209097,-43.525699300000014],[172.7208628,-43.52574910000001]]}}
,
{"type":"Feature","id":"way/23135700/7","properties":{"highway":"trunk","junction":"roundabout","lanes":"2","maxspeed":"70","oneway":"yes","id":"way/23135700/7","weighting":10},"geometry":{"type":"LineString","coordinates":[[172.7208628,-43.52574910000001],[172.7207872,-43.525787]]}}
,
{"type":"Feature","id":"way/23135700/8","properties":{"highway":"trunk","junction":"roundabout","lanes":"2","maxspeed":"70","oneway":"yes","id":"way/23135700/8","weighting":10},"geometry":{"type":"LineString","coordinates":[[172.7207872,-43.525787],[172.72070630000005,-43.5258011]]}}
,
{"type":"Feature","id":"way/23135700/9","properties":{"highway":"trunk","junction":"roundabout","lanes":"2","maxspeed":"70","oneway":"yes","id":"way/23135700/9","weighting":10},"geometry":{"type":"LineString","coordinates":[[172.72070630000005,-43.5258011],[172.7206065,-43.52579020000002]]}}
,
{"type":"Feature","id":"way/23135700/10","properties":{"highway":"trunk","junction":"roundabout","lanes":"2","maxspeed":"70","oneway":"yes","id":"way/23135700/10","weighting":10},"geometry":{"type":"LineString","coordinates":[[172.7206065,-43.52579020000002],[172.72053499999998,-43.52575940000001]]}}
,
{"type":"Feature","id":"way/23135700/11","properties":{"highway":"trunk","junction":"roundabout","lanes":"2","maxspeed":"70","oneway":"yes","id":"way/23135700/11","weighting":10},"geometry":{"type":"LineString","coordinates":[[172.72053499999998,-43.52575940000001],[172.7204891,-43.525720800000016]]}}
,
{"type":"Feature","id":"way/23135700/12","properties":{"highway":"trunk","junction":"roundabout","lanes":"2","maxspeed":"70","oneway":"yes","id":"way/23135700/12","weighting":10},"geometry":{"type":"LineString","coordinates":[[172.7204891,-43.525720800000016],[172.72045740000004,-43.52566500000001]]}}
,
{"type":"Feature","id":"way/23135700/13","properties":{"highway":"trunk","junction":"roundabout","lanes":"2","maxspeed":"70","oneway":"yes","id":"way/23135700/13","weighting":10},"geometry":{"type":"LineString","coordinates":[[172.72045740000004,-43.52566500000001],[172.7204599,-43.52558300000001]]}}
,
{"type":"Feature","id":"way/23135700/14","properties":{"highway":"trunk","junction":"roundabout","lanes":"2","maxspeed":"70","oneway":"yes","id":"way/23135700/14","weighting":10},"geometry":{"type":"LineString","coordinates":[[172.7204599,-43.52558300000001],[172.720495,-43.52552830000002]]}}
,
{"type":"Feature","id":"way/23135700/15","properties":{"highway":"trunk","junction":"roundabout","lanes":"2","maxspeed":"70","oneway":"yes","id":"way/23135700/15","weighting":10},"geometry":{"type":"LineString","coordinates":[[172.720495,-43.52552830000002],[172.72055379999995,-43.5254856]]}}
,
{"type":"Feature","id":"way/23135700/16","properties":{"highway":"trunk","junction":"roundabout","lanes":"2","maxspeed":"70","oneway":"yes","id":"way/23135700/16","weighting":10},"geometry":{"type":"LineString","coordinates":[[172.72055379999995,-43.5254856],[172.72061069999998,-43.5254642]]}}
,
{"type":"Feature","id":"way/23147386/0","properties":{"highway":"trunk","lanes":"2","maxspeed":"70","name":"Anzac Drive","ref":"SH 74","id":"way/23147386/0","weighting":10},"geometry":{"type":"LineString","coordinates":[[172.7208954,-43.5248824],[172.720983,-43.5244]]}}
,
{"type":"Feature","id":"way/23147386/1","properties":{"highway":"trunk","lanes":"2","maxspeed":"70","name":"Anzac Drive","ref":"SH 74","id":"way/23147386/1","weighting":10},"geometry":{"type":"LineString","coordinates":[[172.720983,-43.5244],[172.72101690000005,-43.5240248]]}}
,
{"type":"Feature","id":"way/23147386/2","properties":{"highway":"trunk","lanes":"2","maxspeed":"70","name":"Anzac Drive","ref":"SH 74","id":"way/23147386/2","weighting":10},"geometry":{"type":"LineString","coordinates":[[172.72101690000005,-43.5240248],[172.72101080000004,-43.5237848]]}}
,
{"type":"Feature","id":"way/23147386/3","properties":{"highway":"trunk","lanes":"2","maxspeed":"70","name":"Anzac Drive","ref":"SH 74","id":"way/23147386/3","weighting":10},"geometry":{"type":"LineString","coordinates":[[172.72101080000004,-43.5237848],[172.7209421,-43.52319520000002]]}}
,
{"type":"Feature","id":"way/23147386/4","properties":{"highway":"trunk","lanes":"2","maxspeed":"70","name":"Anzac Drive","ref":"SH 74","id":"way/23147386/4","weighting":10},"geometry":{"type":"LineString","coordinates":[[172.7209421,-43.52319520000002],[172.72094750000005,-43.522997900000014]]}}
,
{"type":"Feature","id":"way/23147386/5","properties":{"highway":"trunk","lanes":"2","maxspeed":"70","name":"Anzac Drive","ref":"SH 74","id":"way/23147386/5","weighting":10},"geometry":{"type":"LineString","coordinates":[[172.72094750000005,-43.522997900000014],[172.7209815,-43.522830100000014]]}}
,
{"type":"Feature","id":"way/23147386/6","properties":{"highway":"trunk","lanes":"2","maxspeed":"70","name":"Anzac Drive","ref":"SH 74","id":"way/23147386/6","weighting":10},"geometry":{"type":"LineString","coordinates":[[172.7209815,-43.522830100000014],[172.72101690000005,-43.52246810000001]]}}
,
{"type":"Feature","id":"way/23147386/7","properties":{"highway":"trunk","lanes":"2","maxspeed":"70","name":"Anzac Drive","ref":"SH 74","id":"way/23147386/7","weighting":10},"geometry":{"type":"LineString","coordinates":[[172.72101690000005,-43.52246810000001],[172.721002,-43.52231410000002]]}}
,
{"type":"Feature","id":"way/23147386/8","properties":{"highway":"trunk","lanes":"2","maxspeed":"70","name":"Anzac Drive","ref":"SH 74","id":"way/23147386/8","weighting":10},"geometry":{"type":"LineString","coordinates":[[172.721002,-43.52231410000002],[172.72094630000007,-43.52211310000002]]}}
,
{"type":"Feature","id":"way/23147386/9","properties":{"highway":"trunk","lanes":"2","maxspeed":"70","name":"Anzac Drive","ref":"SH 74","id":"way/23147386/9","weighting":10},"geometry":{"type":"LineString","coordinates":[[172.72094630000007,-43.52211310000002],[172.7208594,-43.5218833]]}}
,
{"type":"Feature","id":"way/23147386/10","properties":{"highway":"trunk","lanes":"2","maxspeed":"70","name":"Anzac Drive","ref":"SH 74","id":"way/23147386/10","weighting":10},"geometry":{"type":"LineString","coordinates":[[172.7208594,-43.5218833],[172.720394,-43.5206698]]}}
,
{"type":"Feature","id":"way/23147386/11","properties":{"highway":"trunk","lanes":"2","maxspeed":"70","name":"Anzac Drive","ref":"SH 74","id":"way/23147386/11","weighting":10},"geometry":{"type":"LineString","coordinates":[[172.720394,-43.5206698],[172.71996559999988,-43.51955260000001]]}}
,
{"type":"Feature","id":"way/23147386/12","properties":{"highway":"trunk","lanes":"2","maxspeed":"70","name":"Anzac Drive","ref":"SH 74","id":"way/23147386/12","weighting":10},"geometry":{"type":"LineString","coordinates":[[172.71996559999988,-43.51955260000001],[172.71965789999993,-43.5189073]]}}
,
{"type":"Feature","id":"way/23147386/13","properties":{"highway":"trunk","lanes":"2","maxspeed":"70","name":"Anzac Drive","ref":"SH 74","id":"way/23147386/13","weighting":10},"geometry":{"type":"LineString","coordinates":[[172.71965789999993,-43.5189073],[172.71920139999995,-43.51812990000001]]}}
,
{"type":"Feature","id":"way/23147386/14","properties":{"highway":"trunk","lanes":"2","maxspeed":"70","name":"Anzac Drive","ref":"SH 74","id":"way/23147386/14","weighting":10},"geometry":{"type":"LineString","coordinates":[[172.71920139999995,-43.51812990000001],[172.71900959999994,-43.5176592]]}}
,
{"type":"Feature","id":"way/23147395/0","properties":{"highway":"trunk","lanes":"2","maxspeed":"70","name":"Anzac Drive","oneway":"yes","ref":"SH 74","id":"way/23147395/0","weighting":10},"geometry":{"type":"LineString","coordinates":[[172.72061069999998,-43.5254642],[172.7208954,-43.5248824]]}}
,
{"type":"Feature","id":"way/23147398/0","properties":{"highway":"trunk","lanes":"2","maxspeed":"70","name":"Dyers Road","oneway":"yes","ref":"SH 74","id":"way/23147398/0","weighting":10},"geometry":{"type":"LineString","coordinates":[[172.7207872,-43.525787],[172.72062519999994,-43.5259875]]}}
,
{"type":"Feature","id":"way/23147398/1","properties":{"highway":"trunk","lanes":"2","maxspeed":"70","name":"Dyers Road","oneway":"yes","ref":"SH 74","id":"way/23147398/1","weighting":10},"geometry":{"type":"LineString","coordinates":[[172.72062519999994,-43.5259875],[172.7201146,-43.52673580000002]]}}
,
{"type":"Feature","id":"way/23235085/0","properties":{"highway":"trunk","lanes":"2","maxspeed":"70","name":"Dyers Road","ref":"SH 74","id":"way/23235085/0","weighting":10},"geometry":{"type":"LineString","coordinates":[[172.6917695,-43.5530992],[172.6920144,-43.552803499999996]]}}
,
{"type":"Feature","id":"way/23235085/1","properties":{"highway":"trunk","lanes":"2","maxspeed":"70","name":"Dyers Road","ref":"SH 74","id":"way/23235085/1","weighting":10},"geometry":{"type":"LineString","coordinates":[[172.6920144,-43.552803499999996],[172.69213340000005,-43.5525832]]}}
,
{"type":"Feature","id":"way/23235085/2","properties":{"highway":"trunk","lanes":"2","maxspeed":"70","name":"Dyers Road","ref":"SH 74","id":"way/23235085/2","weighting":10},"geometry":{"type":"LineString","coordinates":[[172.69213340000005,-43.5525832],[172.69224530000005,-43.5522282]]}}
,
{"type":"Feature","id":"way/23235085/3","properties":{"highway":"trunk","lanes":"2","maxspeed":"70","name":"Dyers Road","ref":"SH 74","id":"way/23235085/3","weighting":10},"geometry":{"type":"LineString","coordinates":[[172.69224530000005,-43.5522282],[172.6922758,-43.5519783]]}}
,
{"type":"Feature","id":"way/23235085/4","properties":{"highway":"trunk","lanes":"2","maxspeed":"70","name":"Dyers Road","ref":"SH 74","id":"way/23235085/4","weighting":10},"geometry":{"type":"LineString","coordinates":[[172.6922758,-43.5519783],[172.69233100000005,-43.55053210000001]]}}
,
{"type":"Feature","id":"way/23235085/5","properties":{"highway":"trunk","lanes":"2","maxspeed":"70","name":"Dyers Road","ref":"SH 74","id":"way/23235085/5","weighting":10},"geometry":{"type":"LineString","coordinates":[[172.69233100000005,-43.55053210000001],[172.6923662,-43.550244499999984]]}}
,
{"type":"Feature","id":"way/23235085/6","properties":{"highway":"trunk","lanes":"2","maxspeed":"70","name":"Dyers Road","ref":"SH 74","id":"way/23235085/6","weighting":10},"geometry":{"type":"LineString","coordinates":[[172.6923662,-43.550244499999984],[172.69246990000005,-43.54991240000001]]}}
,
{"type":"Feature","id":"way/23235136/0","properties":{"highway":"trunk","junction":"roundabout","lanes":"1","maxspeed":"50","oneway":"yes","id":"way/23235136/0","weighting":10},"geometry":{"type":"LineString","coordinates":[[172.6911421,-43.554089299999994],[172.6909103,-43.55405139999999]]}}
,
{"type":"Feature","id":"way/23235136/1","properties":{"highway":"trunk","junction":"roundabout","lanes":"1","maxspeed":"50","oneway":"yes","id":"way/23235136/1","weighting":10},"geometry":{"type":"LineString","coordinates":[[172.6909103,-43.55405139999999],[172.69084680000006,-43.554024199999986]]}}
,
{"type":"Feature","id":"way/23235136/2","properties":{"highway":"trunk","junction":"roundabout","lanes":"1","maxspeed":"50","oneway":"yes","id":"way/23235136/2","weighting":10},"geometry":{"type":"LineString","coordinates":[[172.69084680000006,-43.554024199999986],[172.6907418,-43.5539282]]}}
,
{"type":"Feature","id":"way/23235136/3","properties":{"highway":"trunk","junction":"roundabout","lanes":"1","maxspeed":"50","oneway":"yes","id":"way/23235136/3","weighting":10},"geometry":{"type":"LineString","coordinates":[[172.6907418,-43.5539282],[172.69070559999994,-43.553846199999995]]}}
,
{"type":"Feature","id":"way/23235136/4","properties":{"highway":"trunk","junction":"roundabout","lanes":"1","maxspeed":"50","oneway":"yes","id":"way/23235136/4","weighting":10},"geometry":{"type":"LineString","coordinates":[[172.69070559999994,-43.553846199999995],[172.6907076,-43.55374439999999]]}}
,
{"type":"Feature","id":"way/23235136/5","properties":{"highway":"trunk","junction":"roundabout","lanes":"1","maxspeed":"50","oneway":"yes","id":"way/23235136/5","weighting":10},"geometry":{"type":"LineString","coordinates":[[172.6907076,-43.55374439999999],[172.69077309999994,-43.5536322]]}}
,
{"type":"Feature","id":"way/23235136/6","properties":{"highway":"trunk","junction":"roundabout","lanes":"1","maxspeed":"50","oneway":"yes","id":"way/23235136/6","weighting":10},"geometry":{"type":"LineString","coordinates":[[172.69077309999994,-43.5536322],[172.6908743,-43.5535595]]}}
,
{"type":"Feature","id":"way/23235136/7","properties":{"highway":"trunk","junction":"roundabout","lanes":"1","maxspeed":"50","oneway":"yes","id":"way/23235136/7","weighting":10},"geometry":{"type":"LineString","coordinates":[[172.6908743,-43.5535595],[172.6910066,-43.5535164]]}}
,
{"type":"Feature","id":"way/23235136/8","properties":{"highway":"trunk","junction":"roundabout","lanes":"1","maxspeed":"50","oneway":"yes","id":"way/23235136/8","weighting":10},"geometry":{"type":"LineString","coordinates":[[172.6910066,-43.5535164],[172.6910875,-43.5535082]]}}
,
{"type":"Feature","id":"way/23235136/9","properties":{"highway":"trunk","junction":"roundabout","lanes":"1","maxspeed":"50","oneway":"yes","id":"way/23235136/9","weighting":10},"geometry":{"type":"LineString","coordinates":[[172.6910875,-43.5535082],[172.6911899,-43.55351500000001]]}}
,
{"type":"Feature","id":"way/23235136/10","properties":{"highway":"trunk","junction":"roundabout","lanes":"1","maxspeed":"50","oneway":"yes","id":"way/23235136/10","weighting":10},"geometry":{"type":"LineString","coordinates":[[172.6911899,-43.55351500000001],[172.69134940000006,-43.55356939999999]]}}
,
{"type":"Feature","id":"way/23235136/11","properties":{"highway":"trunk","junction":"roundabout","lanes":"1","maxspeed":"50","oneway":"yes","id":"way/23235136/11","weighting":10},"geometry":{"type":"LineString","coordinates":[[172.69134940000006,-43.55356939999999],[172.6914596,-43.553665499999994]]}}
,
{"type":"Feature","id":"way/23235136/12","properties":{"highway":"trunk","junction":"roundabout","lanes":"1","maxspeed":"50","oneway":"yes","id":"way/23235136/12","weighting":10},"geometry":{"type":"LineString","coordinates":[[172.6914596,-43.553665499999994],[172.69150589999998,-43.5537618]]}}
,
{"type":"Feature","id":"way/23235136/13","properties":{"highway":"trunk","junction":"roundabout","lanes":"1","maxspeed":"50","oneway":"yes","id":"way/23235136/13","weighting":10},"geometry":{"type":"LineString","coordinates":[[172.69150589999998,-43.5537618],[172.69148730000006,-43.553883599999985]]}}
,
{"type":"Feature","id":"way/23235136/14","properties":{"highway":"trunk","junction":"roundabout","lanes":"1","maxspeed":"50","oneway":"yes","id":"way/23235136/14","weighting":10},"geometry":{"type":"LineString","coordinates":[[172.69148730000006,-43.553883599999985],[172.69142140000005,-43.5539921]]}}
,
{"type":"Feature","id":"way/23235136/15","properties":{"highway":"trunk","junction":"roundabout","lanes":"1","maxspeed":"50","oneway":"yes","id":"way/23235136/15","weighting":10},"geometry":{"type":"LineString","coordinates":[[172.69142140000005,-43.5539921],[172.691322,-43.554043499999985]]}}
,
{"type":"Feature","id":"way/23235136/16","properties":{"highway":"trunk","junction":"roundabout","lanes":"1","maxspeed":"50","oneway":"yes","id":"way/23235136/16","weighting":10},"geometry":{"type":"LineString","coordinates":[[172.691322,-43.554043499999985],[172.6911421,-43.554089299999994]]}}
,
{"type":"Feature","id":"way/23235145/0","properties":{"highway":"trunk","lanes":"1","maxspeed":"50","name":"Dyers Road","oneway":"yes","ref":"SH 74","id":"way/23235145/0","weighting":10},"geometry":{"type":"LineString","coordinates":[[172.6917695,-43.5530992],[172.6914926,-43.5534981]]}}
,
{"type":"Feature","id":"way/23235145/1","properties":{"highway":"trunk","lanes":"1","maxspeed":"50","name":"Dyers Road","oneway":"yes","ref":"SH 74","id":"way/23235145/1","weighting":10},"geometry":{"type":"LineString","coordinates":[[172.6914926,-43.5534981],[172.6914596,-43.553665499999994]]}}
,
{"type":"Feature","id":"way/23235148/0","properties":{"highway":"trunk","lanes":"1","maxspeed":"50","name":"Dyers Road","oneway":"yes","ref":"SH 74","id":"way/23235148/0","weighting":10},"geometry":{"type":"LineString","coordinates":[[172.6911899,-43.55351500000001],[172.69133050000005,-43.5534508]]}}
,
{"type":"Feature","id":"way/23235148/1","properties":{"highway":"trunk","lanes":"1","maxspeed":"50","name":"Dyers Road","oneway":"yes","ref":"SH 74","id":"way/23235148/1","weighting":10},"geometry":{"type":"LineString","coordinates":[[172.69133050000005,-43.5534508],[172.69150869999999,-43.5533546]]}}
,
{"type":"Feature","id":"way/23235148/2","properties":{"highway":"trunk","lanes":"1","maxspeed":"50","name":"Dyers Road","oneway":"yes","ref":"SH 74","id":"way/23235148/2","weighting":10},"geometry":{"type":"LineString","coordinates":[[172.69150869999999,-43.5533546],[172.6917695,-43.5530992]]}}
,
{"type":"Feature","id":"way/23235149/0","properties":{"bridge":"yes","highway":"trunk","lanes":"1","layer":"1","maxspeed":"50","motorroad":"yes","name":"Tunnel Road","ref":"SH 74","id":"way/23235149/0","weighting":10},"geometry":{"type":"LineString","coordinates":[[172.69141980000006,-43.554869799999985],[172.6911589,-43.5543967]]}}
,
{"type":"Feature","id":"way/23235152/0","properties":{"highway":"trunk","lanes":"1","maxspeed":"50","motorroad":"yes","name":"Tunnel Road","oneway":"yes","ref":"SH 74","id":"way/23235152/0","weighting":10},"geometry":{"type":"LineString","coordinates":[[172.6911589,-43.5543967],[172.6909103,-43.55405139999999]]}}
,
{"type":"Feature","id":"way/23235156/0","properties":{"highway":"trunk","lanes":"1","maxspeed":"50","motorroad":"yes","name":"Tunnel Road","oneway":"yes","ref":"SH 74","id":"way/23235156/0","weighting":10},"geometry":{"type":"LineString","coordinates":[[172.691322,-43.554043499999985],[172.69119,-43.5541684]]}}
,
{"type":"Feature","id":"way/23235156/1","properties":{"highway":"trunk","lanes":"1","maxspeed":"50","motorroad":"yes","name":"Tunnel Road","oneway":"yes","ref":"SH 74","id":"way/23235156/1","weighting":10},"geometry":{"type":"LineString","coordinates":[[172.69119,-43.5541684],[172.6911635,-43.554221999999996]]}}
,
{"type":"Feature","id":"way/23235156/2","properties":{"highway":"trunk","lanes":"1","maxspeed":"50","motorroad":"yes","name":"Tunnel Road","oneway":"yes","ref":"SH 74","id":"way/23235156/2","weighting":10},"geometry":{"type":"LineString","coordinates":[[172.6911635,-43.554221999999996],[172.6911589,-43.5543967]]}}
,
{"type":"Feature","id":"way/25798058/0","properties":{"destination":"Lyttelton","highway":"trunk","lanes":"1","maxspeed":"50","oneway":"yes","id":"way/25798058/0","weighting":10},"geometry":{"type":"LineString","coordinates":[[172.6936295,-43.5712514],[172.69396379999995,-43.57132280000001]]}}
,
{"type":"Feature","id":"way/25798126/0","properties":{"alt_name":"Port Hills Road Overpass","bicycle":"no","bridge":"yes","foot":"no","highway":"trunk","horse":"no","lanes":"2","layer":"1","maxspeed":"100","motorroad":"yes","name":"Tunnel Road","oneway":"yes","ref":"SH 74","id":"way/25798126/0","weighting":10},"geometry":{"type":"LineString","coordinates":[[172.6933703,-43.5709255],[172.69371549999994,-43.571499599999996]]}}
,
{"type":"Feature","id":"way/25798127/0","properties":{"highway":"trunk","lanes":"1","maxspeed":"100","motorroad":"yes","name":"Tunnel Road","oneway":"yes","ref":"SH 74","id":"way/25798127/0","weighting":10},"geometry":{"type":"LineString","coordinates":[[172.69307319999993,-43.569359100000014],[172.6930449,-43.569717800000014]]}}
,
{"type":"Feature","id":"way/25798127/1","properties":{"highway":"trunk","lanes":"1","maxspeed":"100","motorroad":"yes","name":"Tunnel Road","oneway":"yes","ref":"SH 74","id":"way/25798127/1","weighting":10},"geometry":{"type":"LineString","coordinates":[[172.6930449,-43.569717800000014],[172.69306999999998,-43.56997310000001]]}}
,
{"type":"Feature","id":"way/25798127/2","properties":{"highway":"trunk","lanes":"1","maxspeed":"100","motorroad":"yes","name":"Tunnel Road","oneway":"yes","ref":"SH 74","id":"way/25798127/2","weighting":10},"geometry":{"type":"LineString","coordinates":[[172.69306999999998,-43.56997310000001],[172.69309969999998,-43.5702144]]}}
,
{"type":"Feature","id":"way/25798127/3","properties":{"highway":"trunk","lanes":"1","maxspeed":"100","motorroad":"yes","name":"Tunnel Road","oneway":"yes","ref":"SH 74","id":"way/25798127/3","weighting":10},"geometry":{"type":"LineString","coordinates":[[172.69309969999998,-43.5702144],[172.69317259999994,-43.570435900000014]]}}
,
{"type":"Feature","id":"way/25798127/4","properties":{"highway":"trunk","lanes":"1","maxspeed":"100","motorroad":"yes","name":"Tunnel Road","oneway":"yes","ref":"SH 74","id":"way/25798127/4","weighting":10},"geometry":{"type":"LineString","coordinates":[[172.69317259999994,-43.570435900000014],[172.69325549999994,-43.570661099999995]]}}
,
{"type":"Feature","id":"way/25798127/5","properties":{"highway":"trunk","lanes":"1","maxspeed":"100","motorroad":"yes","name":"Tunnel Road","oneway":"yes","ref":"SH 74","id":"way/25798127/5","weighting":10},"geometry":{"type":"LineString","coordinates":[[172.69325549999994,-43.570661099999995],[172.6933034,-43.5707714]]}}
,
{"type":"Feature","id":"way/25798177/0","properties":{"highway":"trunk","lanes":"2","maxspeed":"50","name":"Scruttons Road","oneway":"no","ref":"SH 74","id":"way/25798177/0","weighting":10},"geometry":{"type":"LineString","coordinates":[[172.6943112,-43.5707493],[172.6943459,-43.57113510000001]]}}
,
{"type":"Feature","id":"way/25798218/0","properties":{"highway":"trunk","lanes":"2","maxspeed":"50","name":"Port Hills Road","ref":"SH 76","id":"way/25798218/0","weighting":10},"geometry":{"type":"LineString","coordinates":[[172.6936295,-43.5712514],[172.69301449999998,-43.5709695]]}}
,
{"type":"Feature","id":"way/25798218/1","properties":{"highway":"trunk","lanes":"2","maxspeed":"50","name":"Port Hills Road","ref":"SH 76","id":"way/25798218/1","weighting":10},"geometry":{"type":"LineString","coordinates":[[172.69301449999998,-43.5709695],[172.6923546,-43.5706719]]}}
,
{"type":"Feature","id":"way/25923469/0","properties":{"highway":"trunk","lanes":"1","layer":"1","maxspeed":"100","motorroad":"yes","name":"Tunnel Road","oneway":"yes","ref":"SH 74","id":"way/25923469/0","weighting":10},"geometry":{"type":"LineString","coordinates":[[172.69325569999992,-43.567887799999994],[172.6932453,-43.568116500000016]]}}
,
{"type":"Feature","id":"way/25923469/1","properties":{"highway":"trunk","lanes":"1","layer":"1","maxspeed":"100","motorroad":"yes","name":"Tunnel Road","oneway":"yes","ref":"SH 74","id":"way/25923469/1","weighting":10},"geometry":{"type":"LineString","coordinates":[[172.6932453,-43.568116500000016],[172.6931099,-43.568991900000015]]}}
,
{"type":"Feature","id":"way/25923469/2","properties":{"highway":"trunk","lanes":"1","layer":"1","maxspeed":"100","motorroad":"yes","name":"Tunnel Road","oneway":"yes","ref":"SH 74","id":"way/25923469/2","weighting":10},"geometry":{"type":"LineString","coordinates":[[172.6931099,-43.568991900000015],[172.69307319999993,-43.569359100000014]]}}
,
{"type":"Feature","id":"way/25923472/0","properties":{"highway":"trunk","lanes":"2","maxspeed":"100","motorroad":"yes","name":"Tunnel Road","ref":"SH 74","id":"way/25923472/0","weighting":10},"geometry":{"type":"LineString","coordinates":[[172.69342930000005,-43.56695120000001],[172.69350459999993,-43.56655660000001]]}}
,
{"type":"Feature","id":"way/25923472/1","properties":{"highway":"trunk","lanes":"2","maxspeed":"100","motorroad":"yes","name":"Tunnel Road","ref":"SH 74","id":"way/25923472/1","weighting":10},"geometry":{"type":"LineString","coordinates":[[172.69350459999993,-43.56655660000001],[172.69365459999992,-43.56569380000001]]}}
,
{"type":"Feature","id":"way/25923472/15","properties":{"highway":"trunk","lanes":"2","maxspeed":"100","motorroad":"yes","name":"Tunnel Road","ref":"SH 74","id":"way/25923472/15","weighting":10},"geometry":{"type":"LineString","coordinates":[[172.69231720000005,-43.556515900000015],[172.6918563,-43.5556307]]}}
,
{"type":"Feature","id":"way/25923472/16","properties":{"highway":"trunk","lanes":"2","maxspeed":"100","motorroad":"yes","name":"Tunnel Road","ref":"SH 74","id":"way/25923472/16","weighting":10},"geometry":{"type":"LineString","coordinates":[[172.6918563,-43.5556307],[172.6915193,-43.55503580000001]]}}
,
{"type":"Feature","id":"way/25923472/17","properties":{"highway":"trunk","lanes":"2","maxspeed":"100","motorroad":"yes","name":"Tunnel Road","ref":"SH 74","id":"way/25923472/17","weighting":10},"geometry":{"type":"LineString","coordinates":[[172.6915193,-43.55503580000001],[172.69141980000006,-43.554869799999985]]}}
,
{"type":"Feature","id":"way/25923541/0","properties":{"highway":"trunk","lanes":"1","maxspeed":"100","motorroad":"yes","name":"Tunnel Road","oneway":"yes","ref":"SH 74","id":"way/25923541/0","weighting":10},"geometry":{"type":"LineString","coordinates":[[172.6929282,-43.56980230000001],[172.69293800000005,-43.569206]]}}
,
{"type":"Feature","id":"way/25923541/1","properties":{"highway":"trunk","lanes":"1","maxspeed":"100","motorroad":"yes","name":"Tunnel Road","oneway":"yes","ref":"SH 74","id":"way/25923541/1","weighting":10},"geometry":{"type":"LineString","coordinates":[[172.69293800000005,-43.569206],[172.69325569999992,-43.567887799999994]]}}
,
{"type":"Feature","id":"way/25923546/0","properties":{"bridge":"yes","highway":"trunk","lanes":"2","layer":"1","maxspeed":"100","motorroad":"yes","name":"Tunnel Road","ref":"SH 74","id":"way/25923546/0","weighting":10},"geometry":{"type":"LineString","coordinates":[[172.69325569999992,-43.567887799999994],[172.69342930000005,-43.56695120000001]]}}
,
{"type":"Feature","id":"way/25923703/0","properties":{"bicycle":"no","foot":"no","highway":"trunk","horse":"no","maxspeed":"100","motorroad":"yes","name":"Tunnel Road","oneway":"yes","ref":"SH 74","id":"way/25923703/0","weighting":10},"geometry":{"type":"LineString","coordinates":[[172.69371549999994,-43.571499599999996],[172.69390869999998,-43.571735900000014]]}}
,
{"type":"Feature","id":"way/25923703/1","properties":{"bicycle":"no","foot":"no","highway":"trunk","horse":"no","maxspeed":"100","motorroad":"yes","name":"Tunnel Road","oneway":"yes","ref":"SH 74","id":"way/25923703/1","weighting":10},"geometry":{"type":"LineString","coordinates":[[172.69390869999998,-43.571735900000014],[172.6941695,-43.5720206]]}}
,
{"type":"Feature","id":"way/25923703/2","properties":{"bicycle":"no","foot":"no","highway":"trunk","horse":"no","maxspeed":"100","motorroad":"yes","name":"Tunnel Road","oneway":"yes","ref":"SH 74","id":"way/25923703/2","weighting":10},"geometry":{"type":"LineString","coordinates":[[172.6941695,-43.5720206],[172.6945747999999,-43.57236920000001]]}}
,
{"type":"Feature","id":"way/25923711/0","properties":{"bicycle":"no","foot":"no","highway":"trunk","horse":"no","lanes":"2","maxspeed":"100","motorroad":"yes","name":"Tunnel Road","oneway":"yes","ref":"SH 74","id":"way/25923711/0","weighting":10},"geometry":{"type":"LineString","coordinates":[[172.6968513,-43.5734949],[172.6964447,-43.5733954]]}}
,
{"type":"Feature","id":"way/25923711/1","properties":{"bicycle":"no","foot":"no","highway":"trunk","horse":"no","lanes":"2","maxspeed":"100","motorroad":"yes","name":"Tunnel Road","oneway":"yes","ref":"SH 74","id":"way/25923711/1","weighting":10},"geometry":{"type":"LineString","coordinates":[[172.6964447,-43.5733954],[172.6959904,-43.573241]]}}
,
{"type":"Feature","id":"way/25923711/2","properties":{"bicycle":"no","foot":"no","highway":"trunk","horse":"no","lanes":"2","maxspeed":"100","motorroad":"yes","name":"Tunnel Road","oneway":"yes","ref":"SH 74","id":"way/25923711/2","weighting":10},"geometry":{"type":"LineString","coordinates":[[172.6959904,-43.573241],[172.695331,-43.5729824]]}}
,
{"type":"Feature","id":"way/25923711/3","properties":{"bicycle":"no","foot":"no","highway":"trunk","horse":"no","lanes":"2","maxspeed":"100","motorroad":"yes","name":"Tunnel Road","oneway":"yes","ref":"SH 74","id":"way/25923711/3","weighting":10},"geometry":{"type":"LineString","coordinates":[[172.695331,-43.5729824],[172.694878,-43.57273540000001]]}}
,
{"type":"Feature","id":"way/25923871/0","properties":{"highway":"trunk","lanes":"1","maxspeed":"100","motorroad":"yes","name":"Tunnel Road","oneway":"yes","ref":"SH 74","id":"way/25923871/0","weighting":10},"geometry":{"type":"LineString","coordinates":[[172.6931439,-43.57079990000001],[172.69307899999998,-43.5706409]]}}
,
{"type":"Feature","id":"way/25923871/1","properties":{"highway":"trunk","lanes":"1","maxspeed":"100","motorroad":"yes","name":"Tunnel Road","oneway":"yes","ref":"SH 74","id":"way/25923871/1","weighting":10},"geometry":{"type":"LineString","coordinates":[[172.69307899999998,-43.5706409],[172.69303539999999,-43.5704969]]}}
,
{"type":"Feature","id":"way/25923871/2","properties":{"highway":"trunk","lanes":"1","maxspeed":"100","motorroad":"yes","name":"Tunnel Road","oneway":"yes","ref":"SH 74","id":"way/25923871/2","weighting":10},"geometry":{"type":"LineString","coordinates":[[172.69303539999999,-43.5704969],[172.69297559999998,-43.5702491]]}}
,
{"type":"Feature","id":"way/25923871/3","properties":{"highway":"trunk","lanes":"1","maxspeed":"100","motorroad":"yes","name":"Tunnel Road","oneway":"yes","ref":"SH 74","id":"way/25923871/3","weighting":10},"geometry":{"type":"LineString","coordinates":[[172.69297559999998,-43.5702491],[172.6929282,-43.56980230000001]]}}
,
{"type":"Feature","id":"way/25923878/0","properties":{"alt_name":"Port Hills Road Overpass","bridge":"yes","highway":"trunk","lanes":"1","layer":"1","maxspeed":"100","motorroad":"yes","name":"Tunnel Road","oneway":"yes","ref":"SH 74","id":"way/25923878/0","weighting":10},"geometry":{"type":"LineString","coordinates":[[172.6934791,-43.5714112],[172.6933391,-43.5711714]]}}
,
{"type":"Feature","id":"way/25923878/1","properties":{"alt_name":"Port Hills Road Overpass","bridge":"yes","highway":"trunk","lanes":"1","layer":"1","maxspeed":"100","motorroad":"yes","name":"Tunnel Road","oneway":"yes","ref":"SH 74","id":"way/25923878/1","weighting":10},"geometry":{"type":"LineString","coordinates":[[172.6933391,-43.5711714],[172.6931439,-43.57079990000001]]}}
,
{"type":"Feature","id":"way/31378682/0","properties":{"bicycle":"no","foot":"no","highway":"trunk","horse":"no","lanes":"2","maxspeed":"100","motorroad":"yes","name":"Tunnel Road","oneway":"yes","ref":"SH 74","id":"way/31378682/0","weighting":10},"geometry":{"type":"LineString","coordinates":[[172.6949879,-43.57265130000001],[172.69588249999998,-43.573106]]}}
,
{"type":"Feature","id":"way/31378682/1","properties":{"bicycle":"no","foot":"no","highway":"trunk","horse":"no","lanes":"2","maxspeed":"100","motorroad":"yes","name":"Tunnel Road","oneway":"yes","ref":"SH 74","id":"way/31378682/1","weighting":10},"geometry":{"type":"LineString","coordinates":[[172.69588249999998,-43.573106],[172.6968513,-43.5734949]]}}
,
{"type":"Feature","id":"way/31378686/0","properties":{"alt_name":"Horotane Overbridge","bicycle":"no","bridge":"yes","foot":"no","highway":"trunk","horse":"no","lanes":"2","layer":"1","maxspeed":"100","motorroad":"yes","name":"Tunnel Rd","note":"only 1 lane is open due to weakening from earthquake after February 2011","oneway":"yes","ref":"SH 74","id":"way/31378686/0","weighting":10},"geometry":{"type":"LineString","coordinates":[[172.6945747999999,-43.57236920000001],[172.6949879,-43.57265130000001]]}}
,
{"type":"Feature","id":"way/31378691/0","properties":{"highway":"trunk","lanes":"1","maxspeed":"100","motorroad":"yes","name":"Tunnel Road","oneway":"yes","ref":"SH 74","id":"way/31378691/0","weighting":10},"geometry":{"type":"LineString","coordinates":[[172.69446399999998,-43.5724618],[172.6939774,-43.5720216]]}}
,
{"type":"Feature","id":"way/31378691/1","properties":{"highway":"trunk","lanes":"1","maxspeed":"100","motorroad":"yes","name":"Tunnel Road","oneway":"yes","ref":"SH 74","id":"way/31378691/1","weighting":10},"geometry":{"type":"LineString","coordinates":[[172.6939774,-43.5720216],[172.69367319999992,-43.57168339999999]]}}
,
{"type":"Feature","id":"way/31378691/2","properties":{"highway":"trunk","lanes":"1","maxspeed":"100","motorroad":"yes","name":"Tunnel Road","oneway":"yes","ref":"SH 74","id":"way/31378691/2","weighting":10},"geometry":{"type":"LineString","coordinates":[[172.69367319999992,-43.57168339999999],[172.6934791,-43.5714112]]}}
,
{"type":"Feature","id":"way/31378693/0","properties":{"alt_name":"Horotane Overbridge","bicycle":"no","bridge":"yes","foot":"no","highway":"trunk","horse":"no","lanes":"2","layer":"1","maxspeed":"100","motorroad":"yes","name":"Tunnel Rd","note":"only 1 lane is open due to weakening from earthquake after February 2011","oneway":"yes","ref":"SH 74","id":"way/31378693/0","weighting":10},"geometry":{"type":"LineString","coordinates":[[172.694878,-43.57273540000001],[172.69446399999998,-43.5724618]]}}
,
{"type":"Feature","id":"way/34124567/0","properties":{"highway":"trunk","lanes":"2","maxspeed":"70","name":"Dyers Road","ref":"SH 74","id":"way/34124567/0","weighting":10},"geometry":{"type":"LineString","coordinates":[[172.69246990000005,-43.54991240000001],[172.6927576,-43.5494341]]}}
,
{"type":"Feature","id":"way/34124567/1","properties":{"highway":"trunk","lanes":"2","maxspeed":"70","name":"Dyers Road","ref":"SH 74","id":"way/34124567/1","weighting":10},"geometry":{"type":"LineString","coordinates":[[172.6927576,-43.5494341],[172.69292330000005,-43.549212200000014]]}}
,
{"type":"Feature","id":"way/34124567/2","properties":{"highway":"trunk","lanes":"2","maxspeed":"70","name":"Dyers Road","ref":"SH 74","id":"way/34124567/2","weighting":10},"geometry":{"type":"LineString","coordinates":[[172.69292330000005,-43.549212200000014],[172.69317159999994,-43.54894630000001]]}}
,
{"type":"Feature","id":"way/34124567/3","properties":{"highway":"trunk","lanes":"2","maxspeed":"70","name":"Dyers Road","ref":"SH 74","id":"way/34124567/3","weighting":10},"geometry":{"type":"LineString","coordinates":[[172.69317159999994,-43.54894630000001],[172.69411419999994,-43.5479992]]}}
,
{"type":"Feature","id":"way/34124816/0","properties":{"highway":"trunk","lanes":"2","maxspeed":"70","name":"Anzac Drive","oneway":"yes","ref":"SH 74","id":"way/34124816/0","weighting":10},"geometry":{"type":"LineString","coordinates":[[172.7208954,-43.5248824],[172.72080449999999,-43.5254746]]}}
,
{"type":"Feature","id":"way/34124817/0","properties":{"highway":"trunk","lanes":"2","maxspeed":"70","name":"Dyers Road","oneway":"yes","ref":"SH 74","id":"way/34124817/0","weighting":10},"geometry":{"type":"LineString","coordinates":[[172.7201146,-43.52673580000002],[172.7206065,-43.52579020000002]]}}
,
{"type":"Feature","id":"way/41649716/0","properties":{"highway":"trunk","lanes":"2","maxspeed":"60","name":"Brougham Street","oneway":"yes","ref":"SH 76","id":"way/41649716/0","weighting":10},"geometry":{"type":"LineString","coordinates":[[172.63666529999995,-43.547429799999996],[172.63829180000005,-43.547431499999995]]}}
,
{"type":"Feature","id":"way/41649716/1","properties":{"highway":"trunk","lanes":"2","maxspeed":"60","name":"Brougham Street","oneway":"yes","ref":"SH 76","id":"way/41649716/1","weighting":10},"geometry":{"type":"LineString","coordinates":[[172.63829180000005,-43.547431499999995],[172.6390388,-43.54742739999999]]}}
,
{"type":"Feature","id":"way/41649716/2","properties":{"highway":"trunk","lanes":"2","maxspeed":"60","name":"Brougham Street","oneway":"yes","ref":"SH 76","id":"way/41649716/2","weighting":10},"geometry":{"type":"LineString","coordinates":[[172.6390388,-43.54742739999999],[172.64265489999994,-43.5474151]]}}
,
{"type":"Feature","id":"way/41649716/3","properties":{"highway":"trunk","lanes":"2","maxspeed":"60","name":"Brougham Street","oneway":"yes","ref":"SH 76","id":"way/41649716/3","weighting":10},"geometry":{"type":"LineString","coordinates":[[172.64265489999994,-43.5474151],[172.64517359999994,-43.5474147]]}}
,
{"type":"Feature","id":"way/41649716/4","properties":{"highway":"trunk","lanes":"2","maxspeed":"60","name":"Brougham Street","oneway":"yes","ref":"SH 76","id":"way/41649716/4","weighting":10},"geometry":{"type":"LineString","coordinates":[[172.64517359999994,-43.5474147],[172.6468124,-43.5474147]]}}
,
{"type":"Feature","id":"way/41649716/5","properties":{"highway":"trunk","lanes":"2","maxspeed":"60","name":"Brougham Street","oneway":"yes","ref":"SH 76","id":"way/41649716/5","weighting":10},"geometry":{"type":"LineString","coordinates":[[172.6468124,-43.5474147],[172.64685019999993,-43.5474141]]}}
,
{"type":"Feature","id":"way/41649716/6","properties":{"highway":"trunk","lanes":"2","maxspeed":"60","name":"Brougham Street","oneway":"yes","ref":"SH 76","id":"way/41649716/6","weighting":10},"geometry":{"type":"LineString","coordinates":[[172.64685019999993,-43.5474141],[172.64691169999998,-43.547413]]}}
,
{"type":"Feature","id":"way/41649716/7","properties":{"highway":"trunk","lanes":"2","maxspeed":"60","name":"Brougham Street","oneway":"yes","ref":"SH 76","id":"way/41649716/7","weighting":10},"geometry":{"type":"LineString","coordinates":[[172.64691169999998,-43.547413],[172.6472818,-43.5474069]]}}
,
{"type":"Feature","id":"way/41649716/8","properties":{"highway":"trunk","lanes":"2","maxspeed":"60","name":"Brougham Street","oneway":"yes","ref":"SH 76","id":"way/41649716/8","weighting":10},"geometry":{"type":"LineString","coordinates":[[172.6472818,-43.5474069],[172.6475994,-43.547425499999996]]}}
,
{"type":"Feature","id":"way/41649716/9","properties":{"highway":"trunk","lanes":"2","maxspeed":"60","name":"Brougham Street","oneway":"yes","ref":"SH 76","id":"way/41649716/9","weighting":10},"geometry":{"type":"LineString","coordinates":[[172.6475994,-43.547425499999996],[172.6481916,-43.5474753]]}}
,
{"type":"Feature","id":"way/41649716/10","properties":{"highway":"trunk","lanes":"2","maxspeed":"60","name":"Brougham Street","oneway":"yes","ref":"SH 76","id":"way/41649716/10","weighting":10},"geometry":{"type":"LineString","coordinates":[[172.6481916,-43.5474753],[172.64887819999998,-43.5475748]]}}
,
{"type":"Feature","id":"way/41649716/11","properties":{"highway":"trunk","lanes":"2","maxspeed":"60","name":"Brougham Street","oneway":"yes","ref":"SH 76","id":"way/41649716/11","weighting":10},"geometry":{"type":"LineString","coordinates":[[172.64887819999998,-43.5475748],[172.65033740000007,-43.5478983]]}}
,
{"type":"Feature","id":"way/41649716/12","properties":{"highway":"trunk","lanes":"2","maxspeed":"60","name":"Brougham Street","oneway":"yes","ref":"SH 76","id":"way/41649716/12","weighting":10},"geometry":{"type":"LineString","coordinates":[[172.65033740000007,-43.5478983],[172.65105419999998,-43.5480637]]}}
,
{"type":"Feature","id":"way/41649716/13","properties":{"highway":"trunk","lanes":"2","maxspeed":"60","name":"Brougham Street","oneway":"yes","ref":"SH 76","id":"way/41649716/13","weighting":10},"geometry":{"type":"LineString","coordinates":[[172.65105419999998,-43.5480637],[172.65152630000006,-43.54816870000001]]}}
,
{"type":"Feature","id":"way/41649716/14","properties":{"highway":"trunk","lanes":"2","maxspeed":"60","name":"Brougham Street","oneway":"yes","ref":"SH 76","id":"way/41649716/14","weighting":10},"geometry":{"type":"LineString","coordinates":[[172.65152630000006,-43.54816870000001],[172.65225030000005,-43.548323300000014]]}}
,
{"type":"Feature","id":"way/101696070/0","properties":{"highway":"trunk","lanes":"2","maxspeed":"50","name":"Port Hills Road","ref":"SH 76","id":"way/101696070/0","weighting":10},"geometry":{"type":"LineString","coordinates":[[172.69065319999993,-43.57049230000001],[172.6885838,-43.570570300000014]]}}
,
{"type":"Feature","id":"way/101696071/0","properties":{"highway":"trunk","lanes":"2","maxspeed":"50","name":"Port Hills Road","ref":"SH 76","id":"way/101696071/0","weighting":10},"geometry":{"type":"LineString","coordinates":[[172.6923546,-43.5706719],[172.6921592,-43.570594]]}}
,
{"type":"Feature","id":"way/101696071/1","properties":{"highway":"trunk","lanes":"2","maxspeed":"50","name":"Port Hills Road","ref":"SH 76","id":"way/101696071/1","weighting":10},"geometry":{"type":"LineString","coordinates":[[172.6921592,-43.570594],[172.6918618,-43.57052330000001]]}}
,
{"type":"Feature","id":"way/101696071/2","properties":{"highway":"trunk","lanes":"2","maxspeed":"50","name":"Port Hills Road","ref":"SH 76","id":"way/101696071/2","weighting":10},"geometry":{"type":"LineString","coordinates":[[172.6918618,-43.57052330000001],[172.69155179999996,-43.570480599999996]]}}
,
{"type":"Feature","id":"way/101696071/3","properties":{"highway":"trunk","lanes":"2","maxspeed":"50","name":"Port Hills Road","ref":"SH 76","id":"way/101696071/3","weighting":10},"geometry":{"type":"LineString","coordinates":[[172.69155179999996,-43.570480599999996],[172.69129780000006,-43.5704691]]}}
,
{"type":"Feature","id":"way/101696071/4","properties":{"highway":"trunk","lanes":"2","maxspeed":"50","name":"Port Hills Road","ref":"SH 76","id":"way/101696071/4","weighting":10},"geometry":{"type":"LineString","coordinates":[[172.69129780000006,-43.5704691],[172.69065319999993,-43.57049230000001]]}}
,
{"type":"Feature","id":"way/103119825/0","properties":{"highway":"trunk","lanes":"2","maxspeed":"70","name":"Dyers Road","ref":"SH 74","id":"way/103119825/0","weighting":10},"geometry":{"type":"LineString","coordinates":[[172.6954854,-43.546549],[172.69556499999993,-43.5464491]]}}
,
{"type":"Feature","id":"way/103119827/0","properties":{"bridge":"yes","highway":"trunk","lanes":"2","maxspeed":"70","name":"Dyers Road","ref":"SH 74","id":"way/103119827/0","weighting":10},"geometry":{"type":"LineString","coordinates":[[172.6951683,-43.5468824],[172.6954854,-43.546549]]}}
,
{"type":"Feature","id":"way/105082944/0","properties":{"bridge":"yes","highway":"trunk","lanes":"1","maxspeed":"100","name":"Tunnel Rd","oneway":"yes","ref":"SH 74","id":"way/105082944/0","weighting":10},"geometry":{"type":"LineString","coordinates":[[172.6933034,-43.5707714],[172.6933703,-43.5709255]]}}
,
{"type":"Feature","id":"way/114647054/0","properties":{"bridge":"yes","highway":"motorway","lanes":"2","layer":"1","maxspeed":"100","name":"Christchurch Southern Motorway","oneway":"yes","ref":"SH 76","start_date":"2012-12-01","id":"way/114647054/0","weighting":10},"geometry":{"type":"LineString","coordinates":[[172.60502549999998,-43.5479701],[172.60402359999998,-43.547860799999995]]}}
,
{"type":"Feature","id":"way/114647056/0","properties":{"bridge":"yes","highway":"motorway","lanes":"2","layer":"1","maxspeed":"100","name":"Christchurch Southern Motorway","oneway":"yes","ref":"SH 76","start_date":"2012-12-01","id":"way/114647056/0","weighting":10},"geometry":{"type":"LineString","coordinates":[[172.5984365000001,-43.5470803],[172.59739890000006,-43.5469297]]}}
,
{"type":"Feature","id":"way/114770289/5","properties":{"highway":"trunk","lanes":"2","maxspeed":"60","name":"Brougham Street","oneway":"yes","ref":"SH 76","id":"way/114770289/5","weighting":10},"geometry":{"type":"LineString","coordinates":[[172.6521629,-43.548432100000014],[172.65124530000006,-43.5482277]]}}
,
{"type":"Feature","id":"way/114770289/6","properties":{"highway":"trunk","lanes":"2","maxspeed":"60","name":"Brougham Street","oneway":"yes","ref":"SH 76","id":"way/114770289/6","weighting":10},"geometry":{"type":"LineString","coordinates":[[172.65124530000006,-43.5482277],[172.649146,-43.547716]]}}
,
{"type":"Feature","id":"way/114770289/7","properties":{"highway":"trunk","lanes":"2","maxspeed":"60","name":"Brougham Street","oneway":"yes","ref":"SH 76","id":"way/114770289/7","weighting":10},"geometry":{"type":"LineString","coordinates":[[172.649146,-43.547716],[172.64869269999994,-43.547624599999985]]}}
,
{"type":"Feature","id":"way/114770289/8","properties":{"highway":"trunk","lanes":"2","maxspeed":"60","name":"Brougham Street","oneway":"yes","ref":"SH 76","id":"way/114770289/8","weighting":10},"geometry":{"type":"LineString","coordinates":[[172.64869269999994,-43.547624599999985],[172.6483225,-43.54757220000001]]}}
,
{"type":"Feature","id":"way/114770289/9","properties":{"highway":"trunk","lanes":"2","maxspeed":"60","name":"Brougham Street","oneway":"yes","ref":"SH 76","id":"way/114770289/9","weighting":10},"geometry":{"type":"LineString","coordinates":[[172.6483225,-43.54757220000001],[172.6480302,-43.5475391]]}}
,
{"type":"Feature","id":"way/114770289/10","properties":{"highway":"trunk","lanes":"2","maxspeed":"60","name":"Brougham Street","oneway":"yes","ref":"SH 76","id":"way/114770289/10","weighting":10},"geometry":{"type":"LineString","coordinates":[[172.6480302,-43.5475391],[172.64777269999993,-43.54752739999999]]}}
,
{"type":"Feature","id":"way/114770289/11","properties":{"highway":"trunk","lanes":"2","maxspeed":"60","name":"Brougham Street","oneway":"yes","ref":"SH 76","id":"way/114770289/11","weighting":10},"geometry":{"type":"LineString","coordinates":[[172.64777269999993,-43.54752739999999],[172.6475393,-43.5475197]]}}
,
{"type":"Feature","id":"way/114770289/12","properties":{"highway":"trunk","lanes":"2","maxspeed":"60","name":"Brougham Street","oneway":"yes","ref":"SH 76","id":"way/114770289/12","weighting":10},"geometry":{"type":"LineString","coordinates":[[172.6475393,-43.5475197],[172.647204,-43.5475177]]}}
,
{"type":"Feature","id":"way/114770289/13","properties":{"highway":"trunk","lanes":"2","maxspeed":"60","name":"Brougham Street","oneway":"yes","ref":"SH 76","id":"way/114770289/13","weighting":10},"geometry":{"type":"LineString","coordinates":[[172.647204,-43.5475177],[172.64691419999994,-43.5475177]]}}
,
{"type":"Feature","id":"way/114770289/14","properties":{"highway":"trunk","lanes":"2","maxspeed":"60","name":"Brougham Street","oneway":"yes","ref":"SH 76","id":"way/114770289/14","weighting":10},"geometry":{"type":"LineString","coordinates":[[172.64691419999994,-43.5475177],[172.64684559999998,-43.5475177]]}}
,
{"type":"Feature","id":"way/114770289/15","properties":{"highway":"trunk","lanes":"2","maxspeed":"60","name":"Brougham Street","oneway":"yes","ref":"SH 76","id":"way/114770289/15","weighting":10},"geometry":{"type":"LineString","coordinates":[[172.64684559999998,-43.5475177],[172.64646369999994,-43.5475177]]}}
,
{"type":"Feature","id":"way/114770289/16","properties":{"highway":"trunk","lanes":"2","maxspeed":"60","name":"Brougham Street","oneway":"yes","ref":"SH 76","id":"way/114770289/16","weighting":10},"geometry":{"type":"LineString","coordinates":[[172.64646369999994,-43.5475177],[172.6451119,-43.5475197]]}}
,
{"type":"Feature","id":"way/114770289/17","properties":{"highway":"trunk","lanes":"2","maxspeed":"60","name":"Brougham Street","oneway":"yes","ref":"SH 76","id":"way/114770289/17","weighting":10},"geometry":{"type":"LineString","coordinates":[[172.6451119,-43.5475197],[172.6427386,-43.5475206]]}}
,
{"type":"Feature","id":"way/114770289/18","properties":{"highway":"trunk","lanes":"2","maxspeed":"60","name":"Brougham Street","oneway":"yes","ref":"SH 76","id":"way/114770289/18","weighting":10},"geometry":{"type":"LineString","coordinates":[[172.6427386,-43.5475206],[172.64265749999998,-43.5475212]]}}
,
{"type":"Feature","id":"way/114770289/19","properties":{"highway":"trunk","lanes":"2","maxspeed":"60","name":"Brougham Street","oneway":"yes","ref":"SH 76","id":"way/114770289/19","weighting":10},"geometry":{"type":"LineString","coordinates":[[172.64265749999998,-43.5475212],[172.64153919999998,-43.5475294]]}}
,
{"type":"Feature","id":"way/114770289/20","properties":{"highway":"trunk","lanes":"2","maxspeed":"60","name":"Brougham Street","oneway":"yes","ref":"SH 76","id":"way/114770289/20","weighting":10},"geometry":{"type":"LineString","coordinates":[[172.64153919999998,-43.5475294],[172.64014980000005,-43.5475361]]}}
,
{"type":"Feature","id":"way/114770289/21","properties":{"highway":"trunk","lanes":"2","maxspeed":"60","name":"Brougham Street","oneway":"yes","ref":"SH 76","id":"way/114770289/21","weighting":10},"geometry":{"type":"LineString","coordinates":[[172.64014980000005,-43.5475361],[172.6388245,-43.5475426]]}}
,
{"type":"Feature","id":"way/114770289/22","properties":{"highway":"trunk","lanes":"2","maxspeed":"60","name":"Brougham Street","oneway":"yes","ref":"SH 76","id":"way/114770289/22","weighting":10},"geometry":{"type":"LineString","coordinates":[[172.6388245,-43.5475426],[172.63829090000004,-43.547548]]}}
,
{"type":"Feature","id":"way/114770289/23","properties":{"highway":"trunk","lanes":"2","maxspeed":"60","name":"Brougham Street","oneway":"yes","ref":"SH 76","id":"way/114770289/23","weighting":10},"geometry":{"type":"LineString","coordinates":[[172.63829090000004,-43.547548],[172.63666859999998,-43.5475406]]}}
,
{"type":"Feature","id":"way/116421891/0","properties":{"highway":"trunk","lanes":"2","maxspeed":"70","name":"Dyers Road","ref":"SH 74","id":"way/116421891/0","weighting":10},"geometry":{"type":"LineString","coordinates":[[172.69556499999993,-43.5464491],[172.6958223,-43.5461649]]}}
,
{"type":"Feature","id":"way/120109226/0","properties":{"highway":"trunk","lanes":"1","maxspeed":"50","motorroad":"yes","name":"Tunnel Road","oneway":"-1","ref":"SH 74","id":"way/120109226/0","weighting":10},"geometry":{"type":"LineString","coordinates":[[172.7060593,-43.584606199999996],[172.70575929999995,-43.5841538]]}}
,
{"type":"Feature","id":"way/120109226/1","properties":{"highway":"trunk","lanes":"1","maxspeed":"50","motorroad":"yes","name":"Tunnel Road","oneway":"-1","ref":"SH 74","id":"way/120109226/1","weighting":10},"geometry":{"type":"LineString","coordinates":[[172.70575929999995,-43.5841538],[172.70559709999998,-43.5838828]]}}
,
{"type":"Feature","id":"way/120109226/2","properties":{"highway":"trunk","lanes":"1","maxspeed":"50","motorroad":"yes","name":"Tunnel Road","oneway":"-1","ref":"SH 74","id":"way/120109226/2","weighting":10},"geometry":{"type":"LineString","coordinates":[[172.70559709999998,-43.5838828],[172.7054884,-43.5836486]]}}
,
{"type":"Feature","id":"way/120109226/3","properties":{"highway":"trunk","lanes":"1","maxspeed":"50","motorroad":"yes","name":"Tunnel Road","oneway":"-1","ref":"SH 74","id":"way/120109226/3","weighting":10},"geometry":{"type":"LineString","coordinates":[[172.7054884,-43.5836486],[172.7053865,-43.5834135]]}}
,
{"type":"Feature","id":"way/120109226/4","properties":{"highway":"trunk","lanes":"1","maxspeed":"50","motorroad":"yes","name":"Tunnel Road","oneway":"-1","ref":"SH 74","id":"way/120109226/4","weighting":10},"geometry":{"type":"LineString","coordinates":[[172.7053865,-43.5834135],[172.7052165,-43.58285330000001]]}}
,
{"type":"Feature","id":"way/120626154/0","properties":{"highway":"trunk","lanes":"2","maxspeed":"70","name":"Anzac Drive","ref":"SH 74","id":"way/120626154/0","weighting":10},"geometry":{"type":"LineString","coordinates":[[172.70441019999998,-43.50396830000001],[172.7033378,-43.503669499999994]]}}
,
{"type":"Feature","id":"way/120626154/1","properties":{"highway":"trunk","lanes":"2","maxspeed":"70","name":"Anzac Drive","ref":"SH 74","id":"way/120626154/1","weighting":10},"geometry":{"type":"LineString","coordinates":[[172.7033378,-43.503669499999994],[172.702531,-43.5032212]]}}
,
{"type":"Feature","id":"way/120626154/2","properties":{"highway":"trunk","lanes":"2","maxspeed":"70","name":"Anzac Drive","ref":"SH 74","id":"way/120626154/2","weighting":10},"geometry":{"type":"LineString","coordinates":[[172.702531,-43.5032212],[172.7019989,-43.50274810000001]]}}
,
{"type":"Feature","id":"way/120626155/0","properties":{"highway":"trunk","lanes":"4","maxspeed":"70","name":"Anzac Drive","ref":"SH 74","id":"way/120626155/0","weighting":10},"geometry":{"type":"LineString","coordinates":[[172.7070254,-43.504707599999996],[172.7064222,-43.50453510000001]]}}
,
{"type":"Feature","id":"way/120626155/1","properties":{"highway":"trunk","lanes":"4","maxspeed":"70","name":"Anzac Drive","ref":"SH 74","id":"way/120626155/1","weighting":10},"geometry":{"type":"LineString","coordinates":[[172.7064222,-43.50453510000001],[172.70575659999994,-43.5043447]]}}
,
{"type":"Feature","id":"way/120626155/2","properties":{"highway":"trunk","lanes":"4","maxspeed":"70","name":"Anzac Drive","ref":"SH 74","id":"way/120626155/2","weighting":10},"geometry":{"type":"LineString","coordinates":[[172.70575659999994,-43.5043447],[172.7051875,-43.5041856]]}}
,
{"type":"Feature","id":"way/120626155/3","properties":{"highway":"trunk","lanes":"4","maxspeed":"70","name":"Anzac Drive","ref":"SH 74","id":"way/120626155/3","weighting":10},"geometry":{"type":"LineString","coordinates":[[172.7051875,-43.5041856],[172.70441019999998,-43.50396830000001]]}}
,
{"type":"Feature","id":"way/145219746/3","properties":{"highway":"trunk","lanes":"2","maxspeed":"60","name":"Brougham Street","oneway":"yes","ref":"SH 76","id":"way/145219746/3","weighting":10},"geometry":{"type":"LineString","coordinates":[[172.6597272,-43.549302300000015],[172.6598867,-43.549339900000014]]}}
,
{"type":"Feature","id":"way/145219746/4","properties":{"highway":"trunk","lanes":"2","maxspeed":"60","name":"Brougham Street","oneway":"yes","ref":"SH 76","id":"way/145219746/4","weighting":10},"geometry":{"type":"LineString","coordinates":[[172.6598867,-43.549339900000014],[172.6600609,-43.549381]]}}
,
{"type":"Feature","id":"way/145219746/5","properties":{"highway":"trunk","lanes":"2","maxspeed":"60","name":"Brougham Street","oneway":"yes","ref":"SH 76","id":"way/145219746/5","weighting":10},"geometry":{"type":"LineString","coordinates":[[172.6600609,-43.549381],[172.6602315,-43.54941890000001]]}}
,
{"type":"Feature","id":"way/145219746/6","properties":{"highway":"trunk","lanes":"2","maxspeed":"60","name":"Brougham Street","oneway":"yes","ref":"SH 76","id":"way/145219746/6","weighting":10},"geometry":{"type":"LineString","coordinates":[[172.6602315,-43.54941890000001],[172.6604817,-43.5494751]]}}
,
{"type":"Feature","id":"way/147228428/0","properties":{"bicycle":"no","foot":"no","highway":"trunk","horse":"no","lanes":"3","maxspeed":"100","motorroad":"yes","name":"Tunnel Road","oneway":"no","ref":"SH 74","id":"way/147228428/0","weighting":10},"geometry":{"type":"LineString","coordinates":[[172.70482319999994,-43.5803514],[172.70469179999995,-43.5799774]]}}
,
{"type":"Feature","id":"way/147228428/1","properties":{"bicycle":"no","foot":"no","highway":"trunk","horse":"no","lanes":"3","maxspeed":"100","motorroad":"yes","name":"Tunnel Road","oneway":"no","ref":"SH 74","id":"way/147228428/1","weighting":10},"geometry":{"type":"LineString","coordinates":[[172.70469179999995,-43.5799774],[172.70455909999993,-43.57969220000001]]}}
,
{"type":"Feature","id":"way/147228428/2","properties":{"bicycle":"no","foot":"no","highway":"trunk","horse":"no","lanes":"3","maxspeed":"100","motorroad":"yes","name":"Tunnel Road","oneway":"no","ref":"SH 74","id":"way/147228428/2","weighting":10},"geometry":{"type":"LineString","coordinates":[[172.70455909999993,-43.57969220000001],[172.70439019999998,-43.5793996]]}}
,
{"type":"Feature","id":"way/147228428/3","properties":{"bicycle":"no","foot":"no","highway":"trunk","horse":"no","lanes":"3","maxspeed":"100","motorroad":"yes","name":"Tunnel Road","oneway":"no","ref":"SH 74","id":"way/147228428/3","weighting":10},"geometry":{"type":"LineString","coordinates":[[172.70439019999998,-43.5793996],[172.7042158,-43.5791886]]}}
,
{"type":"Feature","id":"way/147228428/4","properties":{"bicycle":"no","foot":"no","highway":"trunk","horse":"no","lanes":"3","maxspeed":"100","motorroad":"yes","name":"Tunnel Road","oneway":"no","ref":"SH 74","id":"way/147228428/4","weighting":10},"geometry":{"type":"LineString","coordinates":[[172.7042158,-43.5791886],[172.70377159999993,-43.5786654]]}}
,
{"type":"Feature","id":"way/147228428/5","properties":{"bicycle":"no","foot":"no","highway":"trunk","horse":"no","lanes":"3","maxspeed":"100","motorroad":"yes","name":"Tunnel Road","oneway":"no","ref":"SH 74","id":"way/147228428/5","weighting":10},"geometry":{"type":"LineString","coordinates":[[172.70377159999993,-43.5786654],[172.70326159999993,-43.57812410000001]]}}
,
{"type":"Feature","id":"way/147228428/6","properties":{"bicycle":"no","foot":"no","highway":"trunk","horse":"no","lanes":"3","maxspeed":"100","motorroad":"yes","name":"Tunnel Road","oneway":"no","ref":"SH 74","id":"way/147228428/6","weighting":10},"geometry":{"type":"LineString","coordinates":[[172.70326159999993,-43.57812410000001],[172.70231040000004,-43.5771305]]}}
,
{"type":"Feature","id":"way/147228428/7","properties":{"bicycle":"no","foot":"no","highway":"trunk","horse":"no","lanes":"3","maxspeed":"100","motorroad":"yes","name":"Tunnel Road","oneway":"no","ref":"SH 74","id":"way/147228428/7","weighting":10},"geometry":{"type":"LineString","coordinates":[[172.70231040000004,-43.5771305],[172.7016445,-43.5764356]]}}
,
{"type":"Feature","id":"way/147228428/8","properties":{"bicycle":"no","foot":"no","highway":"trunk","horse":"no","lanes":"3","maxspeed":"100","motorroad":"yes","name":"Tunnel Road","oneway":"no","ref":"SH 74","id":"way/147228428/8","weighting":10},"geometry":{"type":"LineString","coordinates":[[172.7016445,-43.5764356],[172.7007568,-43.57551380000002]]}}
,
{"type":"Feature","id":"way/147228428/9","properties":{"bicycle":"no","foot":"no","highway":"trunk","horse":"no","lanes":"3","maxspeed":"100","motorroad":"yes","name":"Tunnel Road","oneway":"no","ref":"SH 74","id":"way/147228428/9","weighting":10},"geometry":{"type":"LineString","coordinates":[[172.7007568,-43.57551380000002],[172.70029549999998,-43.5750802]]}}
,
{"type":"Feature","id":"way/147228428/10","properties":{"bicycle":"no","foot":"no","highway":"trunk","horse":"no","lanes":"3","maxspeed":"100","motorroad":"yes","name":"Tunnel Road","oneway":"no","ref":"SH 74","id":"way/147228428/10","weighting":10},"geometry":{"type":"LineString","coordinates":[[172.70029549999998,-43.5750802],[172.6999223,-43.5748032]]}}
,
{"type":"Feature","id":"way/147228428/11","properties":{"bicycle":"no","foot":"no","highway":"trunk","horse":"no","lanes":"3","maxspeed":"100","motorroad":"yes","name":"Tunnel Road","oneway":"no","ref":"SH 74","id":"way/147228428/11","weighting":10},"geometry":{"type":"LineString","coordinates":[[172.6999223,-43.5748032],[172.69938399999998,-43.5744506]]}}
,
{"type":"Feature","id":"way/147228428/12","properties":{"bicycle":"no","foot":"no","highway":"trunk","horse":"no","lanes":"3","maxspeed":"100","motorroad":"yes","name":"Tunnel Road","oneway":"no","ref":"SH 74","id":"way/147228428/12","weighting":10},"geometry":{"type":"LineString","coordinates":[[172.69938399999998,-43.5744506],[172.6989867,-43.574280699999996]]}}
,
{"type":"Feature","id":"way/147228428/13","properties":{"bicycle":"no","foot":"no","highway":"trunk","horse":"no","lanes":"3","maxspeed":"100","motorroad":"yes","name":"Tunnel Road","oneway":"no","ref":"SH 74","id":"way/147228428/13","weighting":10},"geometry":{"type":"LineString","coordinates":[[172.6989867,-43.574280699999996],[172.69829620000004,-43.57401530000001]]}}
,
{"type":"Feature","id":"way/147228428/14","properties":{"bicycle":"no","foot":"no","highway":"trunk","horse":"no","lanes":"3","maxspeed":"100","motorroad":"yes","name":"Tunnel Road","oneway":"no","ref":"SH 74","id":"way/147228428/14","weighting":10},"geometry":{"type":"LineString","coordinates":[[172.69829620000004,-43.57401530000001],[172.6978445,-43.5738468]]}}
,
{"type":"Feature","id":"way/147228428/15","properties":{"bicycle":"no","foot":"no","highway":"trunk","horse":"no","lanes":"3","maxspeed":"100","motorroad":"yes","name":"Tunnel Road","oneway":"no","ref":"SH 74","id":"way/147228428/15","weighting":10},"geometry":{"type":"LineString","coordinates":[[172.6978445,-43.5738468],[172.6968513,-43.5734949]]}}
,
{"type":"Feature","id":"way/147372747/0","properties":{"bicycle":"no","foot":"no","highway":"trunk","horse":"no","lanes":"2","maxspeed":"70","motorroad":"yes","name":"Anzac Drive","ref":"SH 74","id":"way/147372747/0","weighting":10},"geometry":{"type":"LineString","coordinates":[[172.71900959999994,-43.5176592],[172.7187348,-43.5169701]]}}
,
{"type":"Feature","id":"way/147372747/1","properties":{"bicycle":"no","foot":"no","highway":"trunk","horse":"no","lanes":"2","maxspeed":"70","motorroad":"yes","name":"Anzac Drive","ref":"SH 74","id":"way/147372747/1","weighting":10},"geometry":{"type":"LineString","coordinates":[[172.7187348,-43.5169701],[172.71814080000001,-43.515364]]}}
,
{"type":"Feature","id":"way/147372747/2","properties":{"bicycle":"no","foot":"no","highway":"trunk","horse":"no","lanes":"2","maxspeed":"70","motorroad":"yes","name":"Anzac Drive","ref":"SH 74","id":"way/147372747/2","weighting":10},"geometry":{"type":"LineString","coordinates":[[172.71814080000001,-43.515364],[172.71797899999999,-43.5150066]]}}
,
{"type":"Feature","id":"way/147372747/3","properties":{"bicycle":"no","foot":"no","highway":"trunk","horse":"no","lanes":"2","maxspeed":"70","motorroad":"yes","name":"Anzac Drive","ref":"SH 74","id":"way/147372747/3","weighting":10},"geometry":{"type":"LineString","coordinates":[[172.71797899999999,-43.5150066],[172.7176984,-43.5143484]]}}
,
{"type":"Feature","id":"way/147372747/4","properties":{"bicycle":"no","foot":"no","highway":"trunk","horse":"no","lanes":"2","maxspeed":"70","motorroad":"yes","name":"Anzac Drive","ref":"SH 74","id":"way/147372747/4","weighting":10},"geometry":{"type":"LineString","coordinates":[[172.7176984,-43.5143484],[172.7163874,-43.511691699999986]]}}
,
{"type":"Feature","id":"way/147373586/0","properties":{"highway":"trunk","lanes":"2","maxspeed":"100","motorroad":"yes","name":"Tunnel Road","ref":"SH 74","id":"way/147373586/0","weighting":10},"geometry":{"type":"LineString","coordinates":[[172.7052165,-43.58285330000001],[172.7052108,-43.582821499999994]]}}
,
{"type":"Feature","id":"way/147373586/1","properties":{"highway":"trunk","lanes":"2","maxspeed":"100","motorroad":"yes","name":"Tunnel Road","ref":"SH 74","id":"way/147373586/1","weighting":10},"geometry":{"type":"LineString","coordinates":[[172.7052108,-43.582821499999994],[172.7050673,-43.58186109999998]]}}
,
{"type":"Feature","id":"way/147373586/2","properties":{"highway":"trunk","lanes":"2","maxspeed":"100","motorroad":"yes","name":"Tunnel Road","ref":"SH 74","id":"way/147373586/2","weighting":10},"geometry":{"type":"LineString","coordinates":[[172.7050673,-43.58186109999998],[172.70496669999994,-43.5811082]]}}
,
{"type":"Feature","id":"way/147373586/3","properties":{"highway":"trunk","lanes":"2","maxspeed":"100","motorroad":"yes","name":"Tunnel Road","ref":"SH 74","id":"way/147373586/3","weighting":10},"geometry":{"type":"LineString","coordinates":[[172.70496669999994,-43.5811082],[172.70490909999998,-43.5807293]]}}
,
{"type":"Feature","id":"way/147373586/4","properties":{"highway":"trunk","lanes":"2","maxspeed":"100","motorroad":"yes","name":"Tunnel Road","ref":"SH 74","id":"way/147373586/4","weighting":10},"geometry":{"type":"LineString","coordinates":[[172.70490909999998,-43.5807293],[172.70482319999994,-43.5803514]]}}
,
{"type":"Feature","id":"way/147499406/0","properties":{"highway":"trunk","lanes":"2","maxspeed":"60","name":"Brougham Street","oneway":"yes","ref":"SH 76","id":"way/147499406/0","weighting":10},"geometry":{"type":"LineString","coordinates":[[172.6279623,-43.5475602],[172.62816569999998,-43.5475372]]}}
,
{"type":"Feature","id":"way/147499406/1","properties":{"highway":"trunk","lanes":"2","maxspeed":"60","name":"Brougham Street","oneway":"yes","ref":"SH 76","id":"way/147499406/1","weighting":10},"geometry":{"type":"LineString","coordinates":[[172.62816569999998,-43.5475372],[172.62848490000005,-43.5475061]]}}
,
{"type":"Feature","id":"way/147499406/2","properties":{"highway":"trunk","lanes":"2","maxspeed":"60","name":"Brougham Street","oneway":"yes","ref":"SH 76","id":"way/147499406/2","weighting":10},"geometry":{"type":"LineString","coordinates":[[172.62848490000005,-43.5475061],[172.6287129,-43.54749439999999]]}}
,
{"type":"Feature","id":"way/147499406/3","properties":{"highway":"trunk","lanes":"2","maxspeed":"60","name":"Brougham Street","oneway":"yes","ref":"SH 76","id":"way/147499406/3","weighting":10},"geometry":{"type":"LineString","coordinates":[[172.6287129,-43.54749439999999],[172.62900259999998,-43.547482699999996]]}}
,
{"type":"Feature","id":"way/147499406/4","properties":{"highway":"trunk","lanes":"2","maxspeed":"60","name":"Brougham Street","oneway":"yes","ref":"SH 76","id":"way/147499406/4","weighting":10},"geometry":{"type":"LineString","coordinates":[[172.62900259999998,-43.547482699999996],[172.6294049,-43.547473]]}}
,
{"type":"Feature","id":"way/147499406/5","properties":{"highway":"trunk","lanes":"2","maxspeed":"60","name":"Brougham Street","oneway":"yes","ref":"SH 76","id":"way/147499406/5","weighting":10},"geometry":{"type":"LineString","coordinates":[[172.6294049,-43.547473],[172.63064119999999,-43.5474733]]}}
,
{"type":"Feature","id":"way/147499406/6","properties":{"highway":"trunk","lanes":"2","maxspeed":"60","name":"Brougham Street","oneway":"yes","ref":"SH 76","id":"way/147499406/6","weighting":10},"geometry":{"type":"LineString","coordinates":[[172.63064119999999,-43.5474733],[172.6320991,-43.547467699999984]]}}
,
{"type":"Feature","id":"way/147499406/7","properties":{"highway":"trunk","lanes":"2","maxspeed":"60","name":"Brougham Street","oneway":"yes","ref":"SH 76","id":"way/147499406/7","weighting":10},"geometry":{"type":"LineString","coordinates":[[172.6320991,-43.547467699999984],[172.6327523,-43.5474652]]}}
,
{"type":"Feature","id":"way/147499406/8","properties":{"highway":"trunk","lanes":"2","maxspeed":"60","name":"Brougham Street","oneway":"yes","ref":"SH 76","id":"way/147499406/8","weighting":10},"geometry":{"type":"LineString","coordinates":[[172.6327523,-43.5474652],[172.63366009999993,-43.547461999999996]]}}
,
{"type":"Feature","id":"way/147499406/9","properties":{"highway":"trunk","lanes":"2","maxspeed":"60","name":"Brougham Street","oneway":"yes","ref":"SH 76","id":"way/147499406/9","weighting":10},"geometry":{"type":"LineString","coordinates":[[172.63366009999993,-43.547461999999996],[172.63439119999998,-43.5474594]]}}
,
{"type":"Feature","id":"way/147499406/10","properties":{"highway":"trunk","lanes":"2","maxspeed":"60","name":"Brougham Street","oneway":"yes","ref":"SH 76","id":"way/147499406/10","weighting":10},"geometry":{"type":"LineString","coordinates":[[172.63439119999998,-43.5474594],[172.6363048,-43.547429799999996]]}}
,
{"type":"Feature","id":"way/147499406/11","properties":{"highway":"trunk","lanes":"2","maxspeed":"60","name":"Brougham Street","oneway":"yes","ref":"SH 76","id":"way/147499406/11","weighting":10},"geometry":{"type":"LineString","coordinates":[[172.6363048,-43.547429799999996],[172.63666529999995,-43.547429799999996]]}}
,
{"type":"Feature","id":"way/147499407/19","properties":{"highway":"trunk","lanes":"2","maxspeed":"60","name":"Brougham Street","oneway":"yes","ref":"SH 76","id":"way/147499407/19","weighting":10},"geometry":{"type":"LineString","coordinates":[[172.62687409999998,-43.5477661],[172.62718790000005,-43.5477019]]}}
,
{"type":"Feature","id":"way/147499407/20","properties":{"highway":"trunk","lanes":"2","maxspeed":"60","name":"Brougham Street","oneway":"yes","ref":"SH 76","id":"way/147499407/20","weighting":10},"geometry":{"type":"LineString","coordinates":[[172.62718790000005,-43.5477019],[172.6276386,-43.5476125]]}}
,
{"type":"Feature","id":"way/147499407/21","properties":{"highway":"trunk","lanes":"2","maxspeed":"60","name":"Brougham Street","oneway":"yes","ref":"SH 76","id":"way/147499407/21","weighting":10},"geometry":{"type":"LineString","coordinates":[[172.6276386,-43.5476125],[172.6279623,-43.5475602]]}}
,
{"type":"Feature","id":"way/147499409/0","properties":{"highway":"trunk","lanes":"2","maxspeed":"60","name":"Brougham Street","oneway":"yes","ref":"SH 76","id":"way/147499409/0","weighting":10},"geometry":{"type":"LineString","coordinates":[[172.62796690000005,-43.54766839999999],[172.62774730000007,-43.5477024]]}}
,
{"type":"Feature","id":"way/147499409/1","properties":{"highway":"trunk","lanes":"2","maxspeed":"60","name":"Brougham Street","oneway":"yes","ref":"SH 76","id":"way/147499409/1","weighting":10},"geometry":{"type":"LineString","coordinates":[[172.62774730000007,-43.5477024],[172.6275676,-43.5477316]]}}
,
{"type":"Feature","id":"way/147499409/2","properties":{"highway":"trunk","lanes":"2","maxspeed":"60","name":"Brougham Street","oneway":"yes","ref":"SH 76","id":"way/147499409/2","weighting":10},"geometry":{"type":"LineString","coordinates":[[172.6275676,-43.5477316],[172.6272726,-43.5477918]]}}
,
{"type":"Feature","id":"way/147499409/3","properties":{"highway":"trunk","lanes":"2","maxspeed":"60","name":"Brougham Street","oneway":"yes","ref":"SH 76","id":"way/147499409/3","weighting":10},"geometry":{"type":"LineString","coordinates":[[172.6272726,-43.5477918],[172.6269224,-43.547869099999986]]}}
,
{"type":"Feature","id":"way/147499412/0","properties":{"highway":"trunk","lanes":"2","maxspeed":"60","name":"Brougham Street","oneway":"yes","ref":"SH 76","id":"way/147499412/0","weighting":10},"geometry":{"type":"LineString","coordinates":[[172.63666859999998,-43.5475406],[172.6364229,-43.5475391]]}}
,
{"type":"Feature","id":"way/147499412/1","properties":{"highway":"trunk","lanes":"2","maxspeed":"60","name":"Brougham Street","oneway":"yes","ref":"SH 76","id":"way/147499412/1","weighting":10},"geometry":{"type":"LineString","coordinates":[[172.6364229,-43.5475391],[172.63366009999993,-43.5475809]]}}
,
{"type":"Feature","id":"way/147499412/2","properties":{"highway":"trunk","lanes":"2","maxspeed":"60","name":"Brougham Street","oneway":"yes","ref":"SH 76","id":"way/147499412/2","weighting":10},"geometry":{"type":"LineString","coordinates":[[172.63366009999993,-43.5475809],[172.6328442,-43.547581499999986]]}}
,
{"type":"Feature","id":"way/147499412/3","properties":{"highway":"trunk","lanes":"2","maxspeed":"60","name":"Brougham Street","oneway":"yes","ref":"SH 76","id":"way/147499412/3","weighting":10},"geometry":{"type":"LineString","coordinates":[[172.6328442,-43.547581499999986],[172.6312241,-43.5475827]]}}
,
{"type":"Feature","id":"way/147499412/4","properties":{"highway":"trunk","lanes":"2","maxspeed":"60","name":"Brougham Street","oneway":"yes","ref":"SH 76","id":"way/147499412/4","weighting":10},"geometry":{"type":"LineString","coordinates":[[172.6312241,-43.5475827],[172.6312215,-43.5475827]]}}
,
{"type":"Feature","id":"way/147499412/5","properties":{"highway":"trunk","lanes":"2","maxspeed":"60","name":"Brougham Street","oneway":"yes","ref":"SH 76","id":"way/147499412/5","weighting":10},"geometry":{"type":"LineString","coordinates":[[172.6312215,-43.5475827],[172.6306404,-43.5475831]]}}
,
{"type":"Feature","id":"way/147499412/6","properties":{"highway":"trunk","lanes":"2","maxspeed":"60","name":"Brougham Street","oneway":"yes","ref":"SH 76","id":"way/147499412/6","weighting":10},"geometry":{"type":"LineString","coordinates":[[172.6306404,-43.5475831],[172.62965249999993,-43.5475905]]}}
,
{"type":"Feature","id":"way/147499412/7","properties":{"highway":"trunk","lanes":"2","maxspeed":"60","name":"Brougham Street","oneway":"yes","ref":"SH 76","id":"way/147499412/7","weighting":10},"geometry":{"type":"LineString","coordinates":[[172.62965249999993,-43.5475905],[172.6296261,-43.5475902]]}}
,
{"type":"Feature","id":"way/147499412/8","properties":{"highway":"trunk","lanes":"2","maxspeed":"60","name":"Brougham Street","oneway":"yes","ref":"SH 76","id":"way/147499412/8","weighting":10},"geometry":{"type":"LineString","coordinates":[[172.6296261,-43.5475902],[172.6291984,-43.5475858]]}}
,
{"type":"Feature","id":"way/147499412/9","properties":{"highway":"trunk","lanes":"2","maxspeed":"60","name":"Brougham Street","oneway":"yes","ref":"SH 76","id":"way/147499412/9","weighting":10},"geometry":{"type":"LineString","coordinates":[[172.6291984,-43.5475858],[172.6288041,-43.5475935]]}}
,
{"type":"Feature","id":"way/147499412/10","properties":{"highway":"trunk","lanes":"2","maxspeed":"60","name":"Brougham Street","oneway":"yes","ref":"SH 76","id":"way/147499412/10","weighting":10},"geometry":{"type":"LineString","coordinates":[[172.6288041,-43.5475935],[172.62839490000005,-43.5476222]]}}
,
{"type":"Feature","id":"way/147499412/11","properties":{"highway":"trunk","lanes":"2","maxspeed":"60","name":"Brougham Street","oneway":"yes","ref":"SH 76","id":"way/147499412/11","weighting":10},"geometry":{"type":"LineString","coordinates":[[172.62839490000005,-43.5476222],[172.62813480000005,-43.54764749999998]]}}
,
{"type":"Feature","id":"way/147499412/12","properties":{"highway":"trunk","lanes":"2","maxspeed":"60","name":"Brougham Street","oneway":"yes","ref":"SH 76","id":"way/147499412/12","weighting":10},"geometry":{"type":"LineString","coordinates":[[172.62813480000005,-43.54764749999998],[172.62796690000005,-43.54766839999999]]}}
,
{"type":"Feature","id":"way/155374242/0","properties":{"highway":"trunk","lanes":"2","maxspeed":"70","name":"Dyers Road","ref":"SH 74","id":"way/155374242/0","weighting":10},"geometry":{"type":"LineString","coordinates":[[172.69411419999994,-43.5479992],[172.69458079999995,-43.5475002]]}}
,
{"type":"Feature","id":"way/155374242/1","properties":{"highway":"trunk","lanes":"2","maxspeed":"70","name":"Dyers Road","ref":"SH 74","id":"way/155374242/1","weighting":10},"geometry":{"type":"LineString","coordinates":[[172.69458079999995,-43.5475002],[172.6951683,-43.5468824]]}}
,
{"type":"Feature","id":"way/167314772/1","properties":{"highway":"trunk","lanes":"1","maxspeed":"50","motorroad":"yes","name":"Tunnel Road","oneway":"yes","ref":"SH 74","id":"way/167314772/1","weighting":10},"geometry":{"type":"LineString","coordinates":[[172.7059375,-43.58462539999999],[172.70568419999992,-43.5841956]]}}
,
{"type":"Feature","id":"way/167314772/2","properties":{"highway":"trunk","lanes":"1","maxspeed":"50","motorroad":"yes","name":"Tunnel Road","oneway":"yes","ref":"SH 74","id":"way/167314772/2","weighting":10},"geometry":{"type":"LineString","coordinates":[[172.70568419999992,-43.5841956],[172.70535159999994,-43.5835233]]}}
,
{"type":"Feature","id":"way/167314772/3","properties":{"highway":"trunk","lanes":"1","maxspeed":"50","motorroad":"yes","name":"Tunnel Road","oneway":"yes","ref":"SH 74","id":"way/167314772/3","weighting":10},"geometry":{"type":"LineString","coordinates":[[172.70535159999994,-43.5835233],[172.7052819,-43.5833494]]}}
,
{"type":"Feature","id":"way/167314772/4","properties":{"highway":"trunk","lanes":"1","maxspeed":"50","motorroad":"yes","name":"Tunnel Road","oneway":"yes","ref":"SH 74","id":"way/167314772/4","weighting":10},"geometry":{"type":"LineString","coordinates":[[172.7052819,-43.5833494],[172.7052403,-43.58318230000001]]}}
,
{"type":"Feature","id":"way/167314772/5","properties":{"highway":"trunk","lanes":"1","maxspeed":"50","motorroad":"yes","name":"Tunnel Road","oneway":"yes","ref":"SH 74","id":"way/167314772/5","weighting":10},"geometry":{"type":"LineString","coordinates":[[172.7052403,-43.58318230000001],[172.7052165,-43.58285330000001]]}}
,
{"type":"Feature","id":"way/231162250/2","properties":{"destination":"City Centre;Lyttelton","highway":"trunk","lanes":"2","maxspeed":"60","name":"Main North Road","oneway":"yes","ref":"SH 74","id":"way/231162250/2","weighting":10},"geometry":{"type":"LineString","coordinates":[[172.62449,-43.457409999999996],[172.62396529999995,-43.458223499999995]]}}
,
{"type":"Feature","id":"way/231162250/3","properties":{"destination":"City Centre;Lyttelton","highway":"trunk","lanes":"2","maxspeed":"60","name":"Main North Road","oneway":"yes","ref":"SH 74","id":"way/231162250/3","weighting":10},"geometry":{"type":"LineString","coordinates":[[172.62396529999995,-43.458223499999995],[172.6236884,-43.458643599999995]]}}
,
{"type":"Feature","id":"way/231162250/4","properties":{"destination":"City Centre;Lyttelton","highway":"trunk","lanes":"2","maxspeed":"60","name":"Main North Road","oneway":"yes","ref":"SH 74","id":"way/231162250/4","weighting":10},"geometry":{"type":"LineString","coordinates":[[172.6236884,-43.458643599999995],[172.62357759999998,-43.4588117]]}}
,
{"type":"Feature","id":"way/231162250/5","properties":{"destination":"City Centre;Lyttelton","highway":"trunk","lanes":"2","maxspeed":"60","name":"Main North Road","oneway":"yes","ref":"SH 74","id":"way/231162250/5","weighting":10},"geometry":{"type":"LineString","coordinates":[[172.62357759999998,-43.4588117],[172.6232808,-43.459261799999986]]}}
,
{"type":"Feature","id":"way/231162250/6","properties":{"destination":"City Centre;Lyttelton","highway":"trunk","lanes":"2","maxspeed":"60","name":"Main North Road","oneway":"yes","ref":"SH 74","id":"way/231162250/6","weighting":10},"geometry":{"type":"LineString","coordinates":[[172.6232808,-43.459261799999986],[172.6231441,-43.459469199999994]]}}
,
{"type":"Feature","id":"way/231162250/7","properties":{"destination":"City Centre;Lyttelton","highway":"trunk","lanes":"2","maxspeed":"60","name":"Main North Road","oneway":"yes","ref":"SH 74","id":"way/231162250/7","weighting":10},"geometry":{"type":"LineString","coordinates":[[172.6231441,-43.459469199999994],[172.6228202,-43.459960599999995]]}}
,
{"type":"Feature","id":"way/231162250/8","properties":{"destination":"City Centre;Lyttelton","highway":"trunk","lanes":"2","maxspeed":"60","name":"Main North Road","oneway":"yes","ref":"SH 74","id":"way/231162250/8","weighting":10},"geometry":{"type":"LineString","coordinates":[[172.6228202,-43.459960599999995],[172.62236800000005,-43.4606401]]}}
,
{"type":"Feature","id":"way/235741978/0","properties":{"bicycle":"no","foot":"no","highway":"trunk","horse":"no","lanes":"2","maxspeed":"70","motorroad":"yes","name":"Anzac Drive","ref":"SH 74","id":"way/235741978/0","weighting":10},"geometry":{"type":"LineString","coordinates":[[172.7163874,-43.511691699999986],[172.7162103,-43.51133280000001]]}}
,
{"type":"Feature","id":"way/235741978/1","properties":{"bicycle":"no","foot":"no","highway":"trunk","horse":"no","lanes":"2","maxspeed":"70","motorroad":"yes","name":"Anzac Drive","ref":"SH 74","id":"way/235741978/1","weighting":10},"geometry":{"type":"LineString","coordinates":[[172.7162103,-43.51133280000001],[172.716039,-43.511009499999986]]}}
,
{"type":"Feature","id":"way/235741985/0","properties":{"bicycle":"no","foot":"no","highway":"trunk","horse":"no","lanes":"2","maxspeed":"70","motorroad":"yes","name":"Anzac Drive","ref":"SH 74","id":"way/235741985/0","weighting":10},"geometry":{"type":"LineString","coordinates":[[172.716039,-43.511009499999986],[172.71513339999998,-43.5092999]]}}
,
{"type":"Feature","id":"way/235741985/1","properties":{"bicycle":"no","foot":"no","highway":"trunk","horse":"no","lanes":"2","maxspeed":"70","motorroad":"yes","name":"Anzac Drive","ref":"SH 74","id":"way/235741985/1","weighting":10},"geometry":{"type":"LineString","coordinates":[[172.71513339999998,-43.5092999],[172.71493149999998,-43.508998300000016]]}}
,
{"type":"Feature","id":"way/235741985/2","properties":{"bicycle":"no","foot":"no","highway":"trunk","horse":"no","lanes":"2","maxspeed":"70","motorroad":"yes","name":"Anzac Drive","ref":"SH 74","id":"way/235741985/2","weighting":10},"geometry":{"type":"LineString","coordinates":[[172.71493149999998,-43.508998300000016],[172.71459679999995,-43.5085497]]}}
,
{"type":"Feature","id":"way/235741985/3","properties":{"bicycle":"no","foot":"no","highway":"trunk","horse":"no","lanes":"2","maxspeed":"70","motorroad":"yes","name":"Anzac Drive","ref":"SH 74","id":"way/235741985/3","weighting":10},"geometry":{"type":"LineString","coordinates":[[172.71459679999995,-43.5085497],[172.7141188,-43.507998]]}}
,
{"type":"Feature","id":"way/235741985/4","properties":{"bicycle":"no","foot":"no","highway":"trunk","horse":"no","lanes":"2","maxspeed":"70","motorroad":"yes","name":"Anzac Drive","ref":"SH 74","id":"way/235741985/4","weighting":10},"geometry":{"type":"LineString","coordinates":[[172.7141188,-43.507998],[172.7135502999999,-43.5074484]]}}
,
{"type":"Feature","id":"way/235741985/5","properties":{"bicycle":"no","foot":"no","highway":"trunk","horse":"no","lanes":"2","maxspeed":"70","motorroad":"yes","name":"Anzac Drive","ref":"SH 74","id":"way/235741985/5","weighting":10},"geometry":{"type":"LineString","coordinates":[[172.7135502999999,-43.5074484],[172.71328749999998,-43.507241199999996]]}}
,
{"type":"Feature","id":"way/235741985/6","properties":{"bicycle":"no","foot":"no","highway":"trunk","horse":"no","lanes":"2","maxspeed":"70","motorroad":"yes","name":"Anzac Drive","ref":"SH 74","id":"way/235741985/6","weighting":10},"geometry":{"type":"LineString","coordinates":[[172.71328749999998,-43.507241199999996],[172.7128978,-43.5069567]]}}
,
{"type":"Feature","id":"way/235741985/7","properties":{"bicycle":"no","foot":"no","highway":"trunk","horse":"no","lanes":"2","maxspeed":"70","motorroad":"yes","name":"Anzac Drive","ref":"SH 74","id":"way/235741985/7","weighting":10},"geometry":{"type":"LineString","coordinates":[[172.7128978,-43.5069567],[172.71217529999996,-43.5064905]]}}
,
{"type":"Feature","id":"way/235741985/8","properties":{"bicycle":"no","foot":"no","highway":"trunk","horse":"no","lanes":"2","maxspeed":"70","motorroad":"yes","name":"Anzac Drive","ref":"SH 74","id":"way/235741985/8","weighting":10},"geometry":{"type":"LineString","coordinates":[[172.71217529999996,-43.5064905],[172.71163539999998,-43.5062236]]}}
,
{"type":"Feature","id":"way/235741985/9","properties":{"bicycle":"no","foot":"no","highway":"trunk","horse":"no","lanes":"2","maxspeed":"70","motorroad":"yes","name":"Anzac Drive","ref":"SH 74","id":"way/235741985/9","weighting":10},"geometry":{"type":"LineString","coordinates":[[172.71163539999998,-43.5062236],[172.71137299999998,-43.5060882]]}}
,
{"type":"Feature","id":"way/235741985/10","properties":{"bicycle":"no","foot":"no","highway":"trunk","horse":"no","lanes":"2","maxspeed":"70","motorroad":"yes","name":"Anzac Drive","ref":"SH 74","id":"way/235741985/10","weighting":10},"geometry":{"type":"LineString","coordinates":[[172.71137299999998,-43.5060882],[172.71073959999998,-43.50582280000001]]}}
,
{"type":"Feature","id":"way/235741985/11","properties":{"bicycle":"no","foot":"no","highway":"trunk","horse":"no","lanes":"2","maxspeed":"70","motorroad":"yes","name":"Anzac Drive","ref":"SH 74","id":"way/235741985/11","weighting":10},"geometry":{"type":"LineString","coordinates":[[172.71073959999998,-43.50582280000001],[172.70953059999994,-43.50541660000001]]}}
,
{"type":"Feature","id":"way/235741985/12","properties":{"bicycle":"no","foot":"no","highway":"trunk","horse":"no","lanes":"2","maxspeed":"70","motorroad":"yes","name":"Anzac Drive","ref":"SH 74","id":"way/235741985/12","weighting":10},"geometry":{"type":"LineString","coordinates":[[172.70953059999994,-43.50541660000001],[172.70797819999999,-43.5049725]]}}
,
{"type":"Feature","id":"way/235741985/13","properties":{"bicycle":"no","foot":"no","highway":"trunk","horse":"no","lanes":"2","maxspeed":"70","motorroad":"yes","name":"Anzac Drive","ref":"SH 74","id":"way/235741985/13","weighting":10},"geometry":{"type":"LineString","coordinates":[[172.70797819999999,-43.5049725],[172.7070254,-43.504707599999996]]}}
,
{"type":"Feature","id":"way/235742870/0","properties":{"highway":"trunk","lanes":"2","maxspeed":"70","name":"Dyers Road","ref":"SH 74","id":"way/235742870/0","weighting":10},"geometry":{"type":"LineString","coordinates":[[172.6958223,-43.5461649],[172.6962629,-43.54567820000001]]}}
,
{"type":"Feature","id":"way/235742870/1","properties":{"highway":"trunk","lanes":"2","maxspeed":"70","name":"Dyers Road","ref":"SH 74","id":"way/235742870/1","weighting":10},"geometry":{"type":"LineString","coordinates":[[172.6962629,-43.54567820000001],[172.69695819999998,-43.5450249]]}}
,
{"type":"Feature","id":"way/235742870/21","properties":{"highway":"trunk","lanes":"2","maxspeed":"70","name":"Dyers Road","ref":"SH 74","id":"way/235742870/21","weighting":10},"geometry":{"type":"LineString","coordinates":[[172.71956339999988,-43.5274408],[172.71987849999994,-43.5270713]]}}
,
{"type":"Feature","id":"way/235742870/22","properties":{"highway":"trunk","lanes":"2","maxspeed":"70","name":"Dyers Road","ref":"SH 74","id":"way/235742870/22","weighting":10},"geometry":{"type":"LineString","coordinates":[[172.71987849999994,-43.5270713],[172.7201146,-43.52673580000002]]}}]}