{"type":"FeatureCollection","features":[{"type":"Feature","id":"way/4830646/3","properties":{"access":"yes","foot":"yes","highway":"unclassified","maxspeed":"50","name":"Bedford Row","id":"way/4830646/3","weighting":10},"geometry":{"type":"LineString","coordinates":[[172.64051239999998,-43.5336818],[172.63969329999995,-43.5336818]]}}
,
{"type":"Feature","id":"way/4830817/0","properties":{"highway":"unclassified","maxspeed":"50","name":"Oxford Terrace","id":"way/4830817/0","weighting":10},"geometry":{"type":"LineString","coordinates":[[172.6427411,-43.5276898],[172.6424909,-43.527687599999986]]}}
,
{"type":"Feature","id":"way/4830817/1","properties":{"highway":"unclassified","maxspeed":"50","name":"Oxford Terrace","id":"way/4830817/1","weighting":10},"geometry":{"type":"LineString","coordinates":[[172.6424909,-43.527687599999986],[172.6419603,-43.5276829]]}}
,
{"type":"Feature","id":"way/4830817/2","properties":{"highway":"unclassified","maxspeed":"50","name":"Oxford Terrace","id":"way/4830817/2","weighting":10},"geometry":{"type":"LineString","coordinates":[[172.6419603,-43.5276829],[172.64104369999998,-43.5279771]]}}
,
{"type":"Feature","id":"way/4830840/0","properties":{"access":"yes","foot":"yes","highway":"unclassified","maxspeed":"50","name":"Victoria Street","id":"way/4830840/0","weighting":10},"geometry":{"type":"LineString","coordinates":[[172.63359649999998,-43.5265804],[172.6322559,-43.525616800000016]]}}
,
{"type":"Feature","id":"way/4835875/0","properties":{"fixme":"check highway value","highway":"unclassified","maxspeed":"50","name":"Southwark Street","id":"way/4835875/0","weighting":10},"geometry":{"type":"LineString","coordinates":[[172.6396988,-43.5372912],[172.64274519999998,-43.5372906]]}}
,
{"type":"Feature","id":"way/4840303/0","properties":{"ccc":"cyclingroute","highway":"tertiary","maxspeed":"50","name":"North Parade","id":"way/4840303/0","weighting":10},"geometry":{"type":"LineString","coordinates":[[172.659924,-43.517624999999995],[172.65992830000005,-43.517389599999994]]}}
,
{"type":"Feature","id":"way/4840303/1","properties":{"ccc":"cyclingroute","highway":"tertiary","maxspeed":"50","name":"North Parade","id":"way/4840303/1","weighting":10},"geometry":{"type":"LineString","coordinates":[[172.65992830000005,-43.517389599999994],[172.65990069999998,-43.515645]]}}
,
{"type":"Feature","id":"way/4840303/2","properties":{"ccc":"cyclingroute","highway":"tertiary","maxspeed":"50","name":"North Parade","id":"way/4840303/2","weighting":10},"geometry":{"type":"LineString","coordinates":[[172.65990069999998,-43.515645],[172.65989399999998,-43.5152236]]}}
,
{"type":"Feature","id":"way/4840303/3","properties":{"ccc":"cyclingroute","highway":"tertiary","maxspeed":"50","name":"North Parade","id":"way/4840303/3","weighting":10},"geometry":{"type":"LineString","coordinates":[[172.65989399999998,-43.5152236],[172.65992830000005,-43.5150991]]}}
,
{"type":"Feature","id":"way/4840303/4","properties":{"ccc":"cyclingroute","highway":"tertiary","maxspeed":"50","name":"North Parade","id":"way/4840303/4","weighting":10},"geometry":{"type":"LineString","coordinates":[[172.65992830000005,-43.5150991],[172.6599975,-43.514949]]}}
,
{"type":"Feature","id":"way/4840303/5","properties":{"ccc":"cyclingroute","highway":"tertiary","maxspeed":"50","name":"North Parade","id":"way/4840303/5","weighting":10},"geometry":{"type":"LineString","coordinates":[[172.6599975,-43.514949],[172.66006559999994,-43.5148501]]}}
,
{"type":"Feature","id":"way/4840303/6","properties":{"ccc":"cyclingroute","highway":"tertiary","maxspeed":"50","name":"North Parade","id":"way/4840303/6","weighting":10},"geometry":{"type":"LineString","coordinates":[[172.66006559999994,-43.5148501],[172.66039469999998,-43.5145177]]}}
,
{"type":"Feature","id":"way/4840303/7","properties":{"ccc":"cyclingroute","highway":"tertiary","maxspeed":"50","name":"North Parade","id":"way/4840303/7","weighting":10},"geometry":{"type":"LineString","coordinates":[[172.66039469999998,-43.5145177],[172.66054630000005,-43.514364599999986]]}}
,
{"type":"Feature","id":"way/4840303/8","properties":{"ccc":"cyclingroute","highway":"tertiary","maxspeed":"50","name":"North Parade","id":"way/4840303/8","weighting":10},"geometry":{"type":"LineString","coordinates":[[172.66054630000005,-43.514364599999986],[172.66058059999995,-43.5142526]]}}
,
{"type":"Feature","id":"way/4886788/21","properties":{"highway":"tertiary","lanes":"2","maxspeed":"100","name":"Pound Road","id":"way/4886788/21","weighting":10},"geometry":{"type":"LineString","coordinates":[[172.5227049,-43.4886563],[172.51337189999998,-43.504722]]}}
,
{"type":"Feature","id":"way/4895087/6","properties":{"highway":"unclassified","maxspeed":"50","name":"Hawdon Street","id":"way/4895087/6","weighting":10},"geometry":{"type":"LineString","coordinates":[[172.6390168,-43.5466989],[172.6390388,-43.54742739999999]]}}
,
{"type":"Feature","id":"way/4900042/0","properties":{"highway":"unclassified","lanes":"2","maxspeed":"80","name":"Hawkins Road","id":"way/4900042/0","weighting":10},"geometry":{"type":"LineString","coordinates":[[172.65830190000005,-43.46305030000001],[172.6580902,-43.46317590000002]]}}
,
{"type":"Feature","id":"way/4900042/1","properties":{"highway":"unclassified","lanes":"2","maxspeed":"80","name":"Hawkins Road","id":"way/4900042/1","weighting":10},"geometry":{"type":"LineString","coordinates":[[172.6580902,-43.46317590000002],[172.65173640000006,-43.466821599999996]]}}
,
{"type":"Feature","id":"way/4931861/0","properties":{"ccc":"cyclingroute","cycleway":"lane","highway":"tertiary","maxspeed":"50","name":"Blighs Road","id":"way/4931861/0","weighting":10},"geometry":{"type":"LineString","coordinates":[[172.5987911,-43.50611040000001],[172.59970539999998,-43.505618100000014]]}}
,
{"type":"Feature","id":"way/4931861/1","properties":{"ccc":"cyclingroute","cycleway":"lane","highway":"tertiary","maxspeed":"50","name":"Blighs Road","id":"way/4931861/1","weighting":10},"geometry":{"type":"LineString","coordinates":[[172.59970539999998,-43.505618100000014],[172.60050389999998,-43.50517820000002]]}}
,
{"type":"Feature","id":"way/4932656/6","properties":{"highway":"tertiary","maxspeed":"50","name":"Normans Road","id":"way/4932656/6","weighting":10},"geometry":{"type":"LineString","coordinates":[[172.6082117,-43.50966439999999],[172.6069879,-43.5102252]]}}
,
{"type":"Feature","id":"way/5366641/0","properties":{"highway":"tertiary","maxspeed":"50","name":"Holmwood Road","id":"way/5366641/0","weighting":10},"geometry":{"type":"LineString","coordinates":[[172.61015139999998,-43.5219014],[172.6102029,-43.5218018]]}}
,
{"type":"Feature","id":"way/5366641/1","properties":{"highway":"tertiary","maxspeed":"50","name":"Holmwood Road","id":"way/5366641/1","weighting":10},"geometry":{"type":"LineString","coordinates":[[172.6102029,-43.5218018],[172.61044330000001,-43.521627599999995]]}}
,
{"type":"Feature","id":"way/5366641/2","properties":{"highway":"tertiary","maxspeed":"50","name":"Holmwood Road","id":"way/5366641/2","weighting":10},"geometry":{"type":"LineString","coordinates":[[172.61044330000001,-43.521627599999995],[172.61077799999998,-43.5214906]]}}
,
{"type":"Feature","id":"way/5366641/3","properties":{"highway":"tertiary","maxspeed":"50","name":"Holmwood Road","id":"way/5366641/3","weighting":10},"geometry":{"type":"LineString","coordinates":[[172.61077799999998,-43.5214906],[172.61283790000005,-43.5206317]]}}
,
{"type":"Feature","id":"way/11686160/0","properties":{"highway":"tertiary","name":"Seaview Road","id":"way/11686160/0","weighting":10},"geometry":{"type":"LineString","coordinates":[[172.72202640000006,-43.5089678],[172.722353,-43.50894690000001]]}}
,
{"type":"Feature","id":"way/11686160/1","properties":{"highway":"tertiary","name":"Seaview Road","id":"way/11686160/1","weighting":10},"geometry":{"type":"LineString","coordinates":[[172.722353,-43.50894690000001],[172.72391309999998,-43.50858210000001]]}}
,
{"type":"Feature","id":"way/11687291/1","properties":{"highway":"tertiary","name":"Bridge Street","id":"way/11687291/1","weighting":10},"geometry":{"type":"LineString","coordinates":[[172.7343773,-43.52281400000001],[172.732767,-43.52317200000002]]}}
,
{"type":"Feature","id":"way/12690272/47","properties":{"highway":"tertiary","maxspeed":"50","name":"Ilam Road","id":"way/12690272/47","weighting":10},"geometry":{"type":"LineString","coordinates":[[172.59722930000007,-43.507589],[172.5983027,-43.50737390000001]]}}
,
{"type":"Feature","id":"way/12690272/48","properties":{"highway":"tertiary","maxspeed":"50","name":"Ilam Road","id":"way/12690272/48","weighting":10},"geometry":{"type":"LineString","coordinates":[[172.5983027,-43.50737390000001],[172.5993161,-43.507168]]}}
,
{"type":"Feature","id":"way/13061690/1","properties":{"bicycle":"yes","highway":"unclassified","id":"way/13061690/1","weighting":10},"geometry":{"type":"LineString","coordinates":[[172.6275901,-43.528763300000016],[172.62748440000001,-43.52877270000002]]}}
,
{"type":"Feature","id":"way/14017296/23","properties":{"highway":"tertiary","maxspeed":"50","name":"Waterloo Road","id":"way/14017296/23","weighting":10},"geometry":{"type":"LineString","coordinates":[[172.53136419999998,-43.53859910000001],[172.53556989999998,-43.538176000000014]]}}
,
{"type":"Feature","id":"way/14017296/24","properties":{"highway":"tertiary","maxspeed":"50","name":"Waterloo Road","id":"way/14017296/24","weighting":10},"geometry":{"type":"LineString","coordinates":[[172.53556989999998,-43.538176000000014],[172.53684880000006,-43.53803290000002]]}}
,
{"type":"Feature","id":"way/14019702/9","properties":{"highway":"unclassified","maxspeed":"50","name":"Halwyn Drive","id":"way/14019702/9","weighting":10},"geometry":{"type":"LineString","coordinates":[[172.536557,-43.5364214],[172.53684880000006,-43.53803290000002]]}}
,
{"type":"Feature","id":"way/14019808/7","properties":{"highway":"unclassified","maxspeed":"50","name":"Braeburn Drive","id":"way/14019808/7","weighting":10},"geometry":{"type":"LineString","coordinates":[[172.5358703,-43.53965690000001],[172.53556989999998,-43.538176000000014]]}}
,
{"type":"Feature","id":"way/14027140/22","properties":{"highway":"tertiary","maxspeed":"50","name":"Birmingham Drive","id":"way/14027140/22","weighting":10},"geometry":{"type":"LineString","coordinates":[[172.59368819999995,-43.5447595],[172.59475589999994,-43.5442025]]}}
,
{"type":"Feature","id":"way/14027843/0","properties":{"highway":"unclassified","maxspeed":"50","name":"Vanadium Place","id":"way/14027843/0","weighting":10},"geometry":{"type":"LineString","coordinates":[[172.594739,-43.5441261],[172.59455279999992,-43.5440307]]}}
,
{"type":"Feature","id":"way/14028108/0","properties":{"highway":"tertiary","maxspeed":"50","name":"Wrights Road","id":"way/14028108/0","weighting":10},"geometry":{"type":"LineString","coordinates":[[172.59485959999998,-43.5441213],[172.59584880000006,-43.5428921]]}}
,
{"type":"Feature","id":"way/14028108/1","properties":{"highway":"tertiary","maxspeed":"50","name":"Wrights Road","id":"way/14028108/1","weighting":10},"geometry":{"type":"LineString","coordinates":[[172.59584880000006,-43.5428921],[172.5968802,-43.5416155]]}}
,
{"type":"Feature","id":"way/14028108/2","properties":{"highway":"tertiary","maxspeed":"50","name":"Wrights Road","id":"way/14028108/2","weighting":10},"geometry":{"type":"LineString","coordinates":[[172.5968802,-43.5416155],[172.59701990000005,-43.5414402]]}}
,
{"type":"Feature","id":"way/14028108/3","properties":{"highway":"tertiary","maxspeed":"50","name":"Wrights Road","id":"way/14028108/3","weighting":10},"geometry":{"type":"LineString","coordinates":[[172.59701990000005,-43.5414402],[172.59706549999999,-43.5413459]]}}
,
{"type":"Feature","id":"way/14028160/0","properties":{"highway":"unclassified","maxspeed":"50","name":"Moncur Place","id":"way/14028160/0","weighting":10},"geometry":{"type":"LineString","coordinates":[[172.59584880000006,-43.5428921],[172.59490469999994,-43.542494]]}}
,
{"type":"Feature","id":"way/14028501/0","properties":{"highway":"tertiary","layer":"0","maxspeed":"50","name":"Wrights Road","oneway":"no","id":"way/14028501/0","weighting":10},"geometry":{"type":"LineString","coordinates":[[172.59485259999994,-43.5441998],[172.5954025,-43.544764799999996]]}}
,
{"type":"Feature","id":"way/14028501/1","properties":{"highway":"tertiary","layer":"0","maxspeed":"50","name":"Wrights Road","oneway":"no","id":"way/14028501/1","weighting":10},"geometry":{"type":"LineString","coordinates":[[172.5954025,-43.544764799999996],[172.5971745,-43.5462939]]}}
,
{"type":"Feature","id":"way/14028501/2","properties":{"highway":"tertiary","layer":"0","maxspeed":"50","name":"Wrights Road","oneway":"no","id":"way/14028501/2","weighting":10},"geometry":{"type":"LineString","coordinates":[[172.5971745,-43.5462939],[172.59768640000001,-43.54675630000001]]}}
,
{"type":"Feature","id":"way/14028501/3","properties":{"highway":"tertiary","layer":"0","maxspeed":"50","name":"Wrights Road","oneway":"no","id":"way/14028501/3","weighting":10},"geometry":{"type":"LineString","coordinates":[[172.59768640000001,-43.54675630000001],[172.59816700000005,-43.5471905]]}}
,
{"type":"Feature","id":"way/14028501/4","properties":{"highway":"tertiary","layer":"0","maxspeed":"50","name":"Wrights Road","oneway":"no","id":"way/14028501/4","weighting":10},"geometry":{"type":"LineString","coordinates":[[172.59816700000005,-43.5471905],[172.59952189999998,-43.54841430000001]]}}
,
{"type":"Feature","id":"way/14028501/5","properties":{"highway":"tertiary","layer":"0","maxspeed":"50","name":"Wrights Road","oneway":"no","id":"way/14028501/5","weighting":10},"geometry":{"type":"LineString","coordinates":[[172.59952189999998,-43.54841430000001],[172.6005273,-43.5493225]]}}
,
{"type":"Feature","id":"way/14028501/6","properties":{"highway":"tertiary","layer":"0","maxspeed":"50","name":"Wrights Road","oneway":"no","id":"way/14028501/6","weighting":10},"geometry":{"type":"LineString","coordinates":[[172.6005273,-43.5493225],[172.60068559999993,-43.54951420000001]]}}
,
{"type":"Feature","id":"way/14028848/0","properties":{"highway":"unclassified","name":"Jack Hinton Drive","id":"way/14028848/0","weighting":10},"geometry":{"type":"LineString","coordinates":[[172.59768640000001,-43.54675630000001],[172.59914469999998,-43.54587220000001]]}}
,
{"type":"Feature","id":"way/14028848/1","properties":{"highway":"unclassified","name":"Jack Hinton Drive","id":"way/14028848/1","weighting":10},"geometry":{"type":"LineString","coordinates":[[172.59914469999998,-43.54587220000001],[172.59926919999998,-43.54584139999999]]}}
,
{"type":"Feature","id":"way/14028848/2","properties":{"highway":"unclassified","name":"Jack Hinton Drive","id":"way/14028848/2","weighting":10},"geometry":{"type":"LineString","coordinates":[[172.59926919999998,-43.54584139999999],[172.59939359999998,-43.5458348]]}}
,
{"type":"Feature","id":"way/14028848/3","properties":{"highway":"unclassified","name":"Jack Hinton Drive","id":"way/14028848/3","weighting":10},"geometry":{"type":"LineString","coordinates":[[172.59939359999998,-43.5458348],[172.5995261,-43.5458534]]}}
,
{"type":"Feature","id":"way/14028848/4","properties":{"highway":"unclassified","name":"Jack Hinton Drive","id":"way/14028848/4","weighting":10},"geometry":{"type":"LineString","coordinates":[[172.5995261,-43.5458534],[172.59964369999994,-43.5458839]]}}
,
{"type":"Feature","id":"way/14028848/5","properties":{"highway":"unclassified","name":"Jack Hinton Drive","id":"way/14028848/5","weighting":10},"geometry":{"type":"LineString","coordinates":[[172.59964369999994,-43.5458839],[172.60071539999998,-43.5468551]]}}
,
{"type":"Feature","id":"way/14028848/6","properties":{"highway":"unclassified","name":"Jack Hinton Drive","id":"way/14028848/6","weighting":10},"geometry":{"type":"LineString","coordinates":[[172.60071539999998,-43.5468551],[172.6008497,-43.5469239]]}}
,
{"type":"Feature","id":"way/14028848/7","properties":{"highway":"unclassified","name":"Jack Hinton Drive","id":"way/14028848/7","weighting":10},"geometry":{"type":"LineString","coordinates":[[172.6008497,-43.5469239],[172.6011017,-43.5469795]]}}
,
{"type":"Feature","id":"way/14028848/8","properties":{"highway":"unclassified","name":"Jack Hinton Drive","id":"way/14028848/8","weighting":10},"geometry":{"type":"LineString","coordinates":[[172.6011017,-43.5469795],[172.6013022,-43.5469979]]}}
,
{"type":"Feature","id":"way/14028848/9","properties":{"highway":"unclassified","name":"Jack Hinton Drive","id":"way/14028848/9","weighting":10},"geometry":{"type":"LineString","coordinates":[[172.6013022,-43.5469979],[172.60149650000005,-43.5469795]]}}
,
{"type":"Feature","id":"way/14028848/10","properties":{"highway":"unclassified","name":"Jack Hinton Drive","id":"way/14028848/10","weighting":10},"geometry":{"type":"LineString","coordinates":[[172.60149650000005,-43.5469795],[172.6016684,-43.5469281]]}}
,
{"type":"Feature","id":"way/14028848/11","properties":{"highway":"unclassified","name":"Jack Hinton Drive","id":"way/14028848/11","weighting":10},"geometry":{"type":"LineString","coordinates":[[172.6016684,-43.5469281],[172.6018312,-43.5468489]]}}
,
{"type":"Feature","id":"way/14028848/12","properties":{"highway":"unclassified","name":"Jack Hinton Drive","id":"way/14028848/12","weighting":10},"geometry":{"type":"LineString","coordinates":[[172.6018312,-43.5468489],[172.6020575,-43.5467016]]}}
,
{"type":"Feature","id":"way/14028848/13","properties":{"highway":"unclassified","name":"Jack Hinton Drive","id":"way/14028848/13","weighting":10},"geometry":{"type":"LineString","coordinates":[[172.6020575,-43.5467016],[172.60294700000006,-43.546152100000015]]}}
,
{"type":"Feature","id":"way/14028848/14","properties":{"highway":"unclassified","name":"Jack Hinton Drive","id":"way/14028848/14","weighting":10},"geometry":{"type":"LineString","coordinates":[[172.60294700000006,-43.546152100000015],[172.6033161,-43.545959300000014]]}}
,
{"type":"Feature","id":"way/14028848/15","properties":{"highway":"unclassified","name":"Jack Hinton Drive","id":"way/14028848/15","weighting":10},"geometry":{"type":"LineString","coordinates":[[172.6033161,-43.545959300000014],[172.60367659999994,-43.5457664]]}}
,
{"type":"Feature","id":"way/14028848/16","properties":{"highway":"unclassified","name":"Jack Hinton Drive","id":"way/14028848/16","weighting":10},"geometry":{"type":"LineString","coordinates":[[172.60367659999994,-43.5457664],[172.60417439999998,-43.54571660000001]]}}
,
{"type":"Feature","id":"way/14028848/17","properties":{"highway":"unclassified","name":"Jack Hinton Drive","id":"way/14028848/17","weighting":10},"geometry":{"type":"LineString","coordinates":[[172.60417439999998,-43.54571660000001],[172.6044405,-43.5456171]]}}
,
{"type":"Feature","id":"way/14028848/18","properties":{"highway":"unclassified","name":"Jack Hinton Drive","id":"way/14028848/18","weighting":10},"geometry":{"type":"LineString","coordinates":[[172.6044405,-43.5456171],[172.60463109999998,-43.5454887]]}}
,
{"type":"Feature","id":"way/14028913/0","properties":{"highway":"unclassified","name":"Jack Hinton Drive","id":"way/14028913/0","weighting":10},"geometry":{"type":"LineString","coordinates":[[172.59964369999994,-43.5458839],[172.59967339999994,-43.5458305]]}}
,
{"type":"Feature","id":"way/14028913/1","properties":{"highway":"unclassified","name":"Jack Hinton Drive","id":"way/14028913/1","weighting":10},"geometry":{"type":"LineString","coordinates":[[172.59967339999994,-43.5458305],[172.5997198,-43.545778800000015]]}}
,
{"type":"Feature","id":"way/14028913/2","properties":{"highway":"unclassified","name":"Jack Hinton Drive","id":"way/14028913/2","weighting":10},"geometry":{"type":"LineString","coordinates":[[172.5997198,-43.545778800000015],[172.60145519999998,-43.544763]]}}
,
{"type":"Feature","id":"way/14028913/3","properties":{"highway":"unclassified","name":"Jack Hinton Drive","id":"way/14028913/3","weighting":10},"geometry":{"type":"LineString","coordinates":[[172.60145519999998,-43.544763],[172.602887,-43.5439249]]}}
,
{"type":"Feature","id":"way/14028995/0","properties":{"highway":"unclassified","name":"Jack Hinton Drive","id":"way/14028995/0","weighting":10},"geometry":{"type":"LineString","coordinates":[[172.60294700000006,-43.546152100000015],[172.60145519999998,-43.544763]]}}
,
{"type":"Feature","id":"way/14030048/0","properties":{"highway":"unclassified","maxspeed":"50","name":"Troup Drive","id":"way/14030048/0","weighting":10},"geometry":{"type":"LineString","coordinates":[[172.60402969999998,-43.5395604],[172.6044249,-43.5395613]]}}
,
{"type":"Feature","id":"way/14030472/4","properties":{"highway":"unclassified","maxspeed":"50","name":"Princess Street","id":"way/14030472/4","weighting":10},"geometry":{"type":"LineString","coordinates":[[172.6019205,-43.53851230000003],[172.60396869999994,-43.538348700000014]]}}
,
{"type":"Feature","id":"way/15708000/0","properties":{"highway":"unclassified","maxspeed":"100","name":"Savills Road","id":"way/15708000/0","weighting":10},"geometry":{"type":"LineString","coordinates":[[172.5227049,-43.4886563],[172.5182986,-43.4886229]]}}
,
{"type":"Feature","id":"way/15708000/1","properties":{"highway":"unclassified","maxspeed":"100","name":"Savills Road","id":"way/15708000/1","weighting":10},"geometry":{"type":"LineString","coordinates":[[172.5182986,-43.4886229],[172.51570419999993,-43.4885812]]}}
,
{"type":"Feature","id":"way/15730915/0","properties":{"created_by":"Potlatch 0.5d","highway":"unclassified","id":"way/15730915/0","weighting":10},"geometry":{"type":"LineString","coordinates":[[172.5478609,-43.5442173],[172.5481012,-43.544167499999986]]}}
,
{"type":"Feature","id":"way/15730915/1","properties":{"created_by":"Potlatch 0.5d","highway":"unclassified","id":"way/15730915/1","weighting":10},"geometry":{"type":"LineString","coordinates":[[172.5481012,-43.544167499999986],[172.5483501,-43.5439436]]}}
,
{"type":"Feature","id":"way/15730915/2","properties":{"created_by":"Potlatch 0.5d","highway":"unclassified","id":"way/15730915/2","weighting":10},"geometry":{"type":"LineString","coordinates":[[172.5483501,-43.5439436],[172.54872780000005,-43.54375690000001]]}}
,
{"type":"Feature","id":"way/15731010/6","properties":{"highway":"tertiary","maxspeed":"80","name":"Awatea Road","id":"way/15731010/6","weighting":10},"geometry":{"type":"LineString","coordinates":[[172.5453967,-43.55835560000001],[172.5500667,-43.56087580000001]]}}
,
{"type":"Feature","id":"way/15731010/7","properties":{"highway":"tertiary","maxspeed":"80","name":"Awatea Road","id":"way/15731010/7","weighting":10},"geometry":{"type":"LineString","coordinates":[[172.5500667,-43.56087580000001],[172.5502632,-43.56097730000001]]}}
,
{"type":"Feature","id":"way/15731010/8","properties":{"highway":"tertiary","maxspeed":"80","name":"Awatea Road","id":"way/15731010/8","weighting":10},"geometry":{"type":"LineString","coordinates":[[172.5502632,-43.56097730000001],[172.5509937,-43.56135480000001]]}}
,
{"type":"Feature","id":"way/15731010/9","properties":{"highway":"tertiary","maxspeed":"80","name":"Awatea Road","id":"way/15731010/9","weighting":10},"geometry":{"type":"LineString","coordinates":[[172.5509937,-43.56135480000001],[172.5516804,-43.5618337]]}}
,
{"type":"Feature","id":"way/15731010/10","properties":{"highway":"tertiary","maxspeed":"80","name":"Awatea Road","id":"way/15731010/10","weighting":10},"geometry":{"type":"LineString","coordinates":[[172.5516804,-43.5618337],[172.5520752,-43.5622442]]}}
,
{"type":"Feature","id":"way/15731010/11","properties":{"highway":"tertiary","maxspeed":"80","name":"Awatea Road","id":"way/15731010/11","weighting":10},"geometry":{"type":"LineString","coordinates":[[172.5520752,-43.5622442],[172.5526905,-43.5629444]]}}
,
{"type":"Feature","id":"way/15731010/12","properties":{"highway":"tertiary","maxspeed":"80","name":"Awatea Road","id":"way/15731010/12","weighting":10},"geometry":{"type":"LineString","coordinates":[[172.5526905,-43.5629444],[172.55283790000007,-43.56311210000002]]}}
,
{"type":"Feature","id":"way/15731010/13","properties":{"highway":"tertiary","maxspeed":"80","name":"Awatea Road","id":"way/15731010/13","weighting":10},"geometry":{"type":"LineString","coordinates":[[172.55283790000007,-43.56311210000002],[172.55342640000006,-43.5638826]]}}
,
{"type":"Feature","id":"way/15732958/0","properties":{"fixme":"check road type","highway":"unclassified","maxspeed":"50","name":"Elgin Street","id":"way/15732958/0","weighting":10},"geometry":{"type":"LineString","coordinates":[[172.63368669999994,-43.545858],[172.63665439999994,-43.5458366]]}}
,
{"type":"Feature","id":"way/15733513/0","properties":{"created_by":"Potlatch 0.5d","highway":"unclassified","name":"Show Place","id":"way/15733513/0","weighting":10},"geometry":{"type":"LineString","coordinates":[[172.6049329,-43.5417454],[172.60471509999994,-43.541834499999986]]}}
,
{"type":"Feature","id":"way/15733513/1","properties":{"created_by":"Potlatch 0.5d","highway":"unclassified","name":"Show Place","id":"way/15733513/1","weighting":10},"geometry":{"type":"LineString","coordinates":[[172.60471509999994,-43.541834499999986],[172.60277539999998,-43.541840699999995]]}}
,
{"type":"Feature","id":"way/15733647/0","properties":{"highway":"unclassified","maxspeed":"50","name":"O'Shannessey Place","id":"way/15733647/0","weighting":10},"geometry":{"type":"LineString","coordinates":[[172.60425489999994,-43.5404824],[172.60405419999992,-43.5405092]]}}
,
{"type":"Feature","id":"way/15733647/1","properties":{"highway":"unclassified","maxspeed":"50","name":"O'Shannessey Place","id":"way/15733647/1","weighting":10},"geometry":{"type":"LineString","coordinates":[[172.60405419999992,-43.5405092],[172.6020887,-43.5405217]]}}
,
{"type":"Feature","id":"way/16612408/18","properties":{"highway":"tertiary","name":"Old Tai Tapu Road","surface":"paved","id":"way/16612408/18","weighting":10},"geometry":{"type":"LineString","coordinates":[[172.57103700000005,-43.6109241],[172.5709387,-43.6154881]]}}
,
{"type":"Feature","id":"way/16612408/19","properties":{"highway":"tertiary","name":"Old Tai Tapu Road","surface":"paved","id":"way/16612408/19","weighting":10},"geometry":{"type":"LineString","coordinates":[[172.5709387,-43.6154881],[172.57089539999998,-43.62015150000001]]}}
,
{"type":"Feature","id":"way/16612408/20","properties":{"highway":"tertiary","name":"Old Tai Tapu Road","surface":"paved","id":"way/16612408/20","weighting":10},"geometry":{"type":"LineString","coordinates":[[172.57089539999998,-43.62015150000001],[172.5708128,-43.6204095]]}}
,
{"type":"Feature","id":"way/16612408/21","properties":{"highway":"tertiary","name":"Old Tai Tapu Road","surface":"paved","id":"way/16612408/21","weighting":10},"geometry":{"type":"LineString","coordinates":[[172.5708128,-43.6204095],[172.570606,-43.6206917]]}}
,
{"type":"Feature","id":"way/16612408/22","properties":{"highway":"tertiary","name":"Old Tai Tapu Road","surface":"paved","id":"way/16612408/22","weighting":10},"geometry":{"type":"LineString","coordinates":[[172.570606,-43.6206917],[172.56971059999998,-43.62159430000001]]}}
,
{"type":"Feature","id":"way/16612408/23","properties":{"highway":"tertiary","name":"Old Tai Tapu Road","surface":"paved","id":"way/16612408/23","weighting":10},"geometry":{"type":"LineString","coordinates":[[172.56971059999998,-43.62159430000001],[172.5651808,-43.6248898]]}}
,
{"type":"Feature","id":"way/16612408/24","properties":{"highway":"tertiary","name":"Old Tai Tapu Road","surface":"paved","id":"way/16612408/24","weighting":10},"geometry":{"type":"LineString","coordinates":[[172.5651808,-43.6248898],[172.564879,-43.62512820000002]]}}
,
{"type":"Feature","id":"way/16612408/25","properties":{"highway":"tertiary","name":"Old Tai Tapu Road","surface":"paved","id":"way/16612408/25","weighting":10},"geometry":{"type":"LineString","coordinates":[[172.564879,-43.62512820000002],[172.56467559999993,-43.62536990000002]]}}
,
{"type":"Feature","id":"way/16612408/26","properties":{"highway":"tertiary","name":"Old Tai Tapu Road","surface":"paved","id":"way/16612408/26","weighting":10},"geometry":{"type":"LineString","coordinates":[[172.56467559999993,-43.62536990000002],[172.56456279999995,-43.625638600000016]]}}
,
{"type":"Feature","id":"way/16612408/27","properties":{"highway":"tertiary","name":"Old Tai Tapu Road","surface":"paved","id":"way/16612408/27","weighting":10},"geometry":{"type":"LineString","coordinates":[[172.56456279999995,-43.625638600000016],[172.5643833,-43.6264795]]}}
,
{"type":"Feature","id":"way/16612408/28","properties":{"highway":"tertiary","name":"Old Tai Tapu Road","surface":"paved","id":"way/16612408/28","weighting":10},"geometry":{"type":"LineString","coordinates":[[172.5643833,-43.6264795],[172.5642337,-43.62730230000002]]}}
,
{"type":"Feature","id":"way/16612408/29","properties":{"highway":"tertiary","name":"Old Tai Tapu Road","surface":"paved","id":"way/16612408/29","weighting":10},"geometry":{"type":"LineString","coordinates":[[172.5642337,-43.62730230000002],[172.56370009999998,-43.628077900000015]]}}
,
{"type":"Feature","id":"way/16612408/30","properties":{"highway":"tertiary","name":"Old Tai Tapu Road","surface":"paved","id":"way/16612408/30","weighting":10},"geometry":{"type":"LineString","coordinates":[[172.56370009999998,-43.628077900000015],[172.5616748,-43.63053580000002]]}}
,
{"type":"Feature","id":"way/16612408/31","properties":{"highway":"tertiary","name":"Old Tai Tapu Road","surface":"paved","id":"way/16612408/31","weighting":10},"geometry":{"type":"LineString","coordinates":[[172.5616748,-43.63053580000002],[172.56048140000001,-43.6319841]]}}
,
{"type":"Feature","id":"way/16612408/32","properties":{"highway":"tertiary","name":"Old Tai Tapu Road","surface":"paved","id":"way/16612408/32","weighting":10},"geometry":{"type":"LineString","coordinates":[[172.56048140000001,-43.6319841],[172.5599888,-43.63275810000002]]}}
,
{"type":"Feature","id":"way/16612408/33","properties":{"highway":"tertiary","name":"Old Tai Tapu Road","surface":"paved","id":"way/16612408/33","weighting":10},"geometry":{"type":"LineString","coordinates":[[172.5599888,-43.63275810000002],[172.5599346,-43.63313630000002]]}}
,
{"type":"Feature","id":"way/16612408/34","properties":{"highway":"tertiary","name":"Old Tai Tapu Road","surface":"paved","id":"way/16612408/34","weighting":10},"geometry":{"type":"LineString","coordinates":[[172.5599346,-43.63313630000002],[172.5600135,-43.633548900000015]]}}
,
{"type":"Feature","id":"way/16612408/35","properties":{"highway":"tertiary","name":"Old Tai Tapu Road","surface":"paved","id":"way/16612408/35","weighting":10},"geometry":{"type":"LineString","coordinates":[[172.5600135,-43.633548900000015],[172.56063680000005,-43.63518860000001]]}}
,
{"type":"Feature","id":"way/16612408/36","properties":{"highway":"tertiary","name":"Old Tai Tapu Road","surface":"paved","id":"way/16612408/36","weighting":10},"geometry":{"type":"LineString","coordinates":[[172.56063680000005,-43.63518860000001],[172.5607704,-43.63608290000001]]}}
,
{"type":"Feature","id":"way/16612408/37","properties":{"highway":"tertiary","name":"Old Tai Tapu Road","surface":"paved","id":"way/16612408/37","weighting":10},"geometry":{"type":"LineString","coordinates":[[172.5607704,-43.63608290000001],[172.560915,-43.63699130000001]]}}
,
{"type":"Feature","id":"way/16612408/38","properties":{"highway":"tertiary","name":"Old Tai Tapu Road","surface":"paved","id":"way/16612408/38","weighting":10},"geometry":{"type":"LineString","coordinates":[[172.560915,-43.63699130000001],[172.5608889,-43.6374334]]}}
,
{"type":"Feature","id":"way/16612408/39","properties":{"highway":"tertiary","name":"Old Tai Tapu Road","surface":"paved","id":"way/16612408/39","weighting":10},"geometry":{"type":"LineString","coordinates":[[172.5608889,-43.6374334],[172.5607961,-43.6378542]]}}
,
{"type":"Feature","id":"way/16612408/40","properties":{"highway":"tertiary","name":"Old Tai Tapu Road","surface":"paved","id":"way/16612408/40","weighting":10},"geometry":{"type":"LineString","coordinates":[[172.5607961,-43.6378542],[172.5605766,-43.6382815]]}}
,
{"type":"Feature","id":"way/16612408/41","properties":{"highway":"tertiary","name":"Old Tai Tapu Road","surface":"paved","id":"way/16612408/41","weighting":10},"geometry":{"type":"LineString","coordinates":[[172.5605766,-43.6382815],[172.56028650000005,-43.638668]]}}
,
{"type":"Feature","id":"way/16612408/42","properties":{"highway":"tertiary","name":"Old Tai Tapu Road","surface":"paved","id":"way/16612408/42","weighting":10},"geometry":{"type":"LineString","coordinates":[[172.56028650000005,-43.638668],[172.55981359999998,-43.639100100000014]]}}
,
{"type":"Feature","id":"way/16612408/43","properties":{"highway":"tertiary","name":"Old Tai Tapu Road","surface":"paved","id":"way/16612408/43","weighting":10},"geometry":{"type":"LineString","coordinates":[[172.55981359999998,-43.639100100000014],[172.55942710000005,-43.63932590000002]]}}
,
{"type":"Feature","id":"way/16612408/44","properties":{"highway":"tertiary","name":"Old Tai Tapu Road","surface":"paved","id":"way/16612408/44","weighting":10},"geometry":{"type":"LineString","coordinates":[[172.55942710000005,-43.63932590000002],[172.55822240000006,-43.63979230000002]]}}
,
{"type":"Feature","id":"way/16612408/45","properties":{"highway":"tertiary","name":"Old Tai Tapu Road","surface":"paved","id":"way/16612408/45","weighting":10},"geometry":{"type":"LineString","coordinates":[[172.55822240000006,-43.63979230000002],[172.5576032,-43.6400007]]}}
,
{"type":"Feature","id":"way/16612408/46","properties":{"highway":"tertiary","name":"Old Tai Tapu Road","surface":"paved","id":"way/16612408/46","weighting":10},"geometry":{"type":"LineString","coordinates":[[172.5576032,-43.6400007],[172.55740380000006,-43.6402662]]}}
,
{"type":"Feature","id":"way/16612408/47","properties":{"highway":"tertiary","name":"Old Tai Tapu Road","surface":"paved","id":"way/16612408/47","weighting":10},"geometry":{"type":"LineString","coordinates":[[172.55740380000006,-43.6402662],[172.5571746,-43.641083]]}}
,
{"type":"Feature","id":"way/16612408/48","properties":{"highway":"tertiary","name":"Old Tai Tapu Road","surface":"paved","id":"way/16612408/48","weighting":10},"geometry":{"type":"LineString","coordinates":[[172.5571746,-43.641083],[172.5568245,-43.6430822]]}}
,
{"type":"Feature","id":"way/16612408/49","properties":{"highway":"tertiary","name":"Old Tai Tapu Road","surface":"paved","id":"way/16612408/49","weighting":10},"geometry":{"type":"LineString","coordinates":[[172.5568245,-43.6430822],[172.5567566,-43.6434755]]}}
,
{"type":"Feature","id":"way/16612408/50","properties":{"highway":"tertiary","name":"Old Tai Tapu Road","surface":"paved","id":"way/16612408/50","weighting":10},"geometry":{"type":"LineString","coordinates":[[172.5567566,-43.6434755],[172.55560169999998,-43.6462285]]}}
,
{"type":"Feature","id":"way/16612408/51","properties":{"highway":"tertiary","name":"Old Tai Tapu Road","surface":"paved","id":"way/16612408/51","weighting":10},"geometry":{"type":"LineString","coordinates":[[172.55560169999998,-43.6462285],[172.5553691,-43.64704739999999]]}}
,
{"type":"Feature","id":"way/16612408/52","properties":{"highway":"tertiary","name":"Old Tai Tapu Road","surface":"paved","id":"way/16612408/52","weighting":10},"geometry":{"type":"LineString","coordinates":[[172.5553691,-43.64704739999999],[172.55521230000005,-43.648019900000016]]}}
,
{"type":"Feature","id":"way/16612408/53","properties":{"highway":"tertiary","name":"Old Tai Tapu Road","surface":"paved","id":"way/16612408/53","weighting":10},"geometry":{"type":"LineString","coordinates":[[172.55521230000005,-43.648019900000016],[172.5549928,-43.648762900000015]]}}
,
{"type":"Feature","id":"way/16612408/54","properties":{"highway":"tertiary","name":"Old Tai Tapu Road","surface":"paved","id":"way/16612408/54","weighting":10},"geometry":{"type":"LineString","coordinates":[[172.5549928,-43.648762900000015],[172.55468459999994,-43.6496449]]}}
,
{"type":"Feature","id":"way/16612408/55","properties":{"highway":"tertiary","name":"Old Tai Tapu Road","surface":"paved","id":"way/16612408/55","weighting":10},"geometry":{"type":"LineString","coordinates":[[172.55468459999994,-43.6496449],[172.5545865,-43.6500281]]}}
,
{"type":"Feature","id":"way/16612408/56","properties":{"highway":"tertiary","name":"Old Tai Tapu Road","surface":"paved","id":"way/16612408/56","weighting":10},"geometry":{"type":"LineString","coordinates":[[172.5545865,-43.6500281],[172.55455529999995,-43.650463]]}}
,
{"type":"Feature","id":"way/16612408/57","properties":{"highway":"tertiary","name":"Old Tai Tapu Road","surface":"paved","id":"way/16612408/57","weighting":10},"geometry":{"type":"LineString","coordinates":[[172.55455529999995,-43.650463],[172.55470419999995,-43.6508809]]}}
,
{"type":"Feature","id":"way/16612408/58","properties":{"highway":"tertiary","name":"Old Tai Tapu Road","surface":"paved","id":"way/16612408/58","weighting":10},"geometry":{"type":"LineString","coordinates":[[172.55470419999995,-43.6508809],[172.55485439999998,-43.651144099999996]]}}
,
{"type":"Feature","id":"way/16612408/59","properties":{"highway":"tertiary","name":"Old Tai Tapu Road","surface":"paved","id":"way/16612408/59","weighting":10},"geometry":{"type":"LineString","coordinates":[[172.55485439999998,-43.651144099999996],[172.5551157,-43.65153270000001]]}}
,
{"type":"Feature","id":"way/16612408/60","properties":{"highway":"tertiary","name":"Old Tai Tapu Road","surface":"paved","id":"way/16612408/60","weighting":10},"geometry":{"type":"LineString","coordinates":[[172.5551157,-43.65153270000001],[172.5556813,-43.6520439]]}}
,
{"type":"Feature","id":"way/16612408/61","properties":{"highway":"tertiary","name":"Old Tai Tapu Road","surface":"paved","id":"way/16612408/61","weighting":10},"geometry":{"type":"LineString","coordinates":[[172.5556813,-43.6520439],[172.55639200000005,-43.6524007]]}}
,
{"type":"Feature","id":"way/16612408/62","properties":{"highway":"tertiary","name":"Old Tai Tapu Road","surface":"paved","id":"way/16612408/62","weighting":10},"geometry":{"type":"LineString","coordinates":[[172.55639200000005,-43.6524007],[172.55701230000005,-43.65257320000001]]}}
,
{"type":"Feature","id":"way/16612408/63","properties":{"highway":"tertiary","name":"Old Tai Tapu Road","surface":"paved","id":"way/16612408/63","weighting":10},"geometry":{"type":"LineString","coordinates":[[172.55701230000005,-43.65257320000001],[172.55768940000004,-43.65271600000001]]}}
,
{"type":"Feature","id":"way/16612408/64","properties":{"highway":"tertiary","name":"Old Tai Tapu Road","surface":"paved","id":"way/16612408/64","weighting":10},"geometry":{"type":"LineString","coordinates":[[172.55768940000004,-43.65271600000001],[172.55889650000006,-43.652864499999986]]}}
,
{"type":"Feature","id":"way/16612408/65","properties":{"highway":"tertiary","name":"Old Tai Tapu Road","surface":"paved","id":"way/16612408/65","weighting":10},"geometry":{"type":"LineString","coordinates":[[172.55889650000006,-43.652864499999986],[172.559815,-43.65295790000001]]}}
,
{"type":"Feature","id":"way/16612408/66","properties":{"highway":"tertiary","name":"Old Tai Tapu Road","surface":"paved","id":"way/16612408/66","weighting":10},"geometry":{"type":"LineString","coordinates":[[172.559815,-43.65295790000001],[172.56059219999995,-43.6530907]]}}
,
{"type":"Feature","id":"way/16612408/67","properties":{"highway":"tertiary","name":"Old Tai Tapu Road","surface":"paved","id":"way/16612408/67","weighting":10},"geometry":{"type":"LineString","coordinates":[[172.56059219999995,-43.6530907],[172.56091650000005,-43.6532207]]}}
,
{"type":"Feature","id":"way/16612408/68","properties":{"highway":"tertiary","name":"Old Tai Tapu Road","surface":"paved","id":"way/16612408/68","weighting":10},"geometry":{"type":"LineString","coordinates":[[172.56091650000005,-43.6532207],[172.5611854,-43.6534052]]}}
,
{"type":"Feature","id":"way/16612408/69","properties":{"highway":"tertiary","name":"Old Tai Tapu Road","surface":"paved","id":"way/16612408/69","weighting":10},"geometry":{"type":"LineString","coordinates":[[172.5611854,-43.6534052],[172.56140480000005,-43.653687899999994]]}}
,
{"type":"Feature","id":"way/16612408/70","properties":{"highway":"tertiary","name":"Old Tai Tapu Road","surface":"paved","id":"way/16612408/70","weighting":10},"geometry":{"type":"LineString","coordinates":[[172.56140480000005,-43.653687899999994],[172.56153930000005,-43.65397880000001]]}}
,
{"type":"Feature","id":"way/16612408/71","properties":{"highway":"tertiary","name":"Old Tai Tapu Road","surface":"paved","id":"way/16612408/71","weighting":10},"geometry":{"type":"LineString","coordinates":[[172.56153930000005,-43.65397880000001],[172.56162880000005,-43.654403499999994]]}}
,
{"type":"Feature","id":"way/16612408/72","properties":{"highway":"tertiary","name":"Old Tai Tapu Road","surface":"paved","id":"way/16612408/72","weighting":10},"geometry":{"type":"LineString","coordinates":[[172.56162880000005,-43.654403499999994],[172.56162630000006,-43.65488049999998]]}}
,
{"type":"Feature","id":"way/16612408/73","properties":{"highway":"tertiary","name":"Old Tai Tapu Road","surface":"paved","id":"way/16612408/73","weighting":10},"geometry":{"type":"LineString","coordinates":[[172.56162630000006,-43.65488049999998],[172.561512,-43.6551747]]}}
,
{"type":"Feature","id":"way/16612408/74","properties":{"highway":"tertiary","name":"Old Tai Tapu Road","surface":"paved","id":"way/16612408/74","weighting":10},"geometry":{"type":"LineString","coordinates":[[172.561512,-43.6551747],[172.56132690000007,-43.6554995]]}}
,
{"type":"Feature","id":"way/16612408/75","properties":{"highway":"tertiary","name":"Old Tai Tapu Road","surface":"paved","id":"way/16612408/75","weighting":10},"geometry":{"type":"LineString","coordinates":[[172.56132690000007,-43.6554995],[172.56103650000006,-43.6558628]]}}
,
{"type":"Feature","id":"way/16612408/76","properties":{"highway":"tertiary","name":"Old Tai Tapu Road","surface":"paved","id":"way/16612408/76","weighting":10},"geometry":{"type":"LineString","coordinates":[[172.56103650000006,-43.6558628],[172.5606809,-43.65612220000001]]}}
,
{"type":"Feature","id":"way/16612408/77","properties":{"highway":"tertiary","name":"Old Tai Tapu Road","surface":"paved","id":"way/16612408/77","weighting":10},"geometry":{"type":"LineString","coordinates":[[172.5606809,-43.65612220000001],[172.5602862,-43.6563427]]}}
,
{"type":"Feature","id":"way/16612408/78","properties":{"highway":"tertiary","name":"Old Tai Tapu Road","surface":"paved","id":"way/16612408/78","weighting":10},"geometry":{"type":"LineString","coordinates":[[172.5602862,-43.6563427],[172.55909730000005,-43.6567114]]}}
,
{"type":"Feature","id":"way/16612408/79","properties":{"highway":"tertiary","name":"Old Tai Tapu Road","surface":"paved","id":"way/16612408/79","weighting":10},"geometry":{"type":"LineString","coordinates":[[172.55909730000005,-43.6567114],[172.55752740000005,-43.6569883]]}}
,
{"type":"Feature","id":"way/16612408/80","properties":{"highway":"tertiary","name":"Old Tai Tapu Road","surface":"paved","id":"way/16612408/80","weighting":10},"geometry":{"type":"LineString","coordinates":[[172.55752740000005,-43.6569883],[172.5565528,-43.657239]]}}
,
{"type":"Feature","id":"way/16612408/81","properties":{"highway":"tertiary","name":"Old Tai Tapu Road","surface":"paved","id":"way/16612408/81","weighting":10},"geometry":{"type":"LineString","coordinates":[[172.5565528,-43.657239],[172.5557167,-43.6575425]]}}
,
{"type":"Feature","id":"way/16612408/82","properties":{"highway":"tertiary","name":"Old Tai Tapu Road","surface":"paved","id":"way/16612408/82","weighting":10},"geometry":{"type":"LineString","coordinates":[[172.5557167,-43.6575425],[172.55499030000001,-43.6580745]]}}
,
{"type":"Feature","id":"way/16612408/83","properties":{"highway":"tertiary","name":"Old Tai Tapu Road","surface":"paved","id":"way/16612408/83","weighting":10},"geometry":{"type":"LineString","coordinates":[[172.55499030000001,-43.6580745],[172.5524065000001,-43.6600334]]}}
,
{"type":"Feature","id":"way/23133864/0","properties":{"highway":"tertiary","maxspeed":"50","name":"Stanmore Road","id":"way/23133864/0","weighting":10},"geometry":{"type":"LineString","coordinates":[[172.656359,-43.5176452],[172.6563649,-43.5182901]]}}
,
{"type":"Feature","id":"way/23133864/1","properties":{"highway":"tertiary","maxspeed":"50","name":"Stanmore Road","id":"way/23133864/1","weighting":10},"geometry":{"type":"LineString","coordinates":[[172.6563649,-43.5182901],[172.6563646,-43.5184027]]}}
,
{"type":"Feature","id":"way/23133864/2","properties":{"highway":"tertiary","maxspeed":"50","name":"Stanmore Road","id":"way/23133864/2","weighting":10},"geometry":{"type":"LineString","coordinates":[[172.6563646,-43.5184027],[172.656364,-43.5186531]]}}
,
{"type":"Feature","id":"way/23133864/3","properties":{"highway":"tertiary","maxspeed":"50","name":"Stanmore Road","id":"way/23133864/3","weighting":10},"geometry":{"type":"LineString","coordinates":[[172.656364,-43.5186531],[172.6563743,-43.5191804]]}}
,
{"type":"Feature","id":"way/23133864/6","properties":{"highway":"tertiary","maxspeed":"50","name":"Stanmore Road","id":"way/23133864/6","weighting":10},"geometry":{"type":"LineString","coordinates":[[172.65642280000006,-43.5209284],[172.65642010000005,-43.5212562]]}}
,
{"type":"Feature","id":"way/23133864/7","properties":{"highway":"tertiary","maxspeed":"50","name":"Stanmore Road","id":"way/23133864/7","weighting":10},"geometry":{"type":"LineString","coordinates":[[172.65642010000005,-43.5212562],[172.6564151,-43.521861799999996]]}}
,
{"type":"Feature","id":"way/23134270/0","properties":{"highway":"tertiary","name":"Cresswell Avenue","id":"way/23134270/0","weighting":10},"geometry":{"type":"LineString","coordinates":[[172.66986869999994,-43.5064197],[172.6698803,-43.506552700000015]]}}
,
{"type":"Feature","id":"way/23134270/1","properties":{"highway":"tertiary","name":"Cresswell Avenue","id":"way/23134270/1","weighting":10},"geometry":{"type":"LineString","coordinates":[[172.6698803,-43.506552700000015],[172.6698968,-43.5067431]]}}
,
{"type":"Feature","id":"way/23134282/1","properties":{"ccc":"cyclingroute","highway":"tertiary","name":"Gayhurst Road","id":"way/23134282/1","weighting":10},"geometry":{"type":"LineString","coordinates":[[172.67312479999995,-43.508176100000014],[172.6733308,-43.5090227]]}}
,
{"type":"Feature","id":"way/23134282/2","properties":{"ccc":"cyclingroute","highway":"tertiary","name":"Gayhurst Road","id":"way/23134282/2","weighting":10},"geometry":{"type":"LineString","coordinates":[[172.6733308,-43.5090227],[172.67357109999992,-43.50999380000001]]}}
,
{"type":"Feature","id":"way/23134282/3","properties":{"ccc":"cyclingroute","highway":"tertiary","name":"Gayhurst Road","id":"way/23134282/3","weighting":10},"geometry":{"type":"LineString","coordinates":[[172.67357109999992,-43.50999380000001],[172.67374279999996,-43.5107719]]}}
,
{"type":"Feature","id":"way/23134282/4","properties":{"ccc":"cyclingroute","highway":"tertiary","name":"Gayhurst Road","id":"way/23134282/4","weighting":10},"geometry":{"type":"LineString","coordinates":[[172.67374279999996,-43.5107719],[172.67388009999993,-43.5113072]]}}
,
{"type":"Feature","id":"way/23134282/5","properties":{"ccc":"cyclingroute","highway":"tertiary","name":"Gayhurst Road","id":"way/23134282/5","weighting":10},"geometry":{"type":"LineString","coordinates":[[172.67388009999993,-43.5113072],[172.67395729999996,-43.5126082]]}}
,
{"type":"Feature","id":"way/23134282/6","properties":{"ccc":"cyclingroute","highway":"tertiary","name":"Gayhurst Road","id":"way/23134282/6","weighting":10},"geometry":{"type":"LineString","coordinates":[[172.67395729999996,-43.5126082],[172.67399149999994,-43.51344]]}}
,
{"type":"Feature","id":"way/23134282/7","properties":{"ccc":"cyclingroute","highway":"tertiary","name":"Gayhurst Road","id":"way/23134282/7","weighting":10},"geometry":{"type":"LineString","coordinates":[[172.67399149999994,-43.51344],[172.6739989,-43.5135284]]}}
,
{"type":"Feature","id":"way/23134344/1","properties":{"highway":"tertiary","name":"McBratneys Road","id":"way/23134344/1","weighting":10},"geometry":{"type":"LineString","coordinates":[[172.6714425,-43.513946499999996],[172.67384529999995,-43.5136501]]}}
,
{"type":"Feature","id":"way/23134344/2","properties":{"highway":"tertiary","name":"McBratneys Road","id":"way/23134344/2","weighting":10},"geometry":{"type":"LineString","coordinates":[[172.67384529999995,-43.5136501],[172.67388069999993,-43.5136457]]}}
,
{"type":"Feature","id":"way/23134601/0","properties":{"ccc":"cyclingroute","highway":"tertiary","maxspeed":"50","name":"North Avon Road","id":"way/23134601/0","weighting":10},"geometry":{"type":"LineString","coordinates":[[172.659924,-43.517624999999995],[172.6586451,-43.517624999999995]]}}
,
{"type":"Feature","id":"way/23134601/1","properties":{"ccc":"cyclingroute","highway":"tertiary","maxspeed":"50","name":"North Avon Road","id":"way/23134601/1","weighting":10},"geometry":{"type":"LineString","coordinates":[[172.6586451,-43.517624999999995],[172.65742000000006,-43.5176392]]}}
,
{"type":"Feature","id":"way/23134601/2","properties":{"ccc":"cyclingroute","highway":"tertiary","maxspeed":"50","name":"North Avon Road","id":"way/23134601/2","weighting":10},"geometry":{"type":"LineString","coordinates":[[172.65742000000006,-43.5176392],[172.656359,-43.5176452]]}}
,
{"type":"Feature","id":"way/23134602/0","properties":{"highway":"tertiary","maxspeed":"50","name":"North Avon Road","id":"way/23134602/0","weighting":10},"geometry":{"type":"LineString","coordinates":[[172.66386359999993,-43.517587699999986],[172.66269630000005,-43.5176188]]}}
,
{"type":"Feature","id":"way/23134602/1","properties":{"highway":"tertiary","maxspeed":"50","name":"North Avon Road","id":"way/23134602/1","weighting":10},"geometry":{"type":"LineString","coordinates":[[172.66269630000005,-43.5176188],[172.6601778,-43.51762139999999]]}}
,
{"type":"Feature","id":"way/23134602/2","properties":{"highway":"tertiary","maxspeed":"50","name":"North Avon Road","id":"way/23134602/2","weighting":10},"geometry":{"type":"LineString","coordinates":[[172.6601778,-43.51762139999999],[172.659924,-43.517624999999995]]}}
,
{"type":"Feature","id":"way/23134679/4","properties":{"ccc":"cyclingpath","highway":"tertiary","maxspeed":"50","name":"Swanns Road","id":"way/23134679/4","weighting":10},"geometry":{"type":"LineString","coordinates":[[172.6595464,-43.522255600000015],[172.6598296,-43.522205800000016]]}}
,
{"type":"Feature","id":"way/23146943/0","properties":{"bridge":"yes","ccc":"cyclingroute","highway":"tertiary","name":"Gayhurst Road","id":"way/23146943/0","weighting":10},"geometry":{"type":"LineString","coordinates":[[172.6727312,-43.5213841],[172.6726875,-43.5217905]]}}
,
{"type":"Feature","id":"way/23146945/0","properties":{"ccc":"cyclingroute","highway":"tertiary","name":"Gloucester Street","id":"way/23146945/0","weighting":10},"geometry":{"type":"LineString","coordinates":[[172.6726875,-43.5217905],[172.67270469999994,-43.522997900000014]]}}
,
{"type":"Feature","id":"way/23146945/1","properties":{"ccc":"cyclingroute","highway":"tertiary","name":"Gloucester Street","id":"way/23146945/1","weighting":10},"geometry":{"type":"LineString","coordinates":[[172.67270469999994,-43.522997900000014],[172.67278319999994,-43.525201]]}}
,
{"type":"Feature","id":"way/23146953/0","properties":{"ccc":"cyclingroute","highway":"tertiary","name":"Retreat Road","id":"way/23146953/0","weighting":10},"geometry":{"type":"LineString","coordinates":[[172.67125469999993,-43.52175240000001],[172.67085989999998,-43.5216901]]}}
,
{"type":"Feature","id":"way/23146953/1","properties":{"ccc":"cyclingroute","highway":"tertiary","name":"Retreat Road","id":"way/23146953/1","weighting":10},"geometry":{"type":"LineString","coordinates":[[172.67085989999998,-43.5216901],[172.6704908,-43.5216839]]}}
,
{"type":"Feature","id":"way/23147593/0","properties":{"highway":"tertiary","name":"Estuary Road","id":"way/23147593/0","weighting":10},"geometry":{"type":"LineString","coordinates":[[172.73270399999998,-43.523277],[172.73353309999993,-43.525131400000014]]}}
,
{"type":"Feature","id":"way/23235819/0","properties":{"highway":"unclassified","name":"Settlers Crescent","id":"way/23235819/0","weighting":10},"geometry":{"type":"LineString","coordinates":[[172.70400519999993,-43.557774],[172.70368799999994,-43.5587741]]}}
,
{"type":"Feature","id":"way/23235819/1","properties":{"highway":"unclassified","name":"Settlers Crescent","id":"way/23235819/1","weighting":10},"geometry":{"type":"LineString","coordinates":[[172.70368799999994,-43.5587741],[172.70370149999994,-43.558855]]}}
,
{"type":"Feature","id":"way/23235819/2","properties":{"highway":"unclassified","name":"Settlers Crescent","id":"way/23235819/2","weighting":10},"geometry":{"type":"LineString","coordinates":[[172.70370149999994,-43.558855],[172.7037507999999,-43.558914]]}}
,
{"type":"Feature","id":"way/23235819/3","properties":{"highway":"unclassified","name":"Settlers Crescent","id":"way/23235819/3","weighting":10},"geometry":{"type":"LineString","coordinates":[[172.7037507999999,-43.558914],[172.70386049999993,-43.558961499999995]]}}
,
{"type":"Feature","id":"way/23235819/4","properties":{"highway":"unclassified","name":"Settlers Crescent","id":"way/23235819/4","weighting":10},"geometry":{"type":"LineString","coordinates":[[172.70386049999993,-43.558961499999995],[172.706497,-43.5594225]]}}
,
{"type":"Feature","id":"way/23235819/5","properties":{"highway":"unclassified","name":"Settlers Crescent","id":"way/23235819/5","weighting":10},"geometry":{"type":"LineString","coordinates":[[172.706497,-43.5594225],[172.70677669999998,-43.5593473]]}}
,
{"type":"Feature","id":"way/23235819/6","properties":{"highway":"unclassified","name":"Settlers Crescent","id":"way/23235819/6","weighting":10},"geometry":{"type":"LineString","coordinates":[[172.70677669999998,-43.5593473],[172.7069471,-43.5593015]]}}
,
{"type":"Feature","id":"way/23235819/7","properties":{"highway":"unclassified","name":"Settlers Crescent","id":"way/23235819/7","weighting":10},"geometry":{"type":"LineString","coordinates":[[172.7069471,-43.5593015],[172.70706969999998,-43.55924039999999]]}}
,
{"type":"Feature","id":"way/23235819/8","properties":{"highway":"unclassified","name":"Settlers Crescent","id":"way/23235819/8","weighting":10},"geometry":{"type":"LineString","coordinates":[[172.70706969999998,-43.55924039999999],[172.707109,-43.5591571]]}}
,
{"type":"Feature","id":"way/23235819/9","properties":{"highway":"unclassified","name":"Settlers Crescent","id":"way/23235819/9","weighting":10},"geometry":{"type":"LineString","coordinates":[[172.707109,-43.5591571],[172.70707159999998,-43.5590196]]}}
,
{"type":"Feature","id":"way/23235819/10","properties":{"highway":"unclassified","name":"Settlers Crescent","id":"way/23235819/10","weighting":10},"geometry":{"type":"LineString","coordinates":[[172.70707159999998,-43.5590196],[172.7070323,-43.5589579]]}}
,
{"type":"Feature","id":"way/23235819/11","properties":{"highway":"unclassified","name":"Settlers Crescent","id":"way/23235819/11","weighting":10},"geometry":{"type":"LineString","coordinates":[[172.7070323,-43.5589579],[172.7069433,-43.55881820000001]]}}
,
{"type":"Feature","id":"way/23235819/12","properties":{"highway":"unclassified","name":"Settlers Crescent","id":"way/23235819/12","weighting":10},"geometry":{"type":"LineString","coordinates":[[172.7069433,-43.55881820000001],[172.70666699999998,-43.55857270000001]]}}
,
{"type":"Feature","id":"way/23235819/13","properties":{"highway":"unclassified","name":"Settlers Crescent","id":"way/23235819/13","weighting":10},"geometry":{"type":"LineString","coordinates":[[172.70666699999998,-43.55857270000001],[172.70660389999998,-43.55847890000001]]}}
,
{"type":"Feature","id":"way/23235819/14","properties":{"highway":"unclassified","name":"Settlers Crescent","id":"way/23235819/14","weighting":10},"geometry":{"type":"LineString","coordinates":[[172.70660389999998,-43.55847890000001],[172.70659499999994,-43.5583848]]}}
,
{"type":"Feature","id":"way/23235819/15","properties":{"highway":"unclassified","name":"Settlers Crescent","id":"way/23235819/15","weighting":10},"geometry":{"type":"LineString","coordinates":[[172.70659499999994,-43.5583848],[172.70663059999998,-43.558247599999994]]}}
,
{"type":"Feature","id":"way/23295068/30","properties":{"ccc":"cyclingroute","fixme":"split","highway":"tertiary","maxspeed":"50","name":"Hackthorne Road","id":"way/23295068/30","weighting":10},"geometry":{"type":"LineString","coordinates":[[172.6272322,-43.5774232],[172.62780080000005,-43.57757090000001]]}}
,
{"type":"Feature","id":"way/23295068/31","properties":{"ccc":"cyclingroute","fixme":"split","highway":"tertiary","maxspeed":"50","name":"Hackthorne Road","id":"way/23295068/31","weighting":10},"geometry":{"type":"LineString","coordinates":[[172.62780080000005,-43.57757090000001],[172.6281337,-43.577651]]}}
,
{"type":"Feature","id":"way/23295068/32","properties":{"ccc":"cyclingroute","fixme":"split","highway":"tertiary","maxspeed":"50","name":"Hackthorne Road","id":"way/23295068/32","weighting":10},"geometry":{"type":"LineString","coordinates":[[172.6281337,-43.577651],[172.6282729,-43.577666099999995]]}}
,
{"type":"Feature","id":"way/23295068/33","properties":{"ccc":"cyclingroute","fixme":"split","highway":"tertiary","maxspeed":"50","name":"Hackthorne Road","id":"way/23295068/33","weighting":10},"geometry":{"type":"LineString","coordinates":[[172.6282729,-43.577666099999995],[172.62838850000006,-43.577651]]}}
,
{"type":"Feature","id":"way/23295068/34","properties":{"ccc":"cyclingroute","fixme":"split","highway":"tertiary","maxspeed":"50","name":"Hackthorne Road","id":"way/23295068/34","weighting":10},"geometry":{"type":"LineString","coordinates":[[172.62838850000006,-43.577651],[172.6287771,-43.5775573]]}}
,
{"type":"Feature","id":"way/23295068/35","properties":{"ccc":"cyclingroute","fixme":"split","highway":"tertiary","maxspeed":"50","name":"Hackthorne Road","id":"way/23295068/35","weighting":10},"geometry":{"type":"LineString","coordinates":[[172.6287771,-43.5775573],[172.62970259999994,-43.57731680000001]]}}
,
{"type":"Feature","id":"way/23295068/36","properties":{"ccc":"cyclingroute","fixme":"split","highway":"tertiary","maxspeed":"50","name":"Hackthorne Road","id":"way/23295068/36","weighting":10},"geometry":{"type":"LineString","coordinates":[[172.62970259999994,-43.57731680000001],[172.6298459,-43.57726139999999]]}}
,
{"type":"Feature","id":"way/23295068/37","properties":{"ccc":"cyclingroute","fixme":"split","highway":"tertiary","maxspeed":"50","name":"Hackthorne Road","id":"way/23295068/37","weighting":10},"geometry":{"type":"LineString","coordinates":[[172.6298459,-43.57726139999999],[172.6299001,-43.577240499999995]]}}
,
{"type":"Feature","id":"way/23295068/38","properties":{"ccc":"cyclingroute","fixme":"split","highway":"tertiary","maxspeed":"50","name":"Hackthorne Road","id":"way/23295068/38","weighting":10},"geometry":{"type":"LineString","coordinates":[[172.6299001,-43.577240499999995],[172.63002219999998,-43.5771971]]}}
,
{"type":"Feature","id":"way/23295068/39","properties":{"ccc":"cyclingroute","fixme":"split","highway":"tertiary","maxspeed":"50","name":"Hackthorne Road","id":"way/23295068/39","weighting":10},"geometry":{"type":"LineString","coordinates":[[172.63002219999998,-43.5771971],[172.63011640000005,-43.5771741]]}}
,
{"type":"Feature","id":"way/23295068/40","properties":{"ccc":"cyclingroute","fixme":"split","highway":"tertiary","maxspeed":"50","name":"Hackthorne Road","id":"way/23295068/40","weighting":10},"geometry":{"type":"LineString","coordinates":[[172.63011640000005,-43.5771741],[172.63020419999998,-43.5771692]]}}
,
{"type":"Feature","id":"way/23323158/0","properties":{"highway":"tertiary","name":"Port Hills Road","surface":"paved","id":"way/23323158/0","weighting":10},"geometry":{"type":"LineString","coordinates":[[172.6936295,-43.5712514],[172.6939668,-43.5714493]]}}
,
{"type":"Feature","id":"way/23323158/1","properties":{"highway":"tertiary","name":"Port Hills Road","surface":"paved","id":"way/23323158/1","weighting":10},"geometry":{"type":"LineString","coordinates":[[172.6939668,-43.5714493],[172.6942359,-43.571674599999994]]}}
,
{"type":"Feature","id":"way/23984742/0","properties":{"access":"no","disused":"yes","highway":"tertiary","name":"Sumner Road","note":"road closed due to earthquake damage and rockfall danger indefinitely until repaired and made safe","id":"way/23984742/0","weighting":10},"geometry":{"type":"LineString","coordinates":[[172.7487674,-43.5942594],[172.74886339999998,-43.59432490000001]]}}
,
{"type":"Feature","id":"way/23984742/1","properties":{"access":"no","disused":"yes","highway":"tertiary","name":"Sumner Road","note":"road closed due to earthquake damage and rockfall danger indefinitely until repaired and made safe","id":"way/23984742/1","weighting":10},"geometry":{"type":"LineString","coordinates":[[172.74886339999998,-43.59432490000001],[172.7489216,-43.5944044]]}}
,
{"type":"Feature","id":"way/23984742/2","properties":{"access":"no","disused":"yes","highway":"tertiary","name":"Sumner Road","note":"road closed due to earthquake damage and rockfall danger indefinitely until repaired and made safe","id":"way/23984742/2","weighting":10},"geometry":{"type":"LineString","coordinates":[[172.7489216,-43.5944044],[172.74895329999995,-43.5945462]]}}
,
{"type":"Feature","id":"way/23984742/3","properties":{"access":"no","disused":"yes","highway":"tertiary","name":"Sumner Road","note":"road closed due to earthquake damage and rockfall danger indefinitely until repaired and made safe","id":"way/23984742/3","weighting":10},"geometry":{"type":"LineString","coordinates":[[172.74895329999995,-43.5945462],[172.74888269999994,-43.5946726]]}}
,
{"type":"Feature","id":"way/23984742/4","properties":{"access":"no","disused":"yes","highway":"tertiary","name":"Sumner Road","note":"road closed due to earthquake damage and rockfall danger indefinitely until repaired and made safe","id":"way/23984742/4","weighting":10},"geometry":{"type":"LineString","coordinates":[[172.74888269999994,-43.5946726],[172.7486166,-43.5948684]]}}
,
{"type":"Feature","id":"way/23984742/5","properties":{"access":"no","disused":"yes","highway":"tertiary","name":"Sumner Road","note":"road closed due to earthquake damage and rockfall danger indefinitely until repaired and made safe","id":"way/23984742/5","weighting":10},"geometry":{"type":"LineString","coordinates":[[172.7486166,-43.5948684],[172.74836359999998,-43.595050000000015]]}}
,
{"type":"Feature","id":"way/23984742/6","properties":{"access":"no","disused":"yes","highway":"tertiary","name":"Sumner Road","note":"road closed due to earthquake damage and rockfall danger indefinitely until repaired and made safe","id":"way/23984742/6","weighting":10},"geometry":{"type":"LineString","coordinates":[[172.74836359999998,-43.595050000000015],[172.7482864,-43.59514950000001]]}}
,
{"type":"Feature","id":"way/23984742/7","properties":{"access":"no","disused":"yes","highway":"tertiary","name":"Sumner Road","note":"road closed due to earthquake damage and rockfall danger indefinitely until repaired and made safe","id":"way/23984742/7","weighting":10},"geometry":{"type":"LineString","coordinates":[[172.7482864,-43.59514950000001],[172.7481404,-43.59549130000001]]}}
,
{"type":"Feature","id":"way/23984742/8","properties":{"access":"no","disused":"yes","highway":"tertiary","name":"Sumner Road","note":"road closed due to earthquake damage and rockfall danger indefinitely until repaired and made safe","id":"way/23984742/8","weighting":10},"geometry":{"type":"LineString","coordinates":[[172.7481404,-43.59549130000001],[172.7480889,-43.59559080000002]]}}
,
{"type":"Feature","id":"way/23984742/9","properties":{"access":"no","disused":"yes","highway":"tertiary","name":"Sumner Road","note":"road closed due to earthquake damage and rockfall danger indefinitely until repaired and made safe","id":"way/23984742/9","weighting":10},"geometry":{"type":"LineString","coordinates":[[172.7480889,-43.59559080000002],[172.74800309999998,-43.59567780000001]]}}
,
{"type":"Feature","id":"way/23984742/10","properties":{"access":"no","disused":"yes","highway":"tertiary","name":"Sumner Road","note":"road closed due to earthquake damage and rockfall danger indefinitely until repaired and made safe","id":"way/23984742/10","weighting":10},"geometry":{"type":"LineString","coordinates":[[172.74800309999998,-43.59567780000001],[172.74776279999995,-43.59582080000001]]}}
,
{"type":"Feature","id":"way/23984742/11","properties":{"access":"no","disused":"yes","highway":"tertiary","name":"Sumner Road","note":"road closed due to earthquake damage and rockfall danger indefinitely until repaired and made safe","id":"way/23984742/11","weighting":10},"geometry":{"type":"LineString","coordinates":[[172.74776279999995,-43.59582080000001],[172.74765119999992,-43.59593890000003]]}}
,
{"type":"Feature","id":"way/23984742/12","properties":{"access":"no","disused":"yes","highway":"tertiary","name":"Sumner Road","note":"road closed due to earthquake damage and rockfall danger indefinitely until repaired and made safe","id":"way/23984742/12","weighting":10},"geometry":{"type":"LineString","coordinates":[[172.74765119999992,-43.59593890000003],[172.74757399999993,-43.596050800000015]]}}
,
{"type":"Feature","id":"way/23984742/13","properties":{"access":"no","disused":"yes","highway":"tertiary","name":"Sumner Road","note":"road closed due to earthquake damage and rockfall danger indefinitely until repaired and made safe","id":"way/23984742/13","weighting":10},"geometry":{"type":"LineString","coordinates":[[172.74757399999993,-43.596050800000015],[172.74751389999994,-43.59617510000002]]}}
,
{"type":"Feature","id":"way/23984742/14","properties":{"access":"no","disused":"yes","highway":"tertiary","name":"Sumner Road","note":"road closed due to earthquake damage and rockfall danger indefinitely until repaired and made safe","id":"way/23984742/14","weighting":10},"geometry":{"type":"LineString","coordinates":[[172.74751389999994,-43.59617510000002],[172.7474195,-43.59632430000001]]}}
,
{"type":"Feature","id":"way/23984742/15","properties":{"access":"no","disused":"yes","highway":"tertiary","name":"Sumner Road","note":"road closed due to earthquake damage and rockfall danger indefinitely until repaired and made safe","id":"way/23984742/15","weighting":10},"geometry":{"type":"LineString","coordinates":[[172.7474195,-43.59632430000001],[172.74729069999998,-43.5964735]]}}
,
{"type":"Feature","id":"way/23984742/16","properties":{"access":"no","disused":"yes","highway":"tertiary","name":"Sumner Road","note":"road closed due to earthquake damage and rockfall danger indefinitely until repaired and made safe","id":"way/23984742/16","weighting":10},"geometry":{"type":"LineString","coordinates":[[172.74729069999998,-43.5964735],[172.74703319999998,-43.5966973]]}}
,
{"type":"Feature","id":"way/23984742/17","properties":{"access":"no","disused":"yes","highway":"tertiary","name":"Sumner Road","note":"road closed due to earthquake damage and rockfall danger indefinitely until repaired and made safe","id":"way/23984742/17","weighting":10},"geometry":{"type":"LineString","coordinates":[[172.74703319999998,-43.5966973],[172.74687009999994,-43.59690240000001]]}}
,
{"type":"Feature","id":"way/23984742/18","properties":{"access":"no","disused":"yes","highway":"tertiary","name":"Sumner Road","note":"road closed due to earthquake damage and rockfall danger indefinitely until repaired and made safe","id":"way/23984742/18","weighting":10},"geometry":{"type":"LineString","coordinates":[[172.74687009999994,-43.59690240000001],[172.74680149999998,-43.5970205]]}}
,
{"type":"Feature","id":"way/23984742/19","properties":{"access":"no","disused":"yes","highway":"tertiary","name":"Sumner Road","note":"road closed due to earthquake damage and rockfall danger indefinitely until repaired and made safe","id":"way/23984742/19","weighting":10},"geometry":{"type":"LineString","coordinates":[[172.74680149999998,-43.5970205],[172.7467788,-43.597138000000015]]}}
,
{"type":"Feature","id":"way/23984742/20","properties":{"access":"no","disused":"yes","highway":"tertiary","name":"Sumner Road","note":"road closed due to earthquake damage and rockfall danger indefinitely until repaired and made safe","id":"way/23984742/20","weighting":10},"geometry":{"type":"LineString","coordinates":[[172.7467788,-43.597138000000015],[172.746647,-43.5972194]]}}
,
{"type":"Feature","id":"way/23984742/21","properties":{"access":"no","disused":"yes","highway":"tertiary","name":"Sumner Road","note":"road closed due to earthquake damage and rockfall danger indefinitely until repaired and made safe","id":"way/23984742/21","weighting":10},"geometry":{"type":"LineString","coordinates":[[172.746647,-43.5972194],[172.74641519999994,-43.59743070000001]]}}
,
{"type":"Feature","id":"way/23984742/22","properties":{"access":"no","disused":"yes","highway":"tertiary","name":"Sumner Road","note":"road closed due to earthquake damage and rockfall danger indefinitely until repaired and made safe","id":"way/23984742/22","weighting":10},"geometry":{"type":"LineString","coordinates":[[172.74641519999994,-43.59743070000001],[172.74596029999995,-43.5978907]]}}
,
{"type":"Feature","id":"way/23984742/23","properties":{"access":"no","disused":"yes","highway":"tertiary","name":"Sumner Road","note":"road closed due to earthquake damage and rockfall danger indefinitely until repaired and made safe","id":"way/23984742/23","weighting":10},"geometry":{"type":"LineString","coordinates":[[172.74596029999995,-43.5978907],[172.74561699999998,-43.59821390000002]]}}
,
{"type":"Feature","id":"way/23984742/24","properties":{"access":"no","disused":"yes","highway":"tertiary","name":"Sumner Road","note":"road closed due to earthquake damage and rockfall danger indefinitely until repaired and made safe","id":"way/23984742/24","weighting":10},"geometry":{"type":"LineString","coordinates":[[172.74561699999998,-43.59821390000002],[172.74497639999998,-43.598698200000015]]}}
,
{"type":"Feature","id":"way/23984742/25","properties":{"access":"no","disused":"yes","highway":"tertiary","name":"Sumner Road","note":"road closed due to earthquake damage and rockfall danger indefinitely until repaired and made safe","id":"way/23984742/25","weighting":10},"geometry":{"type":"LineString","coordinates":[[172.74497639999998,-43.598698200000015],[172.74460419999988,-43.5989847]]}}
,
{"type":"Feature","id":"way/23984742/26","properties":{"access":"no","disused":"yes","highway":"tertiary","name":"Sumner Road","note":"road closed due to earthquake damage and rockfall danger indefinitely until repaired and made safe","id":"way/23984742/26","weighting":10},"geometry":{"type":"LineString","coordinates":[[172.74460419999988,-43.5989847],[172.7443381,-43.599202200000015]]}}
,
{"type":"Feature","id":"way/23984742/27","properties":{"access":"no","disused":"yes","highway":"tertiary","name":"Sumner Road","note":"road closed due to earthquake damage and rockfall danger indefinitely until repaired and made safe","id":"way/23984742/27","weighting":10},"geometry":{"type":"LineString","coordinates":[[172.7443381,-43.599202200000015],[172.74418359999993,-43.59930170000001]]}}
,
{"type":"Feature","id":"way/23984742/28","properties":{"access":"no","disused":"yes","highway":"tertiary","name":"Sumner Road","note":"road closed due to earthquake damage and rockfall danger indefinitely until repaired and made safe","id":"way/23984742/28","weighting":10},"geometry":{"type":"LineString","coordinates":[[172.74418359999993,-43.59930170000001],[172.7437373,-43.5994882]]}}
,
{"type":"Feature","id":"way/23984742/29","properties":{"access":"no","disused":"yes","highway":"tertiary","name":"Sumner Road","note":"road closed due to earthquake damage and rockfall danger indefinitely until repaired and made safe","id":"way/23984742/29","weighting":10},"geometry":{"type":"LineString","coordinates":[[172.7437373,-43.5994882],[172.74350559999988,-43.599593800000015]]}}
,
{"type":"Feature","id":"way/23984742/30","properties":{"access":"no","disused":"yes","highway":"tertiary","name":"Sumner Road","note":"road closed due to earthquake damage and rockfall danger indefinitely until repaired and made safe","id":"way/23984742/30","weighting":10},"geometry":{"type":"LineString","coordinates":[[172.74350559999988,-43.599593800000015],[172.74334249999998,-43.59971190000002]]}}
,
{"type":"Feature","id":"way/23984742/31","properties":{"access":"no","disused":"yes","highway":"tertiary","name":"Sumner Road","note":"road closed due to earthquake damage and rockfall danger indefinitely until repaired and made safe","id":"way/23984742/31","weighting":10},"geometry":{"type":"LineString","coordinates":[[172.74334249999998,-43.59971190000002],[172.74320519999992,-43.5998611]]}}
,
{"type":"Feature","id":"way/23984742/32","properties":{"access":"no","disused":"yes","highway":"tertiary","name":"Sumner Road","note":"road closed due to earthquake damage and rockfall danger indefinitely until repaired and made safe","id":"way/23984742/32","weighting":10},"geometry":{"type":"LineString","coordinates":[[172.74320519999992,-43.5998611],[172.7430163,-43.6000413]]}}
,
{"type":"Feature","id":"way/23984742/33","properties":{"access":"no","disused":"yes","highway":"tertiary","name":"Sumner Road","note":"road closed due to earthquake damage and rockfall danger indefinitely until repaired and made safe","id":"way/23984742/33","weighting":10},"geometry":{"type":"LineString","coordinates":[[172.7430163,-43.6000413],[172.74278459999994,-43.600171900000014]]}}
,
{"type":"Feature","id":"way/23984742/34","properties":{"access":"no","disused":"yes","highway":"tertiary","name":"Sumner Road","note":"road closed due to earthquake damage and rockfall danger indefinitely until repaired and made safe","id":"way/23984742/34","weighting":10},"geometry":{"type":"LineString","coordinates":[[172.74278459999994,-43.600171900000014],[172.74260439999998,-43.6002465]]}}
,
{"type":"Feature","id":"way/23984742/35","properties":{"access":"no","disused":"yes","highway":"tertiary","name":"Sumner Road","note":"road closed due to earthquake damage and rockfall danger indefinitely until repaired and made safe","id":"way/23984742/35","weighting":10},"geometry":{"type":"LineString","coordinates":[[172.74260439999998,-43.6002465],[172.7424155,-43.60030240000001]]}}
,
{"type":"Feature","id":"way/23984742/36","properties":{"access":"no","disused":"yes","highway":"tertiary","name":"Sumner Road","note":"road closed due to earthquake damage and rockfall danger indefinitely until repaired and made safe","id":"way/23984742/36","weighting":10},"geometry":{"type":"LineString","coordinates":[[172.7424155,-43.60030240000001],[172.7421065,-43.60033970000001]]}}
,
{"type":"Feature","id":"way/23984742/37","properties":{"access":"no","disused":"yes","highway":"tertiary","name":"Sumner Road","note":"road closed due to earthquake damage and rockfall danger indefinitely until repaired and made safe","id":"way/23984742/37","weighting":10},"geometry":{"type":"LineString","coordinates":[[172.7421065,-43.60033970000001],[172.74178349999994,-43.60041370000001]]}}
,
{"type":"Feature","id":"way/23984742/38","properties":{"access":"no","disused":"yes","highway":"tertiary","name":"Sumner Road","note":"road closed due to earthquake damage and rockfall danger indefinitely until repaired and made safe","id":"way/23984742/38","weighting":10},"geometry":{"type":"LineString","coordinates":[[172.74178349999994,-43.60041370000001],[172.74150319999993,-43.6005278]]}}
,
{"type":"Feature","id":"way/23984742/39","properties":{"access":"no","disused":"yes","highway":"tertiary","name":"Sumner Road","note":"road closed due to earthquake damage and rockfall danger indefinitely until repaired and made safe","id":"way/23984742/39","weighting":10},"geometry":{"type":"LineString","coordinates":[[172.74150319999993,-43.6005278],[172.74135119999994,-43.600607]]}}
,
{"type":"Feature","id":"way/23984742/40","properties":{"access":"no","disused":"yes","highway":"tertiary","name":"Sumner Road","note":"road closed due to earthquake damage and rockfall danger indefinitely until repaired and made safe","id":"way/23984742/40","weighting":10},"geometry":{"type":"LineString","coordinates":[[172.74135119999994,-43.600607],[172.74107659999999,-43.60072510000001]]}}
,
{"type":"Feature","id":"way/23984742/41","properties":{"access":"no","disused":"yes","highway":"tertiary","name":"Sumner Road","note":"road closed due to earthquake damage and rockfall danger indefinitely until repaired and made safe","id":"way/23984742/41","weighting":10},"geometry":{"type":"LineString","coordinates":[[172.74107659999999,-43.60072510000001],[172.74077619999994,-43.60081210000001]]}}
,
{"type":"Feature","id":"way/23984742/42","properties":{"access":"no","disused":"yes","highway":"tertiary","name":"Sumner Road","note":"road closed due to earthquake damage and rockfall danger indefinitely until repaired and made safe","id":"way/23984742/42","weighting":10},"geometry":{"type":"LineString","coordinates":[[172.74077619999994,-43.60081210000001],[172.74059589999993,-43.6008991]]}}
,
{"type":"Feature","id":"way/23984742/43","properties":{"access":"no","disused":"yes","highway":"tertiary","name":"Sumner Road","note":"road closed due to earthquake damage and rockfall danger indefinitely until repaired and made safe","id":"way/23984742/43","weighting":10},"geometry":{"type":"LineString","coordinates":[[172.74059589999993,-43.6008991],[172.7404414,-43.6010234]]}}
,
{"type":"Feature","id":"way/23984742/44","properties":{"access":"no","disused":"yes","highway":"tertiary","name":"Sumner Road","note":"road closed due to earthquake damage and rockfall danger indefinitely until repaired and made safe","id":"way/23984742/44","weighting":10},"geometry":{"type":"LineString","coordinates":[[172.7404414,-43.6010234],[172.74008089999998,-43.6013217]]}}
,
{"type":"Feature","id":"way/23984742/45","properties":{"access":"no","disused":"yes","highway":"tertiary","name":"Sumner Road","note":"road closed due to earthquake damage and rockfall danger indefinitely until repaired and made safe","id":"way/23984742/45","weighting":10},"geometry":{"type":"LineString","coordinates":[[172.74008089999998,-43.6013217],[172.73989099999994,-43.6014224]]}}
,
{"type":"Feature","id":"way/23984742/46","properties":{"access":"no","disused":"yes","highway":"tertiary","name":"Sumner Road","note":"road closed due to earthquake damage and rockfall danger indefinitely until repaired and made safe","id":"way/23984742/46","weighting":10},"geometry":{"type":"LineString","coordinates":[[172.73989099999994,-43.6014224],[172.7396517999999,-43.6015144]]}}
,
{"type":"Feature","id":"way/23984742/47","properties":{"access":"no","disused":"yes","highway":"tertiary","name":"Sumner Road","note":"road closed due to earthquake damage and rockfall danger indefinitely until repaired and made safe","id":"way/23984742/47","weighting":10},"geometry":{"type":"LineString","coordinates":[[172.7396517999999,-43.6015144],[172.7394461,-43.6015345]]}}
,
{"type":"Feature","id":"way/23984742/48","properties":{"access":"no","disused":"yes","highway":"tertiary","name":"Sumner Road","note":"road closed due to earthquake damage and rockfall danger indefinitely until repaired and made safe","id":"way/23984742/48","weighting":10},"geometry":{"type":"LineString","coordinates":[[172.7394461,-43.6015345],[172.7391883,-43.6015144]]}}
,
{"type":"Feature","id":"way/23984742/49","properties":{"access":"no","disused":"yes","highway":"tertiary","name":"Sumner Road","note":"road closed due to earthquake damage and rockfall danger indefinitely until repaired and made safe","id":"way/23984742/49","weighting":10},"geometry":{"type":"LineString","coordinates":[[172.7391883,-43.6015144],[172.73894690000006,-43.6014481]]}}
,
{"type":"Feature","id":"way/23984742/50","properties":{"access":"no","disused":"yes","highway":"tertiary","name":"Sumner Road","note":"road closed due to earthquake damage and rockfall danger indefinitely until repaired and made safe","id":"way/23984742/50","weighting":10},"geometry":{"type":"LineString","coordinates":[[172.73894690000006,-43.6014481],[172.73866469999993,-43.6013466]]}}
,
{"type":"Feature","id":"way/23984742/51","properties":{"access":"no","disused":"yes","highway":"tertiary","name":"Sumner Road","note":"road closed due to earthquake damage and rockfall danger indefinitely until repaired and made safe","id":"way/23984742/51","weighting":10},"geometry":{"type":"LineString","coordinates":[[172.73866469999993,-43.6013466],[172.7384587,-43.60130930000001]]}}
,
{"type":"Feature","id":"way/23984742/52","properties":{"access":"no","disused":"yes","highway":"tertiary","name":"Sumner Road","note":"road closed due to earthquake damage and rockfall danger indefinitely until repaired and made safe","id":"way/23984742/52","weighting":10},"geometry":{"type":"LineString","coordinates":[[172.7384587,-43.60130930000001],[172.73822700000005,-43.6012907]]}}
,
{"type":"Feature","id":"way/23984742/53","properties":{"access":"no","disused":"yes","highway":"tertiary","name":"Sumner Road","note":"road closed due to earthquake damage and rockfall danger indefinitely until repaired and made safe","id":"way/23984742/53","weighting":10},"geometry":{"type":"LineString","coordinates":[[172.73822700000005,-43.6012907],[172.7380725,-43.6012658]]}}
,
{"type":"Feature","id":"way/23984742/54","properties":{"access":"no","disused":"yes","highway":"tertiary","name":"Sumner Road","note":"road closed due to earthquake damage and rockfall danger indefinitely until repaired and made safe","id":"way/23984742/54","weighting":10},"geometry":{"type":"LineString","coordinates":[[172.7380725,-43.6012658],[172.7379008,-43.6011974]]}}
,
{"type":"Feature","id":"way/23984742/55","properties":{"access":"no","disused":"yes","highway":"tertiary","name":"Sumner Road","note":"road closed due to earthquake damage and rockfall danger indefinitely until repaired and made safe","id":"way/23984742/55","weighting":10},"geometry":{"type":"LineString","coordinates":[[172.7379008,-43.6011974],[172.73775489999994,-43.6010856]]}}
,
{"type":"Feature","id":"way/23984742/56","properties":{"access":"no","disused":"yes","highway":"tertiary","name":"Sumner Road","note":"road closed due to earthquake damage and rockfall danger indefinitely until repaired and made safe","id":"way/23984742/56","weighting":10},"geometry":{"type":"LineString","coordinates":[[172.73775489999994,-43.6010856],[172.73748880000005,-43.60080590000001]]}}
,
{"type":"Feature","id":"way/23984742/57","properties":{"access":"no","disused":"yes","highway":"tertiary","name":"Sumner Road","note":"road closed due to earthquake damage and rockfall danger indefinitely until repaired and made safe","id":"way/23984742/57","weighting":10},"geometry":{"type":"LineString","coordinates":[[172.73748880000005,-43.60080590000001],[172.7373859,-43.60072510000001]]}}
,
{"type":"Feature","id":"way/23984742/58","properties":{"access":"no","disused":"yes","highway":"tertiary","name":"Sumner Road","note":"road closed due to earthquake damage and rockfall danger indefinitely until repaired and made safe","id":"way/23984742/58","weighting":10},"geometry":{"type":"LineString","coordinates":[[172.7373859,-43.60072510000001],[172.73723990000005,-43.6006505]]}}
,
{"type":"Feature","id":"way/23984742/59","properties":{"access":"no","disused":"yes","highway":"tertiary","name":"Sumner Road","note":"road closed due to earthquake damage and rockfall danger indefinitely until repaired and made safe","id":"way/23984742/59","weighting":10},"geometry":{"type":"LineString","coordinates":[[172.73723990000005,-43.6006505],[172.73708539999998,-43.60061320000001]]}}
,
{"type":"Feature","id":"way/23984742/60","properties":{"access":"no","disused":"yes","highway":"tertiary","name":"Sumner Road","note":"road closed due to earthquake damage and rockfall danger indefinitely until repaired and made safe","id":"way/23984742/60","weighting":10},"geometry":{"type":"LineString","coordinates":[[172.73708539999998,-43.60061320000001],[172.7369395,-43.6005945]]}}
,
{"type":"Feature","id":"way/23984742/61","properties":{"access":"no","disused":"yes","highway":"tertiary","name":"Sumner Road","note":"road closed due to earthquake damage and rockfall danger indefinitely until repaired and made safe","id":"way/23984742/61","weighting":10},"geometry":{"type":"LineString","coordinates":[[172.7369395,-43.6005945],[172.7367765,-43.60058830000001]]}}
,
{"type":"Feature","id":"way/23984742/62","properties":{"access":"no","disused":"yes","highway":"tertiary","name":"Sumner Road","note":"road closed due to earthquake damage and rockfall danger indefinitely until repaired and made safe","id":"way/23984742/62","weighting":10},"geometry":{"type":"LineString","coordinates":[[172.7367765,-43.60058830000001],[172.73638469999995,-43.6006499]]}}
,
{"type":"Feature","id":"way/23984742/63","properties":{"access":"no","disused":"yes","highway":"tertiary","name":"Sumner Road","note":"road closed due to earthquake damage and rockfall danger indefinitely until repaired and made safe","id":"way/23984742/63","weighting":10},"geometry":{"type":"LineString","coordinates":[[172.73638469999995,-43.6006499],[172.7362353,-43.6006439]]}}
,
{"type":"Feature","id":"way/23984742/64","properties":{"access":"no","disused":"yes","highway":"tertiary","name":"Sumner Road","note":"road closed due to earthquake damage and rockfall danger indefinitely until repaired and made safe","id":"way/23984742/64","weighting":10},"geometry":{"type":"LineString","coordinates":[[172.7362353,-43.6006439],[172.73608119999994,-43.6006007]]}}
,
{"type":"Feature","id":"way/23984742/65","properties":{"access":"no","disused":"yes","highway":"tertiary","name":"Sumner Road","note":"road closed due to earthquake damage and rockfall danger indefinitely until repaired and made safe","id":"way/23984742/65","weighting":10},"geometry":{"type":"LineString","coordinates":[[172.73608119999994,-43.6006007],[172.7358323,-43.600513700000015]]}}
,
{"type":"Feature","id":"way/23984742/66","properties":{"access":"no","disused":"yes","highway":"tertiary","name":"Sumner Road","note":"road closed due to earthquake damage and rockfall danger indefinitely until repaired and made safe","id":"way/23984742/66","weighting":10},"geometry":{"type":"LineString","coordinates":[[172.7358323,-43.600513700000015],[172.73578009999994,-43.600508800000014]]}}
,
{"type":"Feature","id":"way/23984742/67","properties":{"access":"no","disused":"yes","highway":"tertiary","name":"Sumner Road","note":"road closed due to earthquake damage and rockfall danger indefinitely until repaired and made safe","id":"way/23984742/67","weighting":10},"geometry":{"type":"LineString","coordinates":[[172.73578009999994,-43.600508800000014],[172.7357295,-43.600505100000014]]}}
,
{"type":"Feature","id":"way/23984742/68","properties":{"access":"no","disused":"yes","highway":"tertiary","name":"Sumner Road","note":"road closed due to earthquake damage and rockfall danger indefinitely until repaired and made safe","id":"way/23984742/68","weighting":10},"geometry":{"type":"LineString","coordinates":[[172.7357295,-43.600505100000014],[172.7356443,-43.60050200000001]]}}
,
{"type":"Feature","id":"way/23984742/69","properties":{"access":"no","disused":"yes","highway":"tertiary","name":"Sumner Road","note":"road closed due to earthquake damage and rockfall danger indefinitely until repaired and made safe","id":"way/23984742/69","weighting":10},"geometry":{"type":"LineString","coordinates":[[172.7356443,-43.60050200000001],[172.73556889999998,-43.600505100000014]]}}
,
{"type":"Feature","id":"way/23984742/70","properties":{"access":"no","disused":"yes","highway":"tertiary","name":"Sumner Road","note":"road closed due to earthquake damage and rockfall danger indefinitely until repaired and made safe","id":"way/23984742/70","weighting":10},"geometry":{"type":"LineString","coordinates":[[172.73556889999998,-43.600505100000014],[172.735489,-43.600519900000016]]}}
,
{"type":"Feature","id":"way/23984742/71","properties":{"access":"no","disused":"yes","highway":"tertiary","name":"Sumner Road","note":"road closed due to earthquake damage and rockfall danger indefinitely until repaired and made safe","id":"way/23984742/71","weighting":10},"geometry":{"type":"LineString","coordinates":[[172.735489,-43.600519900000016],[172.735414,-43.6005444]]}}
,
{"type":"Feature","id":"way/23984742/72","properties":{"access":"no","disused":"yes","highway":"tertiary","name":"Sumner Road","note":"road closed due to earthquake damage and rockfall danger indefinitely until repaired and made safe","id":"way/23984742/72","weighting":10},"geometry":{"type":"LineString","coordinates":[[172.735414,-43.6005444],[172.7353466,-43.6005802]]}}
,
{"type":"Feature","id":"way/23984742/73","properties":{"access":"no","disused":"yes","highway":"tertiary","name":"Sumner Road","note":"road closed due to earthquake damage and rockfall danger indefinitely until repaired and made safe","id":"way/23984742/73","weighting":10},"geometry":{"type":"LineString","coordinates":[[172.7353466,-43.6005802],[172.7351972,-43.600681499999986]]}}
,
{"type":"Feature","id":"way/23984742/74","properties":{"access":"no","disused":"yes","highway":"tertiary","name":"Sumner Road","note":"road closed due to earthquake damage and rockfall danger indefinitely until repaired and made safe","id":"way/23984742/74","weighting":10},"geometry":{"type":"LineString","coordinates":[[172.7351972,-43.600681499999986],[172.73503409999998,-43.600824499999995]]}}
,
{"type":"Feature","id":"way/23984742/75","properties":{"access":"no","disused":"yes","highway":"tertiary","name":"Sumner Road","note":"road closed due to earthquake damage and rockfall danger indefinitely until repaired and made safe","id":"way/23984742/75","weighting":10},"geometry":{"type":"LineString","coordinates":[[172.73503409999998,-43.600824499999995],[172.7347079,-43.601185]]}}
,
{"type":"Feature","id":"way/23984742/76","properties":{"access":"no","disused":"yes","highway":"tertiary","name":"Sumner Road","note":"road closed due to earthquake damage and rockfall danger indefinitely until repaired and made safe","id":"way/23984742/76","weighting":10},"geometry":{"type":"LineString","coordinates":[[172.7347079,-43.601185],[172.73442469999998,-43.6015206]]}}
,
{"type":"Feature","id":"way/23984742/77","properties":{"access":"no","disused":"yes","highway":"tertiary","name":"Sumner Road","note":"road closed due to earthquake damage and rockfall danger indefinitely until repaired and made safe","id":"way/23984742/77","weighting":10},"geometry":{"type":"LineString","coordinates":[[172.73442469999998,-43.6015206],[172.7340385,-43.6020862]]}}
,
{"type":"Feature","id":"way/23984742/78","properties":{"access":"no","disused":"yes","highway":"tertiary","name":"Sumner Road","note":"road closed due to earthquake damage and rockfall danger indefinitely until repaired and made safe","id":"way/23984742/78","weighting":10},"geometry":{"type":"LineString","coordinates":[[172.7340385,-43.6020862],[172.73387539999993,-43.60237840000001]]}}
,
{"type":"Feature","id":"way/23984742/79","properties":{"access":"no","disused":"yes","highway":"tertiary","name":"Sumner Road","note":"road closed due to earthquake damage and rockfall danger indefinitely until repaired and made safe","id":"way/23984742/79","weighting":10},"geometry":{"type":"LineString","coordinates":[[172.73387539999993,-43.60237840000001],[172.73368659999994,-43.60279480000001]]}}
,
{"type":"Feature","id":"way/23984742/80","properties":{"access":"no","disused":"yes","highway":"tertiary","name":"Sumner Road","note":"road closed due to earthquake damage and rockfall danger indefinitely until repaired and made safe","id":"way/23984742/80","weighting":10},"geometry":{"type":"LineString","coordinates":[[172.73368659999994,-43.60279480000001],[172.73353209999993,-43.6030869]]}}
,
{"type":"Feature","id":"way/23984742/81","properties":{"access":"no","disused":"yes","highway":"tertiary","name":"Sumner Road","note":"road closed due to earthquake damage and rockfall danger indefinitely until repaired and made safe","id":"way/23984742/81","weighting":10},"geometry":{"type":"LineString","coordinates":[[172.73353209999993,-43.6030869],[172.7332683,-43.60355280000002]]}}
,
{"type":"Feature","id":"way/23984742/82","properties":{"access":"no","disused":"yes","highway":"tertiary","name":"Sumner Road","note":"road closed due to earthquake damage and rockfall danger indefinitely until repaired and made safe","id":"way/23984742/82","weighting":10},"geometry":{"type":"LineString","coordinates":[[172.7332683,-43.60355280000002],[172.7324902,-43.604647199999995]]}}
,
{"type":"Feature","id":"way/23984742/83","properties":{"access":"no","disused":"yes","highway":"tertiary","name":"Sumner Road","note":"road closed due to earthquake damage and rockfall danger indefinitely until repaired and made safe","id":"way/23984742/83","weighting":10},"geometry":{"type":"LineString","coordinates":[[172.7324902,-43.604647199999995],[172.73234430000005,-43.6048088]]}}
,
{"type":"Feature","id":"way/23984742/84","properties":{"access":"no","disused":"yes","highway":"tertiary","name":"Sumner Road","note":"road closed due to earthquake damage and rockfall danger indefinitely until repaired and made safe","id":"way/23984742/84","weighting":10},"geometry":{"type":"LineString","coordinates":[[172.73234430000005,-43.6048088],[172.7320217,-43.605053800000015]]}}
,
{"type":"Feature","id":"way/23984742/85","properties":{"access":"no","disused":"yes","highway":"tertiary","name":"Sumner Road","note":"road closed due to earthquake damage and rockfall danger indefinitely until repaired and made safe","id":"way/23984742/85","weighting":10},"geometry":{"type":"LineString","coordinates":[[172.7320217,-43.605053800000015],[172.7319679,-43.60512030000002]]}}
,
{"type":"Feature","id":"way/23984742/86","properties":{"access":"no","disused":"yes","highway":"tertiary","name":"Sumner Road","note":"road closed due to earthquake damage and rockfall danger indefinitely until repaired and made safe","id":"way/23984742/86","weighting":10},"geometry":{"type":"LineString","coordinates":[[172.7319679,-43.60512030000002],[172.7319409,-43.60519410000001]]}}
,
{"type":"Feature","id":"way/23984742/87","properties":{"access":"no","disused":"yes","highway":"tertiary","name":"Sumner Road","note":"road closed due to earthquake damage and rockfall danger indefinitely until repaired and made safe","id":"way/23984742/87","weighting":10},"geometry":{"type":"LineString","coordinates":[[172.7319409,-43.60519410000001],[172.7319239,-43.60541480000001]]}}
,
{"type":"Feature","id":"way/23984742/88","properties":{"access":"no","disused":"yes","highway":"tertiary","name":"Sumner Road","note":"road closed due to earthquake damage and rockfall danger indefinitely until repaired and made safe","id":"way/23984742/88","weighting":10},"geometry":{"type":"LineString","coordinates":[[172.7319239,-43.60541480000001],[172.73191319999998,-43.60558810000001]]}}
,
{"type":"Feature","id":"way/23984742/89","properties":{"access":"no","disused":"yes","highway":"tertiary","name":"Sumner Road","note":"road closed due to earthquake damage and rockfall danger indefinitely until repaired and made safe","id":"way/23984742/89","weighting":10},"geometry":{"type":"LineString","coordinates":[[172.73191319999998,-43.60558810000001],[172.7318838,-43.6056698]]}}
,
{"type":"Feature","id":"way/23984742/90","properties":{"access":"no","disused":"yes","highway":"tertiary","name":"Sumner Road","note":"road closed due to earthquake damage and rockfall danger indefinitely until repaired and made safe","id":"way/23984742/90","weighting":10},"geometry":{"type":"LineString","coordinates":[[172.7318838,-43.6056698],[172.73184469999998,-43.6057575]]}}
,
{"type":"Feature","id":"way/23984742/91","properties":{"access":"no","disused":"yes","highway":"tertiary","name":"Sumner Road","note":"road closed due to earthquake damage and rockfall danger indefinitely until repaired and made safe","id":"way/23984742/91","weighting":10},"geometry":{"type":"LineString","coordinates":[[172.73184469999998,-43.6057575],[172.73156999999998,-43.6060496]]}}
,
{"type":"Feature","id":"way/23984742/92","properties":{"access":"no","disused":"yes","highway":"tertiary","name":"Sumner Road","note":"road closed due to earthquake damage and rockfall danger indefinitely until repaired and made safe","id":"way/23984742/92","weighting":10},"geometry":{"type":"LineString","coordinates":[[172.73156999999998,-43.6060496],[172.7314671,-43.60619250000001]]}}
,
{"type":"Feature","id":"way/23984742/93","properties":{"access":"no","disused":"yes","highway":"tertiary","name":"Sumner Road","note":"road closed due to earthquake damage and rockfall danger indefinitely until repaired and made safe","id":"way/23984742/93","weighting":10},"geometry":{"type":"LineString","coordinates":[[172.7314671,-43.60619250000001],[172.731304,-43.606316800000016]]}}
,
{"type":"Feature","id":"way/23984742/94","properties":{"access":"no","disused":"yes","highway":"tertiary","name":"Sumner Road","note":"road closed due to earthquake damage and rockfall danger indefinitely until repaired and made safe","id":"way/23984742/94","weighting":10},"geometry":{"type":"LineString","coordinates":[[172.731304,-43.606316800000016],[172.7309829,-43.6063747]]}}
,
{"type":"Feature","id":"way/23984742/95","properties":{"access":"no","disused":"yes","highway":"tertiary","name":"Sumner Road","note":"road closed due to earthquake damage and rockfall danger indefinitely until repaired and made safe","id":"way/23984742/95","weighting":10},"geometry":{"type":"LineString","coordinates":[[172.7309829,-43.6063747],[172.73073399999998,-43.606362300000015]]}}
,
{"type":"Feature","id":"way/23984742/96","properties":{"access":"no","disused":"yes","highway":"tertiary","name":"Sumner Road","note":"road closed due to earthquake damage and rockfall danger indefinitely until repaired and made safe","id":"way/23984742/96","weighting":10},"geometry":{"type":"LineString","coordinates":[[172.73073399999998,-43.606362300000015],[172.7304679,-43.60638090000001]]}}
,
{"type":"Feature","id":"way/23984742/97","properties":{"access":"no","disused":"yes","highway":"tertiary","name":"Sumner Road","note":"road closed due to earthquake damage and rockfall danger indefinitely until repaired and made safe","id":"way/23984742/97","weighting":10},"geometry":{"type":"LineString","coordinates":[[172.7304679,-43.60638090000001],[172.73014990000001,-43.60635910000001]]}}
,
{"type":"Feature","id":"way/23984742/98","properties":{"access":"no","disused":"yes","highway":"tertiary","name":"Sumner Road","note":"road closed due to earthquake damage and rockfall danger indefinitely until repaired and made safe","id":"way/23984742/98","weighting":10},"geometry":{"type":"LineString","coordinates":[[172.73014990000001,-43.60635910000001],[172.72988429999995,-43.60630010000001]]}}
,
{"type":"Feature","id":"way/23984742/99","properties":{"access":"no","disused":"yes","highway":"tertiary","name":"Sumner Road","note":"road closed due to earthquake damage and rockfall danger indefinitely until repaired and made safe","id":"way/23984742/99","weighting":10},"geometry":{"type":"LineString","coordinates":[[172.72988429999995,-43.60630010000001],[172.72957319999992,-43.60621060000001]]}}
,
{"type":"Feature","id":"way/23984742/100","properties":{"access":"no","disused":"yes","highway":"tertiary","name":"Sumner Road","note":"road closed due to earthquake damage and rockfall danger indefinitely until repaired and made safe","id":"way/23984742/100","weighting":10},"geometry":{"type":"LineString","coordinates":[[172.72957319999992,-43.60621060000001],[172.7292491,-43.60613230000002]]}}
,
{"type":"Feature","id":"way/23984742/101","properties":{"access":"no","disused":"yes","highway":"tertiary","name":"Sumner Road","note":"road closed due to earthquake damage and rockfall danger indefinitely until repaired and made safe","id":"way/23984742/101","weighting":10},"geometry":{"type":"LineString","coordinates":[[172.7292491,-43.60613230000002],[172.72888,-43.606113700000016]]}}
,
{"type":"Feature","id":"way/23984742/102","properties":{"access":"no","disused":"yes","highway":"tertiary","name":"Sumner Road","note":"road closed due to earthquake damage and rockfall danger indefinitely until repaired and made safe","id":"way/23984742/102","weighting":10},"geometry":{"type":"LineString","coordinates":[[172.72888,-43.606113700000016],[172.7286311,-43.606138600000016]]}}
,
{"type":"Feature","id":"way/23984742/103","properties":{"access":"no","disused":"yes","highway":"tertiary","name":"Sumner Road","note":"road closed due to earthquake damage and rockfall danger indefinitely until repaired and made safe","id":"way/23984742/103","weighting":10},"geometry":{"type":"LineString","coordinates":[[172.7286311,-43.606138600000016],[172.7283682,-43.6062001]]}}
,
{"type":"Feature","id":"way/23984742/104","properties":{"access":"no","disused":"yes","highway":"tertiary","name":"Sumner Road","note":"road closed due to earthquake damage and rockfall danger indefinitely until repaired and made safe","id":"way/23984742/104","weighting":10},"geometry":{"type":"LineString","coordinates":[[172.7283682,-43.6062001],[172.7279421,-43.606375200000016]]}}
,
{"type":"Feature","id":"way/24721412/0","properties":{"access":"yes","foot":"yes","highway":"unclassified","maxspeed":"30","name":"Cathedral Square","id":"way/24721412/0","weighting":10},"geometry":{"type":"LineString","coordinates":[[172.6352356,-43.530948],[172.63530640000005,-43.5309377]]}}
,
{"type":"Feature","id":"way/24721412/1","properties":{"access":"yes","foot":"yes","highway":"unclassified","maxspeed":"30","name":"Cathedral Square","id":"way/24721412/1","weighting":10},"geometry":{"type":"LineString","coordinates":[[172.63530640000005,-43.5309377],[172.63534710000005,-43.53091730000001]]}}
,
{"type":"Feature","id":"way/24721412/2","properties":{"access":"yes","foot":"yes","highway":"unclassified","maxspeed":"30","name":"Cathedral Square","id":"way/24721412/2","weighting":10},"geometry":{"type":"LineString","coordinates":[[172.63534710000005,-43.53091730000001],[172.6353743,-43.530889599999995]]}}
,
{"type":"Feature","id":"way/24721412/3","properties":{"access":"yes","foot":"yes","highway":"unclassified","maxspeed":"30","name":"Cathedral Square","id":"way/24721412/3","weighting":10},"geometry":{"type":"LineString","coordinates":[[172.6353743,-43.530889599999995],[172.6354033,-43.5308429]]}}
,
{"type":"Feature","id":"way/24721412/4","properties":{"access":"yes","foot":"yes","highway":"unclassified","maxspeed":"30","name":"Cathedral Square","id":"way/24721412/4","weighting":10},"geometry":{"type":"LineString","coordinates":[[172.6354033,-43.5308429],[172.6354411,-43.5307832]]}}
,
{"type":"Feature","id":"way/24721412/5","properties":{"access":"yes","foot":"yes","highway":"unclassified","maxspeed":"30","name":"Cathedral Square","id":"way/24721412/5","weighting":10},"geometry":{"type":"LineString","coordinates":[[172.6354411,-43.5307832],[172.6354848,-43.5307472]]}}
,
{"type":"Feature","id":"way/24721412/6","properties":{"access":"yes","foot":"yes","highway":"unclassified","maxspeed":"30","name":"Cathedral Square","id":"way/24721412/6","weighting":10},"geometry":{"type":"LineString","coordinates":[[172.6354848,-43.5307472],[172.6355381,-43.5307218]]}}
,
{"type":"Feature","id":"way/24721412/7","properties":{"access":"yes","foot":"yes","highway":"unclassified","maxspeed":"30","name":"Cathedral Square","id":"way/24721412/7","weighting":10},"geometry":{"type":"LineString","coordinates":[[172.6355381,-43.5307218],[172.63561349999998,-43.53070200000001]]}}
,
{"type":"Feature","id":"way/24721412/8","properties":{"access":"yes","foot":"yes","highway":"unclassified","maxspeed":"30","name":"Cathedral Square","id":"way/24721412/8","weighting":10},"geometry":{"type":"LineString","coordinates":[[172.63561349999998,-43.53070200000001],[172.6357371,-43.5306996]]}}
,
{"type":"Feature","id":"way/24721412/9","properties":{"access":"yes","foot":"yes","highway":"unclassified","maxspeed":"30","name":"Cathedral Square","id":"way/24721412/9","weighting":10},"geometry":{"type":"LineString","coordinates":[[172.6357371,-43.5306996],[172.63586209999994,-43.5306994]]}}
,
{"type":"Feature","id":"way/24721412/10","properties":{"access":"yes","foot":"yes","highway":"unclassified","maxspeed":"30","name":"Cathedral Square","id":"way/24721412/10","weighting":10},"geometry":{"type":"LineString","coordinates":[[172.63586209999994,-43.5306994],[172.63592219999998,-43.530677]]}}
,
{"type":"Feature","id":"way/24721412/11","properties":{"access":"yes","foot":"yes","highway":"unclassified","maxspeed":"30","name":"Cathedral Square","id":"way/24721412/11","weighting":10},"geometry":{"type":"LineString","coordinates":[[172.63592219999998,-43.530677],[172.6359783,-43.5306561]]}}
,
{"type":"Feature","id":"way/24721412/12","properties":{"access":"yes","foot":"yes","highway":"unclassified","maxspeed":"30","name":"Cathedral Square","id":"way/24721412/12","weighting":10},"geometry":{"type":"LineString","coordinates":[[172.6359783,-43.5306561],[172.6360402,-43.5305894]]}}
,
{"type":"Feature","id":"way/24721412/13","properties":{"access":"yes","foot":"yes","highway":"unclassified","maxspeed":"30","name":"Cathedral Square","id":"way/24721412/13","weighting":10},"geometry":{"type":"LineString","coordinates":[[172.6360402,-43.5305894],[172.6360456,-43.5303473]]}}
,
{"type":"Feature","id":"way/24721412/14","properties":{"access":"yes","foot":"yes","highway":"unclassified","maxspeed":"30","name":"Cathedral Square","id":"way/24721412/14","weighting":10},"geometry":{"type":"LineString","coordinates":[[172.6360456,-43.5303473],[172.6364807,-43.530338000000015]]}}
,
{"type":"Feature","id":"way/24721412/15","properties":{"access":"yes","foot":"yes","highway":"unclassified","maxspeed":"30","name":"Cathedral Square","id":"way/24721412/15","weighting":10},"geometry":{"type":"LineString","coordinates":[[172.6364807,-43.530338000000015],[172.63669449999998,-43.53033350000001]]}}
,
{"type":"Feature","id":"way/24721413/0","properties":{"access":"yes","foot":"yes","highway":"tertiary","maxspeed":"50","name":"Colombo Street","roadworks":"Level1","id":"way/24721413/0","weighting":10},"geometry":{"type":"LineString","coordinates":[[172.6366703,-43.53203850000001],[172.6367091,-43.533159800000014]]}}
,
{"type":"Feature","id":"way/25890303/0","properties":{"created_by":"Potlatch 0.10f","highway":"tertiary","name":"Ensors Road","id":"way/25890303/0","weighting":10},"geometry":{"type":"LineString","coordinates":[[172.65736080000005,-43.55288839999999],[172.65742070000005,-43.552817499999996]]}}
,
{"type":"Feature","id":"way/27144691/0","properties":{"highway":"tertiary","name":"St Andrews Hill Road","id":"way/27144691/0","weighting":10},"geometry":{"type":"LineString","coordinates":[[172.70987599999995,-43.5582702],[172.70988619999994,-43.55833280000002]]}}
,
{"type":"Feature","id":"way/27144691/1","properties":{"highway":"tertiary","name":"St Andrews Hill Road","id":"way/27144691/1","weighting":10},"geometry":{"type":"LineString","coordinates":[[172.70988619999994,-43.55833280000002],[172.71004169999998,-43.558377]]}}
,
{"type":"Feature","id":"way/27144691/2","properties":{"highway":"tertiary","name":"St Andrews Hill Road","id":"way/27144691/2","weighting":10},"geometry":{"type":"LineString","coordinates":[[172.71004169999998,-43.558377],[172.7102205,-43.55833220000002]]}}
,
{"type":"Feature","id":"way/27144691/3","properties":{"highway":"tertiary","name":"St Andrews Hill Road","id":"way/27144691/3","weighting":10},"geometry":{"type":"LineString","coordinates":[[172.7102205,-43.55833220000002],[172.71059409999992,-43.558260499999996]]}}
,
{"type":"Feature","id":"way/27144691/4","properties":{"highway":"tertiary","name":"St Andrews Hill Road","id":"way/27144691/4","weighting":10},"geometry":{"type":"LineString","coordinates":[[172.71059409999992,-43.558260499999996],[172.71106459999993,-43.5582262]]}}
,
{"type":"Feature","id":"way/27144691/5","properties":{"highway":"tertiary","name":"St Andrews Hill Road","id":"way/27144691/5","weighting":10},"geometry":{"type":"LineString","coordinates":[[172.71106459999993,-43.5582262],[172.71176489999993,-43.558312000000015]]}}
,
{"type":"Feature","id":"way/27144691/6","properties":{"highway":"tertiary","name":"St Andrews Hill Road","id":"way/27144691/6","weighting":10},"geometry":{"type":"LineString","coordinates":[[172.71176489999993,-43.558312000000015],[172.71195049999994,-43.55832200000001]]}}
,
{"type":"Feature","id":"way/27144691/7","properties":{"highway":"tertiary","name":"St Andrews Hill Road","id":"way/27144691/7","weighting":10},"geometry":{"type":"LineString","coordinates":[[172.71195049999994,-43.55832200000001],[172.7121984,-43.5582705]]}}
,
{"type":"Feature","id":"way/27144691/8","properties":{"highway":"tertiary","name":"St Andrews Hill Road","id":"way/27144691/8","weighting":10},"geometry":{"type":"LineString","coordinates":[[172.7121984,-43.5582705],[172.712749,-43.5580637]]}}
,
{"type":"Feature","id":"way/27145094/0","properties":{"highway":"unclassified","name":"Horotane Valley Road","id":"way/27145094/0","weighting":10},"geometry":{"type":"LineString","coordinates":[[172.69496429999995,-43.57234500000001],[172.69487189999998,-43.57241840000001]]}}
,
{"type":"Feature","id":"way/27145094/1","properties":{"highway":"unclassified","name":"Horotane Valley Road","id":"way/27145094/1","weighting":10},"geometry":{"type":"LineString","coordinates":[[172.69487189999998,-43.57241840000001],[172.69452169999994,-43.5726967]]}}
,
{"type":"Feature","id":"way/27145101/0","properties":{"highway":"unclassified","name":"Horotane Valley Road","id":"way/27145101/0","weighting":10},"geometry":{"type":"LineString","coordinates":[[172.69452169999994,-43.5726967],[172.69450549999993,-43.57293110000001]]}}
,
{"type":"Feature","id":"way/28757873/0","properties":{"bridge":"yes","ccc":"cyclingpath","highway":"unclassified","layer":"1","id":"way/28757873/0","weighting":10},"geometry":{"type":"LineString","coordinates":[[172.62748440000001,-43.52877270000002],[172.62709180000004,-43.52877160000001]]}}
,
{"type":"Feature","id":"way/32050444/0","properties":{"access":"yes","foot":"yes","highway":"tertiary","maxspeed":"30","name":"Oxford Terrace","note":"tramway reopens 2014","railway":"disused","id":"way/32050444/0","weighting":10},"geometry":{"type":"LineString","coordinates":[[172.63386939999998,-43.5309448],[172.63385269999992,-43.531955]]}}
,
{"type":"Feature","id":"way/32050447/0","properties":{"access":"yes","bridge":"yes","foot":"yes","highway":"tertiary","maxspeed":"50","name":"Hereford Street","id":"way/32050447/0","weighting":10},"geometry":{"type":"LineString","coordinates":[[172.6333908,-43.5320473],[172.63378369999992,-43.53204570000001]]}}
,
{"type":"Feature","id":"way/32050484/0","properties":{"access":"yes","ccc":"cyclingroute","foot":"yes","highway":"tertiary","maxspeed":"50","name":"Gloucester Street","id":"way/32050484/0","weighting":10},"geometry":{"type":"LineString","coordinates":[[172.6343144,-43.5298601],[172.6344673,-43.5298604]]}}
,
{"type":"Feature","id":"way/32050484/1","properties":{"access":"yes","ccc":"cyclingroute","foot":"yes","highway":"tertiary","maxspeed":"50","name":"Gloucester Street","id":"way/32050484/1","weighting":10},"geometry":{"type":"LineString","coordinates":[[172.6344673,-43.5298604],[172.6353118,-43.5298692]]}}
,
{"type":"Feature","id":"way/32050484/6","properties":{"access":"yes","ccc":"cyclingroute","foot":"yes","highway":"tertiary","maxspeed":"50","name":"Gloucester Street","id":"way/32050484/6","weighting":10},"geometry":{"type":"LineString","coordinates":[[172.6376044,-43.529881499999995],[172.63879680000005,-43.5298812]]}}
,
{"type":"Feature","id":"way/32050484/7","properties":{"access":"yes","ccc":"cyclingroute","foot":"yes","highway":"tertiary","maxspeed":"50","name":"Gloucester Street","id":"way/32050484/7","weighting":10},"geometry":{"type":"LineString","coordinates":[[172.63879680000005,-43.5298812],[172.6388723,-43.5298812]]}}
,
{"type":"Feature","id":"way/32050485/0","properties":{"access":"yes","bridge":"yes","ccc":"cyclingroute","foot":"yes","highway":"tertiary","maxspeed":"50","name":"Gloucester Street","id":"way/32050485/0","weighting":10},"geometry":{"type":"LineString","coordinates":[[172.63390149999998,-43.5298635],[172.6343144,-43.5298601]]}}
,
{"type":"Feature","id":"way/32840585/0","properties":{"highway":"tertiary","maxspeed":"50","name":"Breezes Road","id":"way/32840585/0","weighting":10},"geometry":{"type":"LineString","coordinates":[[172.6862929,-43.5084241],[172.68642340000005,-43.5085144]]}}
,
{"type":"Feature","id":"way/32840585/1","properties":{"highway":"tertiary","maxspeed":"50","name":"Breezes Road","id":"way/32840585/1","weighting":10},"geometry":{"type":"LineString","coordinates":[[172.68642340000005,-43.5085144],[172.6880731,-43.50899300000001]]}}
,
{"type":"Feature","id":"way/32840585/2","properties":{"highway":"tertiary","maxspeed":"50","name":"Breezes Road","id":"way/32840585/2","weighting":10},"geometry":{"type":"LineString","coordinates":[[172.6880731,-43.50899300000001],[172.6892315,-43.5092976]]}}
,
{"type":"Feature","id":"way/33549677/0","properties":{"fixme":"check road type","highway":"unclassified","maxspeed":"50","name":"Stanley Street","id":"way/33549677/0","weighting":10},"geometry":{"type":"LineString","coordinates":[[172.63370259999994,-43.5469466],[172.6366574,-43.5469394]]}}
,
{"type":"Feature","id":"way/37973151/7","properties":{"highway":"tertiary","maxspeed":"50","name":"Avondale Road","id":"way/37973151/7","weighting":10},"geometry":{"type":"LineString","coordinates":[[172.68721880000007,-43.50417380000001],[172.68703790000006,-43.504995]]}}
,
{"type":"Feature","id":"way/37973151/8","properties":{"highway":"tertiary","maxspeed":"50","name":"Avondale Road","id":"way/37973151/8","weighting":10},"geometry":{"type":"LineString","coordinates":[[172.68703790000006,-43.504995],[172.68703860000005,-43.5050204]]}}
,
{"type":"Feature","id":"way/37973151/9","properties":{"highway":"tertiary","maxspeed":"50","name":"Avondale Road","id":"way/37973151/9","weighting":10},"geometry":{"type":"LineString","coordinates":[[172.68703860000005,-43.5050204],[172.6868583,-43.505867099999996]]}}
,
{"type":"Feature","id":"way/37973151/10","properties":{"highway":"tertiary","maxspeed":"50","name":"Avondale Road","id":"way/37973151/10","weighting":10},"geometry":{"type":"LineString","coordinates":[[172.6868583,-43.505867099999996],[172.6866609,-43.50671370000001]]}}
,
{"type":"Feature","id":"way/37973151/11","properties":{"highway":"tertiary","maxspeed":"50","name":"Avondale Road","id":"way/37973151/11","weighting":10},"geometry":{"type":"LineString","coordinates":[[172.6866609,-43.50671370000001],[172.6864648,-43.507547599999995]]}}
,
{"type":"Feature","id":"way/37973151/12","properties":{"highway":"tertiary","maxspeed":"50","name":"Avondale Road","id":"way/37973151/12","weighting":10},"geometry":{"type":"LineString","coordinates":[[172.6864648,-43.507547599999995],[172.68629880000006,-43.5082817]]}}
,
{"type":"Feature","id":"way/37973151/13","properties":{"highway":"tertiary","maxspeed":"50","name":"Avondale Road","id":"way/37973151/13","weighting":10},"geometry":{"type":"LineString","coordinates":[[172.68629880000006,-43.5082817],[172.6862929,-43.5084241]]}}
,
{"type":"Feature","id":"way/38135041/3","properties":{"ccc":"cyclingroute","highway":"tertiary","name":"St Martins Road","id":"way/38135041/3","weighting":10},"geometry":{"type":"LineString","coordinates":[[172.65047900000005,-43.5605864],[172.6504724,-43.561335100000015]]}}
,
{"type":"Feature","id":"way/38342037/0","properties":{"highway":"unclassified","id":"way/38342037/0","weighting":10},"geometry":{"type":"LineString","coordinates":[[172.6443375,-43.59936980000001],[172.64433219999998,-43.599262]]}}
,
{"type":"Feature","id":"way/38342037/1","properties":{"highway":"unclassified","id":"way/38342037/1","weighting":10},"geometry":{"type":"LineString","coordinates":[[172.64433219999998,-43.599262],[172.6443431,-43.59917510000002]]}}
,
{"type":"Feature","id":"way/38342037/2","properties":{"highway":"unclassified","id":"way/38342037/2","weighting":10},"geometry":{"type":"LineString","coordinates":[[172.6443431,-43.59917510000002],[172.6444194,-43.59911910000002]]}}
,
{"type":"Feature","id":"way/38342037/3","properties":{"highway":"unclassified","id":"way/38342037/3","weighting":10},"geometry":{"type":"LineString","coordinates":[[172.6444194,-43.59911910000002],[172.64458869999993,-43.59913290000003]]}}
,
{"type":"Feature","id":"way/38342037/4","properties":{"highway":"unclassified","id":"way/38342037/4","weighting":10},"geometry":{"type":"LineString","coordinates":[[172.64458869999993,-43.59913290000003],[172.64472479999995,-43.59921480000001]]}}
,
{"type":"Feature","id":"way/41571833/0","properties":{"highway":"unclassified","name":"Softball Lane","id":"way/41571833/0","weighting":10},"geometry":{"type":"LineString","coordinates":[[172.69489049999999,-43.5214408],[172.69495709999998,-43.52151060000001]]}}
,
{"type":"Feature","id":"way/41571833/1","properties":{"highway":"unclassified","name":"Softball Lane","id":"way/41571833/1","weighting":10},"geometry":{"type":"LineString","coordinates":[[172.69495709999998,-43.52151060000001],[172.69576159999994,-43.522228200000015]]}}
,
{"type":"Feature","id":"way/41651283/0","properties":{"ccc":"cyclingroute","highway":"unclassified","lanes":"2","maxspeed":"50","name":"Ferry Road","id":"way/41651283/0","weighting":10},"geometry":{"type":"LineString","coordinates":[[172.6561246,-43.5396767],[172.655969,-43.5396261]]}}
,
{"type":"Feature","id":"way/41651283/1","properties":{"ccc":"cyclingroute","highway":"unclassified","lanes":"2","maxspeed":"50","name":"Ferry Road","id":"way/41651283/1","weighting":10},"geometry":{"type":"LineString","coordinates":[[172.655969,-43.5396261],[172.6557896,-43.539575800000016]]}}
,
{"type":"Feature","id":"way/41651283/2","properties":{"ccc":"cyclingroute","highway":"unclassified","lanes":"2","maxspeed":"50","name":"Ferry Road","id":"way/41651283/2","weighting":10},"geometry":{"type":"LineString","coordinates":[[172.6557896,-43.539575800000016],[172.6543005,-43.5392104]]}}
,
{"type":"Feature","id":"way/41651283/3","properties":{"ccc":"cyclingroute","highway":"unclassified","lanes":"2","maxspeed":"50","name":"Ferry Road","id":"way/41651283/3","weighting":10},"geometry":{"type":"LineString","coordinates":[[172.6543005,-43.5392104],[172.6540139,-43.539132600000016]]}}
,
{"type":"Feature","id":"way/41651283/4","properties":{"ccc":"cyclingroute","highway":"unclassified","lanes":"2","maxspeed":"50","name":"Ferry Road","id":"way/41651283/4","weighting":10},"geometry":{"type":"LineString","coordinates":[[172.6540139,-43.539132600000016],[172.6506583,-43.53831700000001]]}}
,
{"type":"Feature","id":"way/41651283/5","properties":{"ccc":"cyclingroute","highway":"unclassified","lanes":"2","maxspeed":"50","name":"Ferry Road","id":"way/41651283/5","weighting":10},"geometry":{"type":"LineString","coordinates":[[172.6506583,-43.53831700000001],[172.65048700000006,-43.538258200000016]]}}
,
{"type":"Feature","id":"way/41651283/6","properties":{"ccc":"cyclingroute","highway":"unclassified","lanes":"2","maxspeed":"50","name":"Ferry Road","id":"way/41651283/6","weighting":10},"geometry":{"type":"LineString","coordinates":[[172.65048700000006,-43.538258200000016],[172.6457478,-43.537088499999996]]}}
,
{"type":"Feature","id":"way/41655466/0","properties":{"access":"yes","bridge":"yes","foot":"yes","highway":"tertiary","maxspeed":"50","name":"Colombo Street","id":"way/41655466/0","weighting":10},"geometry":{"type":"LineString","coordinates":[[172.63665399999994,-43.5270458],[172.63665989999998,-43.5273497]]}}
,
{"type":"Feature","id":"way/50009283/4","properties":{"highway":"tertiary","maxspeed":"50","name":"Burwood Road","id":"way/50009283/4","weighting":10},"geometry":{"type":"LineString","coordinates":[[172.67957339999992,-43.47659200000001],[172.67958459999988,-43.4769518]]}}
,
{"type":"Feature","id":"way/50009283/5","properties":{"highway":"tertiary","maxspeed":"50","name":"Burwood Road","id":"way/50009283/5","weighting":10},"geometry":{"type":"LineString","coordinates":[[172.67958459999988,-43.4769518],[172.67963109999994,-43.477267199999986]]}}
,
{"type":"Feature","id":"way/50009283/6","properties":{"highway":"tertiary","maxspeed":"50","name":"Burwood Road","id":"way/50009283/6","weighting":10},"geometry":{"type":"LineString","coordinates":[[172.67963109999994,-43.477267199999986],[172.6797552999999,-43.4775883]]}}
,
{"type":"Feature","id":"way/50009283/7","properties":{"highway":"tertiary","maxspeed":"50","name":"Burwood Road","id":"way/50009283/7","weighting":10},"geometry":{"type":"LineString","coordinates":[[172.6797552999999,-43.4775883],[172.68049330000005,-43.479022]]}}
,
{"type":"Feature","id":"way/50477879/0","properties":{"ccc":"cyclingroute","highway":"tertiary","maxspeed":"50","name":"Antigua Street","id":"way/50477879/0","weighting":10},"geometry":{"type":"LineString","coordinates":[[172.6279623,-43.5475602],[172.6279565,-43.5472106]]}}
,
{"type":"Feature","id":"way/50477879/1","properties":{"ccc":"cyclingroute","highway":"tertiary","maxspeed":"50","name":"Antigua Street","id":"way/50477879/1","weighting":10},"geometry":{"type":"LineString","coordinates":[[172.6279565,-43.5472106],[172.62794910000005,-43.5461947]]}}
,
{"type":"Feature","id":"way/92770412/0","properties":{"highway":"tertiary","maxspeed":"30","name":"Cathedral Square","railway":"tram","id":"way/92770412/0","weighting":10},"geometry":{"type":"LineString","coordinates":[[172.6369788,-43.5305012],[172.6370332,-43.5305215]]}}
,
{"type":"Feature","id":"way/92770412/1","properties":{"highway":"tertiary","maxspeed":"30","name":"Cathedral Square","railway":"tram","id":"way/92770412/1","weighting":10},"geometry":{"type":"LineString","coordinates":[[172.6370332,-43.5305215],[172.6377098,-43.53079200000001]]}}
,
{"type":"Feature","id":"way/92770412/2","properties":{"highway":"tertiary","maxspeed":"30","name":"Cathedral Square","railway":"tram","id":"way/92770412/2","weighting":10},"geometry":{"type":"LineString","coordinates":[[172.6377098,-43.53079200000001],[172.6377928,-43.5308252]]}}
,
{"type":"Feature","id":"way/95463106/0","properties":{"ccc":"cyclingroute","highway":"unclassified","maxspeed":"50","name":"High Street","id":"way/95463106/0","weighting":10},"geometry":{"type":"LineString","coordinates":[[172.64274640000005,-43.5364512],[172.64240610000004,-43.53619910000001]]}}
,
{"type":"Feature","id":"way/95465477/0","properties":{"ccc":"cyclingroute","highway":"unclassified","maxspeed":"50","id":"way/95465477/0","weighting":10},"geometry":{"type":"LineString","coordinates":[[172.6383887,-43.5331491],[172.63832010000004,-43.5332213]]}}
,
{"type":"Feature","id":"way/99626839/1","properties":{"access":"yes","fixme":"access","foot":"yes","highway":"tertiary","maxspeed":"30","name":"Cathedral Square","id":"way/99626839/1","weighting":10},"geometry":{"type":"LineString","coordinates":[[172.637899,-43.5309654],[172.6377928,-43.5308252]]}}
,
{"type":"Feature","id":"way/101444209/0","properties":{"highway":"unclassified","name":"Teviotdale Way","id":"way/101444209/0","weighting":10},"geometry":{"type":"LineString","coordinates":[[172.75294950000006,-43.57619800000001],[172.75273660000005,-43.5760998]]}}
,
{"type":"Feature","id":"way/101444209/1","properties":{"highway":"unclassified","name":"Teviotdale Way","id":"way/101444209/1","weighting":10},"geometry":{"type":"LineString","coordinates":[[172.75273660000005,-43.5760998],[172.75252369999998,-43.57589880000001]]}}
,
{"type":"Feature","id":"way/101444209/7","properties":{"highway":"unclassified","name":"Teviotdale Way","id":"way/101444209/7","weighting":10},"geometry":{"type":"LineString","coordinates":[[172.7512397,-43.5749827],[172.75111710000004,-43.574772300000014]]}}
,
{"type":"Feature","id":"way/101896516/0","properties":{"highway":"tertiary","maxspeed":"50","name":"Durham Street North","oneway":"yes","turn":"free_left","id":"way/101896516/0","weighting":10},"geometry":{"type":"LineString","coordinates":[[172.63360969999994,-43.5296005],[172.63390149999998,-43.5298635]]}}
,
{"type":"Feature","id":"way/102406143/8","properties":{"highway":"tertiary","name":"Hawke Street","id":"way/102406143/8","weighting":10},"geometry":{"type":"LineString","coordinates":[[172.7222152,-43.50833220000002],[172.7218925,-43.5088883]]}}
,
{"type":"Feature","id":"way/102602237/5","properties":{"highway":"tertiary","maxspeed":"50","name":"Mairehau Road","id":"way/102602237/5","weighting":10},"geometry":{"type":"LineString","coordinates":[[172.6869042,-43.481214599999994],[172.68821890000007,-43.48071260000001]]}}
,
{"type":"Feature","id":"way/102602237/6","properties":{"highway":"tertiary","maxspeed":"50","name":"Mairehau Road","id":"way/102602237/6","weighting":10},"geometry":{"type":"LineString","coordinates":[[172.68821890000007,-43.48071260000001],[172.68852790000005,-43.4805196]]}}
,
{"type":"Feature","id":"way/102602237/7","properties":{"highway":"tertiary","maxspeed":"50","name":"Mairehau Road","id":"way/102602237/7","weighting":10},"geometry":{"type":"LineString","coordinates":[[172.68852790000005,-43.4805196],[172.6888643,-43.4802957]]}}
,
{"type":"Feature","id":"way/102602237/8","properties":{"highway":"tertiary","maxspeed":"50","name":"Mairehau Road","id":"way/102602237/8","weighting":10},"geometry":{"type":"LineString","coordinates":[[172.6888643,-43.4802957],[172.6893222,-43.479961]]}}
,
{"type":"Feature","id":"way/102602237/9","properties":{"highway":"tertiary","maxspeed":"50","name":"Mairehau Road","id":"way/102602237/9","weighting":10},"geometry":{"type":"LineString","coordinates":[[172.6893222,-43.479961],[172.68957439999994,-43.4798533]]}}
,
{"type":"Feature","id":"way/102602237/10","properties":{"highway":"tertiary","maxspeed":"50","name":"Mairehau Road","id":"way/102602237/10","weighting":10},"geometry":{"type":"LineString","coordinates":[[172.68957439999994,-43.4798533],[172.68983459999998,-43.4797882]]}}
,
{"type":"Feature","id":"way/102602237/11","properties":{"highway":"tertiary","maxspeed":"50","name":"Mairehau Road","id":"way/102602237/11","weighting":10},"geometry":{"type":"LineString","coordinates":[[172.68983459999998,-43.4797882],[172.6904952,-43.4797017]]}}
,
{"type":"Feature","id":"way/102602237/12","properties":{"highway":"tertiary","maxspeed":"50","name":"Mairehau Road","id":"way/102602237/12","weighting":10},"geometry":{"type":"LineString","coordinates":[[172.6904952,-43.4797017],[172.69166919999998,-43.47959080000001]]}}
,
{"type":"Feature","id":"way/102602237/13","properties":{"highway":"tertiary","maxspeed":"50","name":"Mairehau Road","id":"way/102602237/13","weighting":10},"geometry":{"type":"LineString","coordinates":[[172.69166919999998,-43.47959080000001],[172.6920412,-43.4796062]]}}
,
{"type":"Feature","id":"way/102602237/14","properties":{"highway":"tertiary","maxspeed":"50","name":"Mairehau Road","id":"way/102602237/14","weighting":10},"geometry":{"type":"LineString","coordinates":[[172.6920412,-43.4796062],[172.6947282,-43.4798952]]}}
,
{"type":"Feature","id":"way/102602237/15","properties":{"highway":"tertiary","maxspeed":"50","name":"Mairehau Road","id":"way/102602237/15","weighting":10},"geometry":{"type":"LineString","coordinates":[[172.6947282,-43.4798952],[172.6949081,-43.4799194]]}}
,
{"type":"Feature","id":"way/102602237/16","properties":{"highway":"tertiary","maxspeed":"50","name":"Mairehau Road","id":"way/102602237/16","weighting":10},"geometry":{"type":"LineString","coordinates":[[172.6949081,-43.4799194],[172.6950688,-43.47995620000001]]}}
,
{"type":"Feature","id":"way/114220258/3","properties":{"ccc":"cyclingroute","cycleway":"lane","highway":"tertiary","maxspeed":"50","name":"Clyde Road","id":"way/114220258/3","weighting":10},"geometry":{"type":"LineString","coordinates":[[172.5883293000001,-43.5245278],[172.58942080000006,-43.522503600000015]]}}
,
{"type":"Feature","id":"way/114220258/4","properties":{"ccc":"cyclingroute","cycleway":"lane","highway":"tertiary","maxspeed":"50","name":"Clyde Road","id":"way/114220258/4","weighting":10},"geometry":{"type":"LineString","coordinates":[[172.58942080000006,-43.522503600000015],[172.5894609,-43.52242920000001]]}}
,
{"type":"Feature","id":"way/114220258/5","properties":{"ccc":"cyclingroute","cycleway":"lane","highway":"tertiary","maxspeed":"50","name":"Clyde Road","id":"way/114220258/5","weighting":10},"geometry":{"type":"LineString","coordinates":[[172.5894609,-43.52242920000001],[172.58951309999998,-43.522334000000015]]}}
,
{"type":"Feature","id":"way/114220258/6","properties":{"ccc":"cyclingroute","cycleway":"lane","highway":"tertiary","maxspeed":"50","name":"Clyde Road","id":"way/114220258/6","weighting":10},"geometry":{"type":"LineString","coordinates":[[172.58951309999998,-43.522334000000015],[172.5896083,-43.52215930000002]]}}
,
{"type":"Feature","id":"way/114220258/7","properties":{"ccc":"cyclingroute","cycleway":"lane","highway":"tertiary","maxspeed":"50","name":"Clyde Road","id":"way/114220258/7","weighting":10},"geometry":{"type":"LineString","coordinates":[[172.5896083,-43.52215930000002],[172.59002519999999,-43.521399]]}}
,
{"type":"Feature","id":"way/114220349/0","properties":{"highway":"tertiary","maxspeed":"80","name":"Wigram Road","id":"way/114220349/0","weighting":10},"geometry":{"type":"LineString","coordinates":[[172.5526905,-43.5629444],[172.55292920000005,-43.56285380000001]]}}
,
{"type":"Feature","id":"way/114220349/1","properties":{"highway":"tertiary","maxspeed":"80","name":"Wigram Road","id":"way/114220349/1","weighting":10},"geometry":{"type":"LineString","coordinates":[[172.55292920000005,-43.56285380000001],[172.55325419999994,-43.56273390000002]]}}
,
{"type":"Feature","id":"way/114220349/2","properties":{"highway":"tertiary","maxspeed":"80","name":"Wigram Road","id":"way/114220349/2","weighting":10},"geometry":{"type":"LineString","coordinates":[[172.55325419999994,-43.56273390000002],[172.5535919,-43.56260930000001]]}}
,
{"type":"Feature","id":"way/114220349/3","properties":{"highway":"tertiary","maxspeed":"80","name":"Wigram Road","id":"way/114220349/3","weighting":10},"geometry":{"type":"LineString","coordinates":[[172.5535919,-43.56260930000001],[172.55394090000001,-43.56249290000002]]}}
,
{"type":"Feature","id":"way/114220349/4","properties":{"highway":"tertiary","maxspeed":"80","name":"Wigram Road","id":"way/114220349/4","weighting":10},"geometry":{"type":"LineString","coordinates":[[172.55394090000001,-43.56249290000002],[172.55438610000004,-43.56233760000001]]}}
,
{"type":"Feature","id":"way/114220349/5","properties":{"highway":"tertiary","maxspeed":"80","name":"Wigram Road","id":"way/114220349/5","weighting":10},"geometry":{"type":"LineString","coordinates":[[172.55438610000004,-43.56233760000001],[172.55466719999998,-43.562173500000014]]}}
,
{"type":"Feature","id":"way/114220349/6","properties":{"highway":"tertiary","maxspeed":"80","name":"Wigram Road","id":"way/114220349/6","weighting":10},"geometry":{"type":"LineString","coordinates":[[172.55466719999998,-43.562173500000014],[172.5548254,-43.56205660000001]]}}
,
{"type":"Feature","id":"way/114220349/7","properties":{"highway":"tertiary","maxspeed":"80","name":"Wigram Road","id":"way/114220349/7","weighting":10},"geometry":{"type":"LineString","coordinates":[[172.5548254,-43.56205660000001],[172.5549814,-43.5618748]]}}
,
{"type":"Feature","id":"way/114220349/8","properties":{"highway":"tertiary","maxspeed":"80","name":"Wigram Road","id":"way/114220349/8","weighting":10},"geometry":{"type":"LineString","coordinates":[[172.5549814,-43.5618748],[172.55613580000005,-43.56000210000001]]}}
,
{"type":"Feature","id":"way/114220349/9","properties":{"highway":"tertiary","maxspeed":"80","name":"Wigram Road","id":"way/114220349/9","weighting":10},"geometry":{"type":"LineString","coordinates":[[172.55613580000005,-43.56000210000001],[172.55647280000005,-43.559668699999996]]}}
,
{"type":"Feature","id":"way/114220349/10","properties":{"highway":"tertiary","maxspeed":"80","name":"Wigram Road","id":"way/114220349/10","weighting":10},"geometry":{"type":"LineString","coordinates":[[172.55647280000005,-43.559668699999996],[172.55723400000005,-43.5592227]]}}
,
{"type":"Feature","id":"way/114220349/11","properties":{"highway":"tertiary","maxspeed":"80","name":"Wigram Road","id":"way/114220349/11","weighting":10},"geometry":{"type":"LineString","coordinates":[[172.55723400000005,-43.5592227],[172.55741270000001,-43.55911800000001]]}}
,
{"type":"Feature","id":"way/114220349/12","properties":{"highway":"tertiary","maxspeed":"80","name":"Wigram Road","id":"way/114220349/12","weighting":10},"geometry":{"type":"LineString","coordinates":[[172.55741270000001,-43.55911800000001],[172.5587733,-43.55832090000001]]}}
,
{"type":"Feature","id":"way/114501117/4","properties":{"ccc":"cyclingroute","highway":"tertiary","lanes":"2","maxspeed":"50","name":"Antigua Street","id":"way/114501117/4","weighting":10},"geometry":{"type":"LineString","coordinates":[[172.6278407,-43.538370700000016],[172.627688,-43.536511900000015]]}}
,
{"type":"Feature","id":"way/114501117/5","properties":{"ccc":"cyclingroute","highway":"tertiary","lanes":"2","maxspeed":"50","name":"Antigua Street","id":"way/114501117/5","weighting":10},"geometry":{"type":"LineString","coordinates":[[172.627688,-43.536511900000015],[172.6276814,-43.5364317]]}}
,
{"type":"Feature","id":"way/114502608/1","properties":{"access":"yes","foot":"yes","highway":"tertiary","maxspeed":"50","name":"Colombo Street","id":"way/114502608/1","weighting":10},"geometry":{"type":"LineString","coordinates":[[172.63665319999993,-43.526936700000014],[172.63665399999994,-43.5270458]]}}
,
{"type":"Feature","id":"way/114648656/8","properties":{"highway":"tertiary","lanes":"2","maxspeed":"50","name":"Colombo Street","id":"way/114648656/8","weighting":10},"geometry":{"type":"LineString","coordinates":[[172.6367309,-43.5390514],[172.636733,-43.5398494]]}}
,
{"type":"Feature","id":"way/114648690/0","properties":{"highway":"tertiary","maxspeed":"70","name":"Cavendish Road","source:name":"openstreetbugs","id":"way/114648690/0","weighting":10},"geometry":{"type":"LineString","coordinates":[[172.6073019,-43.4699736],[172.6070701,-43.472739200000014]]}}
,
{"type":"Feature","id":"way/114648690/1","properties":{"highway":"tertiary","maxspeed":"70","name":"Cavendish Road","source:name":"openstreetbugs","id":"way/114648690/1","weighting":10},"geometry":{"type":"LineString","coordinates":[[172.6070701,-43.472739200000014],[172.6069409,-43.4741637]]}}
,
{"type":"Feature","id":"way/114648693/1","properties":{"cycleway":"lane","highway":"tertiary","maxspeed":"50","name":"Victoria Street","id":"way/114648693/1","weighting":10},"geometry":{"type":"LineString","coordinates":[[172.6303667,-43.52403560000001],[172.62905009999994,-43.52225040000001]]}}
,
{"type":"Feature","id":"way/114648693/2","properties":{"cycleway":"lane","highway":"tertiary","maxspeed":"50","name":"Victoria Street","id":"way/114648693/2","weighting":10},"geometry":{"type":"LineString","coordinates":[[172.62905009999994,-43.52225040000001],[172.62822150000005,-43.5210574]]}}
,
{"type":"Feature","id":"way/114648693/3","properties":{"cycleway":"lane","highway":"tertiary","maxspeed":"50","name":"Victoria Street","id":"way/114648693/3","weighting":10},"geometry":{"type":"LineString","coordinates":[[172.62822150000005,-43.5210574],[172.6281549,-43.5209855]]}}
,
{"type":"Feature","id":"way/114770275/0","properties":{"highway":"tertiary","maxspeed":"50","name":"Briggs Road","id":"way/114770275/0","weighting":10},"geometry":{"type":"LineString","coordinates":[[172.6541777,-43.4962942],[172.6540969,-43.4962267]]}}
,
{"type":"Feature","id":"way/114770275/1","properties":{"highway":"tertiary","maxspeed":"50","name":"Briggs Road","id":"way/114770275/1","weighting":10},"geometry":{"type":"LineString","coordinates":[[172.6540969,-43.4962267],[172.65406149999998,-43.496212600000014]]}}
,
{"type":"Feature","id":"way/114770275/2","properties":{"highway":"tertiary","maxspeed":"50","name":"Briggs Road","id":"way/114770275/2","weighting":10},"geometry":{"type":"LineString","coordinates":[[172.65406149999998,-43.496212600000014],[172.65397289999999,-43.49617720000001]]}}
,
{"type":"Feature","id":"way/114770275/3","properties":{"highway":"tertiary","maxspeed":"50","name":"Briggs Road","id":"way/114770275/3","weighting":10},"geometry":{"type":"LineString","coordinates":[[172.65397289999999,-43.49617720000001],[172.65384930000005,-43.49615900000001]]}}
,
{"type":"Feature","id":"way/114770275/4","properties":{"highway":"tertiary","maxspeed":"50","name":"Briggs Road","id":"way/114770275/4","weighting":10},"geometry":{"type":"LineString","coordinates":[[172.65384930000005,-43.49615900000001],[172.65365129999995,-43.4961866]]}}
,
{"type":"Feature","id":"way/114770275/5","properties":{"highway":"tertiary","maxspeed":"50","name":"Briggs Road","id":"way/114770275/5","weighting":10},"geometry":{"type":"LineString","coordinates":[[172.65365129999995,-43.4961866],[172.6533902,-43.4962073]]}}
,
{"type":"Feature","id":"way/114770275/6","properties":{"highway":"tertiary","maxspeed":"50","name":"Briggs Road","id":"way/114770275/6","weighting":10},"geometry":{"type":"LineString","coordinates":[[172.6533902,-43.4962073],[172.65238850000006,-43.49621610000001]]}}
,
{"type":"Feature","id":"way/116344267/1","properties":{"access":"yes","foot":"yes","highway":"unclassified","lanes":"2","maxspeed":"50","name":"Cashel Street","id":"way/116344267/1","weighting":10},"geometry":{"type":"LineString","coordinates":[[172.6483045,-43.533123900000014],[172.64572819999998,-43.53311630000002]]}}
,
{"type":"Feature","id":"way/116345266/0","properties":{"highway":"tertiary","maxspeed":"30","name":"Cathedral Square","id":"way/116345266/0","weighting":10},"geometry":{"type":"LineString","coordinates":[[172.63669449999998,-43.53033350000001],[172.6369788,-43.5305012]]}}
,
{"type":"Feature","id":"way/116347757/0","properties":{"ccc":"cyclingroute","highway":"tertiary","maxspeed":"50","name":"Gloucester Street","id":"way/116347757/0","weighting":10},"geometry":{"type":"LineString","coordinates":[[172.6334871,-43.5298554],[172.63390149999998,-43.5298635]]}}
,
{"type":"Feature","id":"way/116350190/0","properties":{"access":"yes","bicycle":"yes","foot":"yes","highway":"tertiary","maxspeed":"50","name":"Hereford Street","id":"way/116350190/0","weighting":10},"geometry":{"type":"LineString","coordinates":[[172.63385619999994,-43.5320465],[172.63378369999992,-43.53204570000001]]}}
,
{"type":"Feature","id":"way/116350192/0","properties":{"access":"yes","foot":"yes","highway":"tertiary","maxspeed":"30","name":"Oxford Terrace","note":"tramway disused while CBD Red Zone cordon makes the rest of the network unusable","railway":"disused","id":"way/116350192/0","weighting":10},"geometry":{"type":"LineString","coordinates":[[172.63385269999992,-43.531955],[172.63385619999994,-43.5320465]]}}
,
{"type":"Feature","id":"way/117751853/0","properties":{"ccc":"cyclingroute","highway":"tertiary","maxspeed":"50","name":"North Avon Road","id":"way/117751853/0","weighting":10},"geometry":{"type":"LineString","coordinates":[[172.656359,-43.5176452],[172.65613030000006,-43.517643699999994]]}}
,
{"type":"Feature","id":"way/117751853/1","properties":{"ccc":"cyclingroute","highway":"tertiary","maxspeed":"50","name":"North Avon Road","id":"way/117751853/1","weighting":10},"geometry":{"type":"LineString","coordinates":[[172.65613030000006,-43.517643699999994],[172.65470549999998,-43.517643699999994]]}}
,
{"type":"Feature","id":"way/117751859/0","properties":{"highway":"tertiary","lanes":"2","maxspeed":"50","name":"Breezes Road","id":"way/117751859/0","weighting":10},"geometry":{"type":"LineString","coordinates":[[172.6941689,-43.511203699999996],[172.6960158,-43.5126704]]}}
,
{"type":"Feature","id":"way/117753220/9","properties":{"highway":"tertiary","name":"Avonside Drive","id":"way/117753220/9","weighting":10},"geometry":{"type":"LineString","coordinates":[[172.68475519999993,-43.517234],[172.68576009999998,-43.517090599999996]]}}
,
{"type":"Feature","id":"way/117753220/10","properties":{"highway":"tertiary","name":"Avonside Drive","id":"way/117753220/10","weighting":10},"geometry":{"type":"LineString","coordinates":[[172.68576009999998,-43.517090599999996],[172.6863952,-43.51693500000001]]}}
,
{"type":"Feature","id":"way/117753220/11","properties":{"highway":"tertiary","name":"Avonside Drive","id":"way/117753220/11","weighting":10},"geometry":{"type":"LineString","coordinates":[[172.6863952,-43.51693500000001],[172.68661840000001,-43.5169599]]}}
,
{"type":"Feature","id":"way/117753220/12","properties":{"highway":"tertiary","name":"Avonside Drive","id":"way/117753220/12","weighting":10},"geometry":{"type":"LineString","coordinates":[[172.68661840000001,-43.5169599],[172.6867424,-43.5170138]]}}
,
{"type":"Feature","id":"way/121195914/0","properties":{"bridge":"yes","highway":"tertiary","layer":"2","maxspeed":"80","name":"Awatea Road","id":"way/121195914/0","weighting":10},"geometry":{"type":"LineString","coordinates":[[172.5538714,-43.564444699999996],[172.55342640000006,-43.5638826]]}}
,
{"type":"Feature","id":"way/121195916/7","properties":{"highway":"unclassified","maxspeed":"80","name":"Carrs Road","id":"way/121195916/7","weighting":10},"geometry":{"type":"LineString","coordinates":[[172.54955989999993,-43.5616754],[172.54981469999993,-43.5615625]]}}
,
{"type":"Feature","id":"way/121195916/8","properties":{"highway":"unclassified","maxspeed":"80","name":"Carrs Road","id":"way/121195916/8","weighting":10},"geometry":{"type":"LineString","coordinates":[[172.54981469999993,-43.5615625],[172.54996409999993,-43.5614068]]}}
,
{"type":"Feature","id":"way/121195916/9","properties":{"highway":"unclassified","maxspeed":"80","name":"Carrs Road","id":"way/121195916/9","weighting":10},"geometry":{"type":"LineString","coordinates":[[172.54996409999993,-43.5614068],[172.5499568,-43.561014]]}}
,
{"type":"Feature","id":"way/121195916/10","properties":{"highway":"unclassified","maxspeed":"80","name":"Carrs Road","id":"way/121195916/10","weighting":10},"geometry":{"type":"LineString","coordinates":[[172.5499568,-43.561014],[172.5500667,-43.56087580000001]]}}
,
{"type":"Feature","id":"way/135364029/0","properties":{"access":"yes","bicycle":"yes","highway":"tertiary","maxspeed":"50","name":"Hereford Street","id":"way/135364029/0","weighting":10},"geometry":{"type":"LineString","coordinates":[[172.6346075,-43.53205230000002],[172.63385619999994,-43.5320465]]}}
,
{"type":"Feature","id":"way/139633215/0","properties":{"access":"yes","foot":"yes","highway":"unclassified","maxspeed":"50","name":"Cashel Street","id":"way/139633215/0","weighting":10},"geometry":{"type":"LineString","coordinates":[[172.64572819999998,-43.53311630000002],[172.6428286,-43.533116000000014]]}}
,
{"type":"Feature","id":"way/139640700/0","properties":{"ccc":"cyclingroute","highway":"tertiary","maxspeed":"50","name":"Gloucester Street","id":"way/139640700/0","weighting":10},"geometry":{"type":"LineString","coordinates":[[172.63058279999996,-43.529872900000015],[172.6316202,-43.5298719]]}}
,
{"type":"Feature","id":"way/139640700/1","properties":{"ccc":"cyclingroute","highway":"tertiary","maxspeed":"50","name":"Gloucester Street","id":"way/139640700/1","weighting":10},"geometry":{"type":"LineString","coordinates":[[172.6316202,-43.5298719],[172.63168269999994,-43.529872800000014]]}}
,
{"type":"Feature","id":"way/139640700/2","properties":{"ccc":"cyclingroute","highway":"tertiary","maxspeed":"50","name":"Gloucester Street","id":"way/139640700/2","weighting":10},"geometry":{"type":"LineString","coordinates":[[172.63168269999994,-43.529872800000014],[172.6334871,-43.5298554]]}}
,
{"type":"Feature","id":"way/139909320/0","properties":{"highway":"tertiary","lanes":"2","maxspeed":"50","name":"Barbadoes Street","id":"way/139909320/0","weighting":10},"geometry":{"type":"LineString","coordinates":[[172.64570709999998,-43.5208006],[172.64556439999993,-43.52095060000001]]}}
,
{"type":"Feature","id":"way/140190948/0","properties":{"highway":"tertiary","name":"Avonside Drive","id":"way/140190948/0","weighting":10},"geometry":{"type":"LineString","coordinates":[[172.67125469999993,-43.52175240000001],[172.67208159999998,-43.5218367]]}}
,
{"type":"Feature","id":"way/140190948/1","properties":{"highway":"tertiary","name":"Avonside Drive","id":"way/140190948/1","weighting":10},"geometry":{"type":"LineString","coordinates":[[172.67208159999998,-43.5218367],[172.6726875,-43.5217905]]}}
,
{"type":"Feature","id":"way/140192350/0","properties":{"highway":"tertiary","maxspeed":"50","name":"Breezes Road","id":"way/140192350/0","weighting":10},"geometry":{"type":"LineString","coordinates":[[172.6892315,-43.5092976],[172.69092519999998,-43.5097621]]}}
,
{"type":"Feature","id":"way/140192350/1","properties":{"highway":"tertiary","maxspeed":"50","name":"Breezes Road","id":"way/140192350/1","weighting":10},"geometry":{"type":"LineString","coordinates":[[172.69092519999998,-43.5097621],[172.6913648,-43.5098826]]}}
,
{"type":"Feature","id":"way/140192350/2","properties":{"highway":"tertiary","maxspeed":"50","name":"Breezes Road","id":"way/140192350/2","weighting":10},"geometry":{"type":"LineString","coordinates":[[172.6913648,-43.5098826],[172.69205359999998,-43.510083099999996]]}}
,
{"type":"Feature","id":"way/140192350/3","properties":{"highway":"tertiary","maxspeed":"50","name":"Breezes Road","id":"way/140192350/3","weighting":10},"geometry":{"type":"LineString","coordinates":[[172.69205359999998,-43.510083099999996],[172.6928725,-43.51032280000001]]}}
,
{"type":"Feature","id":"way/140192350/4","properties":{"highway":"tertiary","maxspeed":"50","name":"Breezes Road","id":"way/140192350/4","weighting":10},"geometry":{"type":"LineString","coordinates":[[172.6928725,-43.51032280000001],[172.69311469999994,-43.51045439999999]]}}
,
{"type":"Feature","id":"way/140192350/5","properties":{"highway":"tertiary","maxspeed":"50","name":"Breezes Road","id":"way/140192350/5","weighting":10},"geometry":{"type":"LineString","coordinates":[[172.69311469999994,-43.51045439999999],[172.6941689,-43.511203699999996]]}}
,
{"type":"Feature","id":"way/140192368/0","properties":{"highway":"tertiary","lanes":"2","maxspeed":"50","name":"Breezes Road","id":"way/140192368/0","weighting":10},"geometry":{"type":"LineString","coordinates":[[172.69844480000006,-43.5145627],[172.70137409999998,-43.5168973]]}}
,
{"type":"Feature","id":"way/140192368/1","properties":{"highway":"tertiary","lanes":"2","maxspeed":"50","name":"Breezes Road","id":"way/140192368/1","weighting":10},"geometry":{"type":"LineString","coordinates":[[172.70137409999998,-43.5168973],[172.7017266,-43.5172119]]}}
,
{"type":"Feature","id":"way/140192368/2","properties":{"highway":"tertiary","lanes":"2","maxspeed":"50","name":"Breezes Road","id":"way/140192368/2","weighting":10},"geometry":{"type":"LineString","coordinates":[[172.7017266,-43.5172119],[172.70181269999998,-43.517288799999996]]}}
,
{"type":"Feature","id":"way/140192613/0","properties":{"highway":"tertiary","name":"Avonside Drive","id":"way/140192613/0","weighting":10},"geometry":{"type":"LineString","coordinates":[[172.6726875,-43.5217905],[172.67410429999995,-43.5216963]]}}
,
{"type":"Feature","id":"way/140192613/1","properties":{"highway":"tertiary","name":"Avonside Drive","id":"way/140192613/1","weighting":10},"geometry":{"type":"LineString","coordinates":[[172.67410429999995,-43.5216963],[172.67428449999994,-43.5216466]]}}
,
{"type":"Feature","id":"way/140192613/2","properties":{"highway":"tertiary","name":"Avonside Drive","id":"way/140192613/2","weighting":10},"geometry":{"type":"LineString","coordinates":[[172.67428449999994,-43.5216466],[172.67480809999998,-43.5214598]]}}
,
{"type":"Feature","id":"way/145219426/0","properties":{"ccc":"cyclingroute","highway":"unclassified","lanes":"2","maxspeed":"50","name":"Ferry Road","id":"way/145219426/0","weighting":10},"geometry":{"type":"LineString","coordinates":[[172.65643140000006,-43.5399271],[172.6563016,-43.539793300000014]]}}
,
{"type":"Feature","id":"way/145219426/1","properties":{"ccc":"cyclingroute","highway":"unclassified","lanes":"2","maxspeed":"50","name":"Ferry Road","id":"way/145219426/1","weighting":10},"geometry":{"type":"LineString","coordinates":[[172.6563016,-43.539793300000014],[172.6561246,-43.5396767]]}}
,
{"type":"Feature","id":"way/159654455/0","properties":{"highway":"tertiary","name":"Sumner Road","id":"way/159654455/0","weighting":10},"geometry":{"type":"LineString","coordinates":[[172.7279421,-43.606375200000016],[172.72761559999998,-43.6065346]]}}
,
{"type":"Feature","id":"way/159654455/3","properties":{"highway":"tertiary","name":"Sumner Road","id":"way/159654455/3","weighting":10},"geometry":{"type":"LineString","coordinates":[[172.72655849999998,-43.6071234],[172.7263007,-43.6071467]]}}
,
{"type":"Feature","id":"way/159654455/4","properties":{"highway":"tertiary","name":"Sumner Road","id":"way/159654455/4","weighting":10},"geometry":{"type":"LineString","coordinates":[[172.7263007,-43.6071467],[172.72599169999998,-43.6071467]]}}
,
{"type":"Feature","id":"way/159654455/5","properties":{"highway":"tertiary","name":"Sumner Road","id":"way/159654455/5","weighting":10},"geometry":{"type":"LineString","coordinates":[[172.72599169999998,-43.6071467],[172.7258287,-43.60713420000001]]}}
,
{"type":"Feature","id":"way/159654455/6","properties":{"highway":"tertiary","name":"Sumner Road","id":"way/159654455/6","weighting":10},"geometry":{"type":"LineString","coordinates":[[172.7258287,-43.60713420000001],[172.72569259999995,-43.607085]]}}
,
{"type":"Feature","id":"way/159654455/7","properties":{"highway":"tertiary","name":"Sumner Road","id":"way/159654455/7","weighting":10},"geometry":{"type":"LineString","coordinates":[[172.72569259999995,-43.607085],[172.72557119999993,-43.6069851]]}}
,
{"type":"Feature","id":"way/159654455/8","properties":{"highway":"tertiary","name":"Sumner Road","id":"way/159654455/8","weighting":10},"geometry":{"type":"LineString","coordinates":[[172.72557119999993,-43.6069851],[172.7254246,-43.60675250000001]]}}
,
{"type":"Feature","id":"way/159654455/9","properties":{"highway":"tertiary","name":"Sumner Road","id":"way/159654455/9","weighting":10},"geometry":{"type":"LineString","coordinates":[[172.7254246,-43.60675250000001],[172.7253738,-43.60663080000001]]}}
,
{"type":"Feature","id":"way/159654455/10","properties":{"highway":"tertiary","name":"Sumner Road","id":"way/159654455/10","weighting":10},"geometry":{"type":"LineString","coordinates":[[172.7253738,-43.60663080000001],[172.7253509,-43.6062887]]}}
,
{"type":"Feature","id":"way/159654455/11","properties":{"highway":"tertiary","name":"Sumner Road","id":"way/159654455/11","weighting":10},"geometry":{"type":"LineString","coordinates":[[172.7253509,-43.6062887],[172.7253449,-43.606165800000014]]}}
,
{"type":"Feature","id":"way/159654455/12","properties":{"highway":"tertiary","name":"Sumner Road","id":"way/159654455/12","weighting":10},"geometry":{"type":"LineString","coordinates":[[172.7253449,-43.606165800000014],[172.7253302,-43.605699]]}}
,
{"type":"Feature","id":"way/159654455/13","properties":{"highway":"tertiary","name":"Sumner Road","id":"way/159654455/13","weighting":10},"geometry":{"type":"LineString","coordinates":[[172.7253302,-43.605699],[172.7253234,-43.60551830000003]]}}
,
{"type":"Feature","id":"way/159654455/14","properties":{"highway":"tertiary","name":"Sumner Road","id":"way/159654455/14","weighting":10},"geometry":{"type":"LineString","coordinates":[[172.7253234,-43.60551830000003],[172.72524860000001,-43.60533130000002]]}}
,
{"type":"Feature","id":"way/159654455/15","properties":{"highway":"tertiary","name":"Sumner Road","id":"way/159654455/15","weighting":10},"geometry":{"type":"LineString","coordinates":[[172.72524860000001,-43.60533130000002],[172.72513680000006,-43.6052215]]}}
,
{"type":"Feature","id":"way/159654455/16","properties":{"highway":"tertiary","name":"Sumner Road","id":"way/159654455/16","weighting":10},"geometry":{"type":"LineString","coordinates":[[172.72513680000006,-43.6052215],[172.7251062,-43.605193000000014]]}}
,
{"type":"Feature","id":"way/159654455/17","properties":{"highway":"tertiary","name":"Sumner Road","id":"way/159654455/17","weighting":10},"geometry":{"type":"LineString","coordinates":[[172.7251062,-43.605193000000014],[172.7250322,-43.605128000000015]]}}
,
{"type":"Feature","id":"way/159654455/18","properties":{"highway":"tertiary","name":"Sumner Road","id":"way/159654455/18","weighting":10},"geometry":{"type":"LineString","coordinates":[[172.7250322,-43.605128000000015],[172.7244776,-43.6046596]]}}
,
{"type":"Feature","id":"way/159654455/19","properties":{"highway":"tertiary","name":"Sumner Road","id":"way/159654455/19","weighting":10},"geometry":{"type":"LineString","coordinates":[[172.7244776,-43.6046596],[172.72416069999994,-43.6044131]]}}
,
{"type":"Feature","id":"way/159654455/20","properties":{"highway":"tertiary","name":"Sumner Road","id":"way/159654455/20","weighting":10},"geometry":{"type":"LineString","coordinates":[[172.72416069999994,-43.6044131],[172.7241319,-43.6043899]]}}
,
{"type":"Feature","id":"way/159654455/21","properties":{"highway":"tertiary","name":"Sumner Road","id":"way/159654455/21","weighting":10},"geometry":{"type":"LineString","coordinates":[[172.7241319,-43.6043899],[172.72400399999998,-43.60428699999999]]}}
,
{"type":"Feature","id":"way/159654455/22","properties":{"highway":"tertiary","name":"Sumner Road","id":"way/159654455/22","weighting":10},"geometry":{"type":"LineString","coordinates":[[172.72400399999998,-43.60428699999999],[172.7239233,-43.60421630000001]]}}
,
{"type":"Feature","id":"way/159654455/23","properties":{"highway":"tertiary","name":"Sumner Road","id":"way/159654455/23","weighting":10},"geometry":{"type":"LineString","coordinates":[[172.7239233,-43.60421630000001],[172.72369589999994,-43.6039819]]}}
,
{"type":"Feature","id":"way/159654455/24","properties":{"highway":"tertiary","name":"Sumner Road","id":"way/159654455/24","weighting":10},"geometry":{"type":"LineString","coordinates":[[172.72369589999994,-43.6039819],[172.72359289999994,-43.6038017]]}}
,
{"type":"Feature","id":"way/159654455/25","properties":{"highway":"tertiary","name":"Sumner Road","id":"way/159654455/25","weighting":10},"geometry":{"type":"LineString","coordinates":[[172.72359289999994,-43.6038017],[172.7234695,-43.6034818]]}}
,
{"type":"Feature","id":"way/159654455/26","properties":{"highway":"tertiary","name":"Sumner Road","id":"way/159654455/26","weighting":10},"geometry":{"type":"LineString","coordinates":[[172.7234695,-43.6034818],[172.72344750000005,-43.6034247]]}}
,
{"type":"Feature","id":"way/159654455/27","properties":{"highway":"tertiary","name":"Sumner Road","id":"way/159654455/27","weighting":10},"geometry":{"type":"LineString","coordinates":[[172.72344750000005,-43.6034247],[172.7234205,-43.60335480000001]]}}
,
{"type":"Feature","id":"way/159654455/28","properties":{"highway":"tertiary","name":"Sumner Road","id":"way/159654455/28","weighting":10},"geometry":{"type":"LineString","coordinates":[[172.7234205,-43.60335480000001],[172.7233233,-43.60323860000001]]}}
,
{"type":"Feature","id":"way/159654455/29","properties":{"highway":"tertiary","name":"Sumner Road","id":"way/159654455/29","weighting":10},"geometry":{"type":"LineString","coordinates":[[172.7233233,-43.60323860000001],[172.723178,-43.6031416]]}}
,
{"type":"Feature","id":"way/159654455/30","properties":{"highway":"tertiary","name":"Sumner Road","id":"way/159654455/30","weighting":10},"geometry":{"type":"LineString","coordinates":[[172.723178,-43.6031416],[172.7229615,-43.6030478]]}}
,
{"type":"Feature","id":"way/159654455/31","properties":{"highway":"tertiary","name":"Sumner Road","id":"way/159654455/31","weighting":10},"geometry":{"type":"LineString","coordinates":[[172.7229615,-43.6030478],[172.722759,-43.602992700000016]]}}
,
{"type":"Feature","id":"way/159654455/32","properties":{"highway":"tertiary","name":"Sumner Road","id":"way/159654455/32","weighting":10},"geometry":{"type":"LineString","coordinates":[[172.722759,-43.602992700000016],[172.7226795,-43.60297110000001]]}}
,
{"type":"Feature","id":"way/160069913/0","properties":{"continues":"no","highway":"unclassified","name":"Tussock Lane","source":"Bing;observation","id":"way/160069913/0","weighting":10},"geometry":{"type":"LineString","coordinates":[[172.70677669999998,-43.5593473],[172.7070843,-43.5599104]]}}
,
{"type":"Feature","id":"way/180749577/0","properties":{"highway":"tertiary","maxspeed":"50","name":"Stanmore Road","id":"way/180749577/0","weighting":10},"geometry":{"type":"LineString","coordinates":[[172.6564151,-43.521861799999996],[172.65641140000005,-43.522307300000016]]}}
,
{"type":"Feature","id":"way/180749577/1","properties":{"highway":"tertiary","maxspeed":"50","name":"Stanmore Road","id":"way/180749577/1","weighting":10},"geometry":{"type":"LineString","coordinates":[[172.65641140000005,-43.522307300000016],[172.6567919,-43.52357340000001]]}}
,
{"type":"Feature","id":"way/181412700/0","properties":{"highway":"tertiary","junction":"roundabout","maxspeed":"50","id":"way/181412700/0","weighting":10},"geometry":{"type":"LineString","coordinates":[[172.59485959999998,-43.5441213],[172.59487119999994,-43.5441349]]}}
,
{"type":"Feature","id":"way/181412700/1","properties":{"highway":"tertiary","junction":"roundabout","maxspeed":"50","id":"way/181412700/1","weighting":10},"geometry":{"type":"LineString","coordinates":[[172.59487119999994,-43.5441349],[172.5948783,-43.544163499999996]]}}
,
{"type":"Feature","id":"way/181412700/2","properties":{"highway":"tertiary","junction":"roundabout","maxspeed":"50","id":"way/181412700/2","weighting":10},"geometry":{"type":"LineString","coordinates":[[172.5948783,-43.544163499999996],[172.59487099999998,-43.5441821]]}}
,
{"type":"Feature","id":"way/181412700/3","properties":{"highway":"tertiary","junction":"roundabout","maxspeed":"50","id":"way/181412700/3","weighting":10},"geometry":{"type":"LineString","coordinates":[[172.59487099999998,-43.5441821],[172.59485259999994,-43.5441998]]}}
,
{"type":"Feature","id":"way/181412700/4","properties":{"highway":"tertiary","junction":"roundabout","maxspeed":"50","id":"way/181412700/4","weighting":10},"geometry":{"type":"LineString","coordinates":[[172.59485259999994,-43.5441998],[172.5948298,-43.5442098]]}}
,
{"type":"Feature","id":"way/181412700/5","properties":{"highway":"tertiary","junction":"roundabout","maxspeed":"50","id":"way/181412700/5","weighting":10},"geometry":{"type":"LineString","coordinates":[[172.5948298,-43.5442098],[172.59481369999995,-43.544213]]}}
,
{"type":"Feature","id":"way/181412700/6","properties":{"highway":"tertiary","junction":"roundabout","maxspeed":"50","id":"way/181412700/6","weighting":10},"geometry":{"type":"LineString","coordinates":[[172.59481369999995,-43.544213],[172.5947871,-43.5442126]]}}
,
{"type":"Feature","id":"way/181412700/7","properties":{"highway":"tertiary","junction":"roundabout","maxspeed":"50","id":"way/181412700/7","weighting":10},"geometry":{"type":"LineString","coordinates":[[172.5947871,-43.5442126],[172.59475589999994,-43.5442025]]}}
,
{"type":"Feature","id":"way/181412700/8","properties":{"highway":"tertiary","junction":"roundabout","maxspeed":"50","id":"way/181412700/8","weighting":10},"geometry":{"type":"LineString","coordinates":[[172.59475589999994,-43.5442025],[172.59473369999998,-43.5441837]]}}
,
{"type":"Feature","id":"way/181412700/9","properties":{"highway":"tertiary","junction":"roundabout","maxspeed":"50","id":"way/181412700/9","weighting":10},"geometry":{"type":"LineString","coordinates":[[172.59473369999998,-43.5441837],[172.59472569999994,-43.5441652]]}}
,
{"type":"Feature","id":"way/181412700/10","properties":{"highway":"tertiary","junction":"roundabout","maxspeed":"50","id":"way/181412700/10","weighting":10},"geometry":{"type":"LineString","coordinates":[[172.59472569999994,-43.5441652],[172.59472569999994,-43.54415080000001]]}}
,
{"type":"Feature","id":"way/181412700/11","properties":{"highway":"tertiary","junction":"roundabout","maxspeed":"50","id":"way/181412700/11","weighting":10},"geometry":{"type":"LineString","coordinates":[[172.59472569999994,-43.54415080000001],[172.594739,-43.5441261]]}}
,
{"type":"Feature","id":"way/181412700/12","properties":{"highway":"tertiary","junction":"roundabout","maxspeed":"50","id":"way/181412700/12","weighting":10},"geometry":{"type":"LineString","coordinates":[[172.594739,-43.5441261],[172.5947579,-43.5441124]]}}
,
{"type":"Feature","id":"way/181412700/13","properties":{"highway":"tertiary","junction":"roundabout","maxspeed":"50","id":"way/181412700/13","weighting":10},"geometry":{"type":"LineString","coordinates":[[172.5947579,-43.5441124],[172.59478199999998,-43.5441042]]}}
,
{"type":"Feature","id":"way/181412700/14","properties":{"highway":"tertiary","junction":"roundabout","maxspeed":"50","id":"way/181412700/14","weighting":10},"geometry":{"type":"LineString","coordinates":[[172.59478199999998,-43.5441042],[172.59480449999998,-43.5441024]]}}
,
{"type":"Feature","id":"way/181412700/15","properties":{"highway":"tertiary","junction":"roundabout","maxspeed":"50","id":"way/181412700/15","weighting":10},"geometry":{"type":"LineString","coordinates":[[172.59480449999998,-43.5441024],[172.5948306,-43.5441064]]}}
,
{"type":"Feature","id":"way/181412700/16","properties":{"highway":"tertiary","junction":"roundabout","maxspeed":"50","id":"way/181412700/16","weighting":10},"geometry":{"type":"LineString","coordinates":[[172.5948306,-43.5441064],[172.59485349999994,-43.54411680000001]]}}
,
{"type":"Feature","id":"way/181412700/17","properties":{"highway":"tertiary","junction":"roundabout","maxspeed":"50","id":"way/181412700/17","weighting":10},"geometry":{"type":"LineString","coordinates":[[172.59485349999994,-43.54411680000001],[172.59485959999998,-43.5441213]]}}
,
{"type":"Feature","id":"way/181412703/0","properties":{"highway":"tertiary","maxspeed":"50","name":"Matipo Street","id":"way/181412703/0","weighting":10},"geometry":{"type":"LineString","coordinates":[[172.59706549999999,-43.5413459],[172.59708830000005,-43.541246799999996]]}}
,
{"type":"Feature","id":"way/181412703/1","properties":{"highway":"tertiary","maxspeed":"50","name":"Matipo Street","id":"way/181412703/1","weighting":10},"geometry":{"type":"LineString","coordinates":[[172.59708830000005,-43.541246799999996],[172.597095,-43.5411661]]}}
,
{"type":"Feature","id":"way/181412703/2","properties":{"highway":"tertiary","maxspeed":"50","name":"Matipo Street","id":"way/181412703/2","weighting":10},"geometry":{"type":"LineString","coordinates":[[172.597095,-43.5411661],[172.5970948,-43.541061499999984]]}}
,
{"type":"Feature","id":"way/202247728/0","properties":{"highway":"unclassified","name":"Richmond Hill Road","id":"way/202247728/0","weighting":10},"geometry":{"type":"LineString","coordinates":[[172.752274,-43.5765279],[172.7527729,-43.57630250000001]]}}
,
{"type":"Feature","id":"way/202247728/1","properties":{"highway":"unclassified","name":"Richmond Hill Road","id":"way/202247728/1","weighting":10},"geometry":{"type":"LineString","coordinates":[[172.7527729,-43.57630250000001],[172.75294950000006,-43.57619800000001]]}}
,
{"type":"Feature","id":"way/202247728/2","properties":{"highway":"unclassified","name":"Richmond Hill Road","id":"way/202247728/2","weighting":10},"geometry":{"type":"LineString","coordinates":[[172.75294950000006,-43.57619800000001],[172.7531948,-43.5758008]]}}
,
{"type":"Feature","id":"way/202247728/3","properties":{"highway":"unclassified","name":"Richmond Hill Road","id":"way/202247728/3","weighting":10},"geometry":{"type":"LineString","coordinates":[[172.7531948,-43.5758008],[172.7531323,-43.57543200000001]]}}
,
{"type":"Feature","id":"way/202247728/4","properties":{"highway":"unclassified","name":"Richmond Hill Road","id":"way/202247728/4","weighting":10},"geometry":{"type":"LineString","coordinates":[[172.7531323,-43.57543200000001],[172.7533397,-43.57520620000001]]}}
,
{"type":"Feature","id":"way/202247728/5","properties":{"highway":"unclassified","name":"Richmond Hill Road","id":"way/202247728/5","weighting":10},"geometry":{"type":"LineString","coordinates":[[172.7533397,-43.57520620000001],[172.75359359999993,-43.57510960000001]]}}
,
{"type":"Feature","id":"way/202247733/10","properties":{"highway":"unclassified","name":"De Thier Lane","id":"way/202247733/10","weighting":10},"geometry":{"type":"LineString","coordinates":[[172.75444950000005,-43.5732197],[172.7545393,-43.57321390000001]]}}
,
{"type":"Feature","id":"way/202247733/11","properties":{"highway":"unclassified","name":"De Thier Lane","id":"way/202247733/11","weighting":10},"geometry":{"type":"LineString","coordinates":[[172.7545393,-43.57321390000001],[172.75466899999998,-43.573137]]}}
,
{"type":"Feature","id":"way/202247735/0","properties":{"highway":"unclassified","name":"Sanscrit Place","id":"way/202247735/0","weighting":10},"geometry":{"type":"LineString","coordinates":[[172.7541308,-43.5741484],[172.754023,-43.5742001]]}}
,
{"type":"Feature","id":"way/205300128/0","properties":{"highway":"tertiary","maxspeed":"50","name":"Cavendish Road","source:name":"openstreetbugs","id":"way/205300128/0","weighting":10},"geometry":{"type":"LineString","coordinates":[[172.6069409,-43.4741637],[172.6068899,-43.4747261]]}}
,
{"type":"Feature","id":"way/206789267/0","properties":{"access":"yes","foot":"yes","highway":"tertiary","maxspeed":"30","name":"Colombo Street","id":"way/206789267/0","weighting":10},"geometry":{"type":"LineString","coordinates":[[172.6366814,-43.5298817],[172.63669449999998,-43.53033350000001]]}}
,
{"type":"Feature","id":"way/230773706/0","properties":{"highway":"tertiary","name":"North Parade","oneway":"yes","id":"way/230773706/0","weighting":10},"geometry":{"type":"LineString","coordinates":[[172.6628669,-43.508053300000014],[172.6629224,-43.508129900000014]]}}
,
{"type":"Feature","id":"way/230773706/1","properties":{"highway":"tertiary","name":"North Parade","oneway":"yes","id":"way/230773706/1","weighting":10},"geometry":{"type":"LineString","coordinates":[[172.6629224,-43.508129900000014],[172.66293650000006,-43.50817210000002]]}}
,
{"type":"Feature","id":"way/230773706/2","properties":{"highway":"tertiary","name":"North Parade","oneway":"yes","id":"way/230773706/2","weighting":10},"geometry":{"type":"LineString","coordinates":[[172.66293650000006,-43.50817210000002],[172.66310119999994,-43.50961930000001]]}}
,
{"type":"Feature","id":"way/230773707/4","properties":{"ccc":"cyclingroute","highway":"tertiary","maxspeed":"50","name":"North Parade","oneway":"yes","id":"way/230773707/4","weighting":10},"geometry":{"type":"LineString","coordinates":[[172.66298419999998,-43.50952810000001],[172.6628523,-43.508159100000015]]}}
,
{"type":"Feature","id":"way/230773707/5","properties":{"ccc":"cyclingroute","highway":"tertiary","maxspeed":"50","name":"North Parade","oneway":"yes","id":"way/230773707/5","weighting":10},"geometry":{"type":"LineString","coordinates":[[172.6628523,-43.508159100000015],[172.66285569999994,-43.508134800000015]]}}
,
{"type":"Feature","id":"way/230773707/6","properties":{"ccc":"cyclingroute","highway":"tertiary","maxspeed":"50","name":"North Parade","oneway":"yes","id":"way/230773707/6","weighting":10},"geometry":{"type":"LineString","coordinates":[[172.66285569999994,-43.508134800000015],[172.6628669,-43.508053300000014]]}}
,
{"type":"Feature","id":"way/231307195/0","properties":{"highway":"tertiary","maxspeed":"50","name":"River Road","id":"way/231307195/0","weighting":10},"geometry":{"type":"LineString","coordinates":[[172.66386359999993,-43.517587699999986],[172.66386359999993,-43.5169964]]}}
,
{"type":"Feature","id":"way/231307195/1","properties":{"highway":"tertiary","maxspeed":"50","name":"River Road","id":"way/231307195/1","weighting":10},"geometry":{"type":"LineString","coordinates":[[172.66386359999993,-43.5169964],[172.66418119999994,-43.51639270000001]]}}
,
{"type":"Feature","id":"way/231307195/2","properties":{"highway":"tertiary","maxspeed":"50","name":"River Road","id":"way/231307195/2","weighting":10},"geometry":{"type":"LineString","coordinates":[[172.66418119999994,-43.51639270000001],[172.66522030000004,-43.5153696]]}}
,
{"type":"Feature","id":"way/231307195/3","properties":{"highway":"tertiary","maxspeed":"50","name":"River Road","id":"way/231307195/3","weighting":10},"geometry":{"type":"LineString","coordinates":[[172.66522030000004,-43.5153696],[172.66523690000005,-43.515353200000014]]}}
,
{"type":"Feature","id":"way/231307195/4","properties":{"highway":"tertiary","maxspeed":"50","name":"River Road","id":"way/231307195/4","weighting":10},"geometry":{"type":"LineString","coordinates":[[172.66523690000005,-43.515353200000014],[172.6653915,-43.51523510000001]]}}
,
{"type":"Feature","id":"way/231307195/5","properties":{"highway":"tertiary","maxspeed":"50","name":"River Road","id":"way/231307195/5","weighting":10},"geometry":{"type":"LineString","coordinates":[[172.6653915,-43.51523510000001],[172.6657176,-43.51498599999999]]}}
,
{"type":"Feature","id":"way/231314596/0","properties":{"highway":"tertiary","maxspeed":"30","name":"Oxford Terrace","id":"way/231314596/0","weighting":10},"geometry":{"type":"LineString","coordinates":[[172.6344673,-43.5298604],[172.6340465,-43.5302917]]}}
,
{"type":"Feature","id":"way/231314596/5","properties":{"highway":"tertiary","maxspeed":"30","name":"Oxford Terrace","id":"way/231314596/5","weighting":10},"geometry":{"type":"LineString","coordinates":[[172.6339094,-43.53058280000001],[172.63386939999998,-43.5309448]]}}
,
{"type":"Feature","id":"way/235081846/0","properties":{"highway":"tertiary","layer":"0","maxspeed":"50","name":"Wrights Road","oneway":"yes","id":"way/235081846/0","weighting":10},"geometry":{"type":"LineString","coordinates":[[172.60068559999993,-43.54951420000001],[172.600843,-43.549685499999995]]}}
,
{"type":"Feature","id":"way/235081846/1","properties":{"highway":"tertiary","layer":"0","maxspeed":"50","name":"Wrights Road","oneway":"yes","id":"way/235081846/1","weighting":10},"geometry":{"type":"LineString","coordinates":[[172.600843,-43.549685499999995],[172.6009813,-43.5499442]]}}
,
{"type":"Feature","id":"way/235081846/2","properties":{"highway":"tertiary","layer":"0","maxspeed":"50","name":"Wrights Road","oneway":"yes","id":"way/235081846/2","weighting":10},"geometry":{"type":"LineString","coordinates":[[172.6009813,-43.5499442],[172.6010185,-43.5500326]]}}
,
{"type":"Feature","id":"way/235081847/0","properties":{"highway":"tertiary","maxspeed":"50","name":"Lyttelton Street","oneway":"no","id":"way/235081847/0","weighting":10},"geometry":{"type":"LineString","coordinates":[[172.60179680000005,-43.550849799999995],[172.60151499999998,-43.5506087]]}}
,
{"type":"Feature","id":"way/235081850/0","properties":{"highway":"tertiary","maxspeed":"50","name":"Lyttelton Street","oneway":"yes","id":"way/235081850/0","weighting":10},"geometry":{"type":"LineString","coordinates":[[172.60151499999998,-43.5506087],[172.6008933,-43.5501071]]}}
,
{"type":"Feature","id":"way/235237218/0","properties":{"highway":"unclassified","maxspeed":"50","name":"Troup Drive","oneway":"yes","turn":"free_left","id":"way/235237218/0","weighting":10},"geometry":{"type":"LineString","coordinates":[[172.6044249,-43.5395613],[172.6042472,-43.5396065]]}}
,
{"type":"Feature","id":"way/235237218/1","properties":{"highway":"unclassified","maxspeed":"50","name":"Troup Drive","oneway":"yes","turn":"free_left","id":"way/235237218/1","weighting":10},"geometry":{"type":"LineString","coordinates":[[172.6042472,-43.5396065],[172.6041487,-43.539675]]}}
,
{"type":"Feature","id":"way/235237218/2","properties":{"highway":"unclassified","maxspeed":"50","name":"Troup Drive","oneway":"yes","turn":"free_left","id":"way/235237218/2","weighting":10},"geometry":{"type":"LineString","coordinates":[[172.6041487,-43.539675],[172.60406089999998,-43.53976580000001]]}}
,
{"type":"Feature","id":"way/235237219/0","properties":{"highway":"unclassified","maxspeed":"50","name":"Troup Drive","id":"way/235237219/0","weighting":10},"geometry":{"type":"LineString","coordinates":[[172.6044249,-43.5395613],[172.60480579999995,-43.53956210000001]]}}
,
{"type":"Feature","id":"way/235237219/1","properties":{"highway":"unclassified","maxspeed":"50","name":"Troup Drive","id":"way/235237219/1","weighting":10},"geometry":{"type":"LineString","coordinates":[[172.60480579999995,-43.53956210000001],[172.60545159999998,-43.5394376]]}}
,
{"type":"Feature","id":"way/235392751/0","properties":{"highway":"unclassified","maxspeed":"50","name":"Jack Hinton Drive","id":"way/235392751/0","weighting":10},"geometry":{"type":"LineString","coordinates":[[172.60473199999998,-43.5454099],[172.60611419999998,-43.544634099999996]]}}
,
{"type":"Feature","id":"way/235392751/1","properties":{"highway":"unclassified","maxspeed":"50","name":"Jack Hinton Drive","id":"way/235392751/1","weighting":10},"geometry":{"type":"LineString","coordinates":[[172.60611419999998,-43.544634099999996],[172.6074134,-43.5440101]]}}
,
{"type":"Feature","id":"way/235392752/0","properties":{"highway":"unclassified","name":"Jack Hinton Drive","id":"way/235392752/0","weighting":10},"geometry":{"type":"LineString","coordinates":[[172.60455109999992,-43.545365300000014],[172.60454579999995,-43.5453417]]}}
,
{"type":"Feature","id":"way/235392752/1","properties":{"highway":"unclassified","name":"Jack Hinton Drive","id":"way/235392752/1","weighting":10},"geometry":{"type":"LineString","coordinates":[[172.60454579999995,-43.5453417],[172.602887,-43.5439249]]}}
,
{"type":"Feature","id":"way/235392752/2","properties":{"highway":"unclassified","name":"Jack Hinton Drive","id":"way/235392752/2","weighting":10},"geometry":{"type":"LineString","coordinates":[[172.602887,-43.5439249],[172.60235980000004,-43.543477]]}}
,
{"type":"Feature","id":"way/235758268/0","properties":{"access":"yes","foot":"yes","highway":"tertiary","maxspeed":"50","name":"Armagh Street","railway":"disused","id":"way/235758268/0","weighting":10},"geometry":{"type":"LineString","coordinates":[[172.63132710000005,-43.52876670000001],[172.6318089,-43.528768200000016]]}}
,
{"type":"Feature","id":"way/235758268/1","properties":{"access":"yes","foot":"yes","highway":"tertiary","maxspeed":"50","name":"Armagh Street","railway":"disused","id":"way/235758268/1","weighting":10},"geometry":{"type":"LineString","coordinates":[[172.6318089,-43.528768200000016],[172.63361099999995,-43.52876790000001]]}}
,
{"type":"Feature","id":"way/235758269/0","properties":{"access":"yes","foot":"yes","highway":"tertiary","maxspeed":"50","name":"Armagh Street","railway":"disused","id":"way/235758269/0","weighting":10},"geometry":{"type":"LineString","coordinates":[[172.63120880000005,-43.528716400000015],[172.63132710000005,-43.52876670000001]]}}
,
{"type":"Feature","id":"way/235759343/0","properties":{"access":"yes","fixme":"one way layout","foot":"yes","highway":"tertiary","maxspeed":"30","name":"Oxford Terrace","note":"tramway reopens 2014","railway":"disused","id":"way/235759343/0","weighting":10},"geometry":{"type":"LineString","coordinates":[[172.63385619999994,-43.5320465],[172.63386659999998,-43.53257400000001]]}}
,
{"type":"Feature","id":"way/235763841/0","properties":{"highway":"unclassified","name":"High Street","oneway":"yes","turn":"free_left","id":"way/235763841/0","weighting":10},"geometry":{"type":"LineString","coordinates":[[172.64240610000004,-43.53619910000001],[172.64256119999993,-43.5362177]]}}
,
{"type":"Feature","id":"way/235763841/1","properties":{"highway":"unclassified","name":"High Street","oneway":"yes","turn":"free_left","id":"way/235763841/1","weighting":10},"geometry":{"type":"LineString","coordinates":[[172.64256119999993,-43.5362177],[172.64274680000005,-43.5361236]]}}
,
{"type":"Feature","id":"way/235764958/0","properties":{"access":"yes","bicycle":"yes","foot":"yes","highway":"tertiary","maxspeed":"50","name":"Hereford Street","id":"way/235764958/0","weighting":10},"geometry":{"type":"LineString","coordinates":[[172.6391065,-43.5320441],[172.63967389999993,-43.5320419]]}}
,
{"type":"Feature","id":"way/235764958/1","properties":{"access":"yes","bicycle":"yes","foot":"yes","highway":"tertiary","maxspeed":"50","name":"Hereford Street","id":"way/235764958/1","weighting":10},"geometry":{"type":"LineString","coordinates":[[172.63967389999993,-43.5320419],[172.64067589999993,-43.5320344]]}}
,
{"type":"Feature","id":"way/235768785/0","properties":{"highway":"tertiary","name":"McBratneys Road","id":"way/235768785/0","weighting":10},"geometry":{"type":"LineString","coordinates":[[172.6740552999999,-43.51364039999999],[172.67416909999994,-43.513623499999994]]}}
,
{"type":"Feature","id":"way/235768785/1","properties":{"highway":"tertiary","name":"McBratneys Road","id":"way/235768785/1","weighting":10},"geometry":{"type":"LineString","coordinates":[[172.67416909999994,-43.513623499999994],[172.67527049999998,-43.5134796]]}}
,
{"type":"Feature","id":"way/235768785/2","properties":{"highway":"tertiary","name":"McBratneys Road","id":"way/235768785/2","weighting":10},"geometry":{"type":"LineString","coordinates":[[172.67527049999998,-43.5134796],[172.6774112,-43.5132022]]}}
,
{"type":"Feature","id":"way/235768786/0","properties":{"highway":"tertiary","junction":"roundabout","id":"way/235768786/0","weighting":10},"geometry":{"type":"LineString","coordinates":[[172.67395679999996,-43.5135248],[172.6739752999999,-43.5135248]]}}
,
{"type":"Feature","id":"way/235768786/1","properties":{"highway":"tertiary","junction":"roundabout","id":"way/235768786/1","weighting":10},"geometry":{"type":"LineString","coordinates":[[172.6739752999999,-43.5135248],[172.6739989,-43.5135284]]}}
,
{"type":"Feature","id":"way/235768786/2","properties":{"highway":"tertiary","junction":"roundabout","id":"way/235768786/2","weighting":10},"geometry":{"type":"LineString","coordinates":[[172.6739989,-43.5135284],[172.67403099999999,-43.5135411]]}}
,
{"type":"Feature","id":"way/235768786/3","properties":{"highway":"tertiary","junction":"roundabout","id":"way/235768786/3","weighting":10},"geometry":{"type":"LineString","coordinates":[[172.67403099999999,-43.5135411],[172.67405139999994,-43.5135567]]}}
,
{"type":"Feature","id":"way/235768786/4","properties":{"highway":"tertiary","junction":"roundabout","id":"way/235768786/4","weighting":10},"geometry":{"type":"LineString","coordinates":[[172.67405139999994,-43.5135567],[172.67406689999999,-43.5135807]]}}
,
{"type":"Feature","id":"way/235768786/5","properties":{"highway":"tertiary","junction":"roundabout","id":"way/235768786/5","weighting":10},"geometry":{"type":"LineString","coordinates":[[172.67406689999999,-43.5135807],[172.67407029999995,-43.51360699999999]]}}
,
{"type":"Feature","id":"way/235768786/6","properties":{"highway":"tertiary","junction":"roundabout","id":"way/235768786/6","weighting":10},"geometry":{"type":"LineString","coordinates":[[172.67407029999995,-43.51360699999999],[172.6740552999999,-43.51364039999999]]}}
,
{"type":"Feature","id":"way/235768786/7","properties":{"highway":"tertiary","junction":"roundabout","id":"way/235768786/7","weighting":10},"geometry":{"type":"LineString","coordinates":[[172.6740552999999,-43.51364039999999],[172.67403119999994,-43.5136603]]}}
,
{"type":"Feature","id":"way/235768786/8","properties":{"highway":"tertiary","junction":"roundabout","id":"way/235768786/8","weighting":10},"geometry":{"type":"LineString","coordinates":[[172.67403119999994,-43.5136603],[172.6740013,-43.5136724]]}}
,
{"type":"Feature","id":"way/235768786/9","properties":{"highway":"tertiary","junction":"roundabout","id":"way/235768786/9","weighting":10},"geometry":{"type":"LineString","coordinates":[[172.6740013,-43.5136724],[172.6739652999999,-43.5136769]]}}
,
{"type":"Feature","id":"way/235768786/10","properties":{"highway":"tertiary","junction":"roundabout","id":"way/235768786/10","weighting":10},"geometry":{"type":"LineString","coordinates":[[172.6739652999999,-43.5136769],[172.67392539999994,-43.5136712]]}}
,
{"type":"Feature","id":"way/235768786/11","properties":{"highway":"tertiary","junction":"roundabout","id":"way/235768786/11","weighting":10},"geometry":{"type":"LineString","coordinates":[[172.67392539999994,-43.5136712],[172.67389459999993,-43.5136569]]}}
,
{"type":"Feature","id":"way/235768786/12","properties":{"highway":"tertiary","junction":"roundabout","id":"way/235768786/12","weighting":10},"geometry":{"type":"LineString","coordinates":[[172.67389459999993,-43.5136569],[172.67388069999993,-43.5136457]]}}
,
{"type":"Feature","id":"way/235768786/13","properties":{"highway":"tertiary","junction":"roundabout","id":"way/235768786/13","weighting":10},"geometry":{"type":"LineString","coordinates":[[172.67388069999993,-43.5136457],[172.6738645999999,-43.513622]]}}
,
{"type":"Feature","id":"way/235768786/14","properties":{"highway":"tertiary","junction":"roundabout","id":"way/235768786/14","weighting":10},"geometry":{"type":"LineString","coordinates":[[172.6738645999999,-43.513622],[172.6738626999999,-43.5135852]]}}
,
{"type":"Feature","id":"way/235768786/15","properties":{"highway":"tertiary","junction":"roundabout","id":"way/235768786/15","weighting":10},"geometry":{"type":"LineString","coordinates":[[172.6738626999999,-43.5135852],[172.67387619999994,-43.5135606]]}}
,
{"type":"Feature","id":"way/235768786/16","properties":{"highway":"tertiary","junction":"roundabout","id":"way/235768786/16","weighting":10},"geometry":{"type":"LineString","coordinates":[[172.67387619999994,-43.5135606],[172.67390049999995,-43.5135409]]}}
,
{"type":"Feature","id":"way/235768786/17","properties":{"highway":"tertiary","junction":"roundabout","id":"way/235768786/17","weighting":10},"geometry":{"type":"LineString","coordinates":[[172.67390049999995,-43.5135409],[172.67392149999998,-43.5135315]]}}
,
{"type":"Feature","id":"way/235768786/18","properties":{"highway":"tertiary","junction":"roundabout","id":"way/235768786/18","weighting":10},"geometry":{"type":"LineString","coordinates":[[172.67392149999998,-43.5135315],[172.67395679999996,-43.5135248]]}}
,
{"type":"Feature","id":"way/235768787/0","properties":{"ccc":"cyclingroute","highway":"tertiary","name":"Gayhurst Road","id":"way/235768787/0","weighting":10},"geometry":{"type":"LineString","coordinates":[[172.6740013,-43.5136724],[172.67401859999998,-43.5137441]]}}
,
{"type":"Feature","id":"way/235768787/1","properties":{"ccc":"cyclingroute","highway":"tertiary","name":"Gayhurst Road","id":"way/235768787/1","weighting":10},"geometry":{"type":"LineString","coordinates":[[172.67401859999998,-43.5137441],[172.6742492,-43.514880099999985]]}}
,
{"type":"Feature","id":"way/235768787/2","properties":{"ccc":"cyclingroute","highway":"tertiary","name":"Gayhurst Road","id":"way/235768787/2","weighting":10},"geometry":{"type":"LineString","coordinates":[[172.6742492,-43.514880099999985],[172.67453759999998,-43.51631920000001]]}}
,
{"type":"Feature","id":"way/235768787/3","properties":{"ccc":"cyclingroute","highway":"tertiary","name":"Gayhurst Road","id":"way/235768787/3","weighting":10},"geometry":{"type":"LineString","coordinates":[[172.67453759999998,-43.51631920000001],[172.67481559999993,-43.517706]]}}
,
{"type":"Feature","id":"way/235768787/4","properties":{"ccc":"cyclingroute","highway":"tertiary","name":"Gayhurst Road","id":"way/235768787/4","weighting":10},"geometry":{"type":"LineString","coordinates":[[172.67481559999993,-43.517706],[172.67478989999998,-43.5179176]]}}
,
{"type":"Feature","id":"way/235768787/5","properties":{"ccc":"cyclingroute","highway":"tertiary","name":"Gayhurst Road","id":"way/235768787/5","weighting":10},"geometry":{"type":"LineString","coordinates":[[172.67478989999998,-43.5179176],[172.6744723,-43.5182288]]}}
,
{"type":"Feature","id":"way/235768787/6","properties":{"ccc":"cyclingroute","highway":"tertiary","name":"Gayhurst Road","id":"way/235768787/6","weighting":10},"geometry":{"type":"LineString","coordinates":[[172.6744723,-43.5182288],[172.67345079999996,-43.5191316]]}}
,
{"type":"Feature","id":"way/235768787/7","properties":{"ccc":"cyclingroute","highway":"tertiary","name":"Gayhurst Road","id":"way/235768787/7","weighting":10},"geometry":{"type":"LineString","coordinates":[[172.67345079999996,-43.5191316],[172.6728133,-43.5197463]]}}
,
{"type":"Feature","id":"way/235768787/8","properties":{"ccc":"cyclingroute","highway":"tertiary","name":"Gayhurst Road","id":"way/235768787/8","weighting":10},"geometry":{"type":"LineString","coordinates":[[172.6728133,-43.5197463],[172.6727454,-43.5198993]]}}
,
{"type":"Feature","id":"way/235768787/9","properties":{"ccc":"cyclingroute","highway":"tertiary","name":"Gayhurst Road","id":"way/235768787/9","weighting":10},"geometry":{"type":"LineString","coordinates":[[172.6727454,-43.5198993],[172.6727087,-43.520106800000015]]}}
,
{"type":"Feature","id":"way/235768787/10","properties":{"ccc":"cyclingroute","highway":"tertiary","name":"Gayhurst Road","id":"way/235768787/10","weighting":10},"geometry":{"type":"LineString","coordinates":[[172.6727087,-43.520106800000015],[172.6727191,-43.5204472]]}}
,
{"type":"Feature","id":"way/235768787/11","properties":{"ccc":"cyclingroute","highway":"tertiary","name":"Gayhurst Road","id":"way/235768787/11","weighting":10},"geometry":{"type":"LineString","coordinates":[[172.6727191,-43.5204472],[172.6727312,-43.5213841]]}}
,
{"type":"Feature","id":"way/236150162/0","properties":{"highway":"tertiary","layer":"0","maxspeed":"50","name":"Lyttelton Street","oneway":"yes","id":"way/236150162/0","weighting":10},"geometry":{"type":"LineString","coordinates":[[172.6010185,-43.5500326],[172.60109569999995,-43.5501621]]}}
,
{"type":"Feature","id":"way/236150162/1","properties":{"highway":"tertiary","layer":"0","maxspeed":"50","name":"Lyttelton Street","oneway":"yes","id":"way/236150162/1","weighting":10},"geometry":{"type":"LineString","coordinates":[[172.60109569999995,-43.5501621],[172.60151499999998,-43.5506087]]}}
,
{"type":"Feature","id":"way/236150163/0","properties":{"highway":"tertiary","maxspeed":"50","name":"Wrights Road","oneway":"yes","id":"way/236150163/0","weighting":10},"geometry":{"type":"LineString","coordinates":[[172.6008933,-43.5501071],[172.60085329999995,-43.5499993]]}}
,
{"type":"Feature","id":"way/236150163/1","properties":{"highway":"tertiary","maxspeed":"50","name":"Wrights Road","oneway":"yes","id":"way/236150163/1","weighting":10},"geometry":{"type":"LineString","coordinates":[[172.60085329999995,-43.5499993],[172.60082930000004,-43.5498579]]}}
,
{"type":"Feature","id":"way/236150163/2","properties":{"highway":"tertiary","maxspeed":"50","name":"Wrights Road","oneway":"yes","id":"way/236150163/2","weighting":10},"geometry":{"type":"LineString","coordinates":[[172.60082930000004,-43.5498579],[172.6007598,-43.5496959]]}}
,
{"type":"Feature","id":"way/236150163/3","properties":{"highway":"tertiary","maxspeed":"50","name":"Wrights Road","oneway":"yes","id":"way/236150163/3","weighting":10},"geometry":{"type":"LineString","coordinates":[[172.6007598,-43.5496959],[172.60068559999993,-43.54951420000001]]}}
,
{"type":"Feature","id":"way/236150550/0","properties":{"highway":"tertiary","maxspeed":"50","name":"Wrights Road","oneway":"yes","turn":"free_left","id":"way/236150550/0","weighting":10},"geometry":{"type":"LineString","coordinates":[[172.600843,-43.549685499999995],[172.60095199999998,-43.5497651]]}}
,
{"type":"Feature","id":"way/236150550/1","properties":{"highway":"tertiary","maxspeed":"50","name":"Wrights Road","oneway":"yes","turn":"free_left","id":"way/236150550/1","weighting":10},"geometry":{"type":"LineString","coordinates":[[172.60095199999998,-43.5497651],[172.6010682,-43.5497954]]}}
,
{"type":"Feature","id":"way/236150550/2","properties":{"highway":"tertiary","maxspeed":"50","name":"Wrights Road","oneway":"yes","turn":"free_left","id":"way/236150550/2","weighting":10},"geometry":{"type":"LineString","coordinates":[[172.6010682,-43.5497954],[172.6012809,-43.549787699999996]]}}
,
{"type":"Feature","id":"way/254086415/0","properties":{"ccc":"cyclingroute","fixme":"split","highway":"tertiary","maxspeed":"50","name":"Hackthorne Road","id":"way/254086415/0","weighting":10},"geometry":{"type":"LineString","coordinates":[[172.6302848,-43.577001],[172.6303704,-43.5769646]]}}
,
{"type":"Feature","id":"way/254086415/1","properties":{"ccc":"cyclingroute","fixme":"split","highway":"tertiary","maxspeed":"50","name":"Hackthorne Road","id":"way/254086415/1","weighting":10},"geometry":{"type":"LineString","coordinates":[[172.6303704,-43.5769646],[172.63050719999998,-43.576910200000015]]}}
,
{"type":"Feature","id":"way/254086415/2","properties":{"ccc":"cyclingroute","fixme":"split","highway":"tertiary","maxspeed":"50","name":"Hackthorne Road","id":"way/254086415/2","weighting":10},"geometry":{"type":"LineString","coordinates":[[172.63050719999998,-43.576910200000015],[172.63066009999994,-43.57685580000001]]}}
,
{"type":"Feature","id":"way/254086415/3","properties":{"ccc":"cyclingroute","fixme":"split","highway":"tertiary","maxspeed":"50","name":"Hackthorne Road","id":"way/254086415/3","weighting":10},"geometry":{"type":"LineString","coordinates":[[172.63066009999994,-43.57685580000001],[172.6308344,-43.5768092]]}}
,
{"type":"Feature","id":"way/254086415/4","properties":{"ccc":"cyclingroute","fixme":"split","highway":"tertiary","maxspeed":"50","name":"Hackthorne Road","id":"way/254086415/4","weighting":10},"geometry":{"type":"LineString","coordinates":[[172.6308344,-43.5768092],[172.63099269999998,-43.57678590000001]]}}
,
{"type":"Feature","id":"way/254086415/5","properties":{"ccc":"cyclingroute","fixme":"split","highway":"tertiary","maxspeed":"50","name":"Hackthorne Road","id":"way/254086415/5","weighting":10},"geometry":{"type":"LineString","coordinates":[[172.63099269999998,-43.57678590000001],[172.6311938,-43.5767606]]}}
,
{"type":"Feature","id":"way/254086415/6","properties":{"ccc":"cyclingroute","fixme":"split","highway":"tertiary","maxspeed":"50","name":"Hackthorne Road","id":"way/254086415/6","weighting":10},"geometry":{"type":"LineString","coordinates":[[172.6311938,-43.5767606],[172.63150499999998,-43.5767334]]}}
,
{"type":"Feature","id":"way/254086415/7","properties":{"ccc":"cyclingroute","fixme":"split","highway":"tertiary","maxspeed":"50","name":"Hackthorne Road","id":"way/254086415/7","weighting":10},"geometry":{"type":"LineString","coordinates":[[172.63150499999998,-43.5767334],[172.6317115,-43.57670620000001]]}}
,
{"type":"Feature","id":"way/254086415/8","properties":{"ccc":"cyclingroute","fixme":"split","highway":"tertiary","maxspeed":"50","name":"Hackthorne Road","id":"way/254086415/8","weighting":10},"geometry":{"type":"LineString","coordinates":[[172.6317115,-43.57670620000001],[172.6319341,-43.5766557]]}}
,
{"type":"Feature","id":"way/254086415/9","properties":{"ccc":"cyclingroute","fixme":"split","highway":"tertiary","maxspeed":"50","name":"Hackthorne Road","id":"way/254086415/9","weighting":10},"geometry":{"type":"LineString","coordinates":[[172.6319341,-43.5766557],[172.63213800000005,-43.5766149]]}}
,
{"type":"Feature","id":"way/254086415/10","properties":{"ccc":"cyclingroute","fixme":"split","highway":"tertiary","maxspeed":"50","name":"Hackthorne Road","id":"way/254086415/10","weighting":10},"geometry":{"type":"LineString","coordinates":[[172.63213800000005,-43.5766149],[172.632323,-43.5766091]]}}
,
{"type":"Feature","id":"way/254086415/11","properties":{"ccc":"cyclingroute","fixme":"split","highway":"tertiary","maxspeed":"50","name":"Hackthorne Road","id":"way/254086415/11","weighting":10},"geometry":{"type":"LineString","coordinates":[[172.632323,-43.5766091],[172.632543,-43.5766324]]}}
,
{"type":"Feature","id":"way/254086415/12","properties":{"ccc":"cyclingroute","fixme":"split","highway":"tertiary","maxspeed":"50","name":"Hackthorne Road","id":"way/254086415/12","weighting":10},"geometry":{"type":"LineString","coordinates":[[172.632543,-43.5766324],[172.6328166,-43.57671980000001]]}}
,
{"type":"Feature","id":"way/254086415/13","properties":{"ccc":"cyclingroute","fixme":"split","highway":"tertiary","maxspeed":"50","name":"Hackthorne Road","id":"way/254086415/13","weighting":10},"geometry":{"type":"LineString","coordinates":[[172.6328166,-43.57671980000001],[172.6331098,-43.5768784]]}}
,
{"type":"Feature","id":"way/254086415/14","properties":{"ccc":"cyclingroute","fixme":"split","highway":"tertiary","maxspeed":"50","name":"Hackthorne Road","id":"way/254086415/14","weighting":10},"geometry":{"type":"LineString","coordinates":[[172.6331098,-43.5768784],[172.63326549999994,-43.576984499999995]]}}
,
{"type":"Feature","id":"way/254086415/15","properties":{"ccc":"cyclingroute","fixme":"split","highway":"tertiary","maxspeed":"50","name":"Hackthorne Road","id":"way/254086415/15","weighting":10},"geometry":{"type":"LineString","coordinates":[[172.63326549999994,-43.576984499999995],[172.6334286,-43.5772581]]}}
,
{"type":"Feature","id":"way/254086415/16","properties":{"ccc":"cyclingroute","fixme":"split","highway":"tertiary","maxspeed":"50","name":"Hackthorne Road","id":"way/254086415/16","weighting":10},"geometry":{"type":"LineString","coordinates":[[172.6334286,-43.5772581],[172.63347399999998,-43.57743230000001]]}}
,
{"type":"Feature","id":"way/270463191/0","properties":{"highway":"unclassified","name":"Shirley Road","id":"way/270463191/0","weighting":10},"geometry":{"type":"LineString","coordinates":[[172.6516905,-43.5076513],[172.65181790000005,-43.5077364]]}}
,
{"type":"Feature","id":"way/270463191/1","properties":{"highway":"unclassified","name":"Shirley Road","id":"way/270463191/1","weighting":10},"geometry":{"type":"LineString","coordinates":[[172.65181790000005,-43.5077364],[172.65238760000005,-43.508117200000015]]}}
,
{"type":"Feature","id":"way/297854701/0","properties":{"access":"no","closed:ccc":"cyclingroute","highway":"unclassified","maxspeed":"50","name":"High Street","note":"closed to all traffic because of earthquake damage and repair works","temporary":"yes","id":"way/297854701/0","weighting":10},"geometry":{"type":"LineString","coordinates":[[172.64240610000004,-43.53619910000001],[172.6414578,-43.5354966]]}}
,
{"type":"Feature","id":"way/297854702/0","properties":{"ccc":"cyclingroute","highway":"unclassified","maxspeed":"50","name":"High Street","id":"way/297854702/0","weighting":10},"geometry":{"type":"LineString","coordinates":[[172.6414578,-43.5354966],[172.6412219,-43.53532180000001]]}}
,
{"type":"Feature","id":"way/297854702/1","properties":{"ccc":"cyclingroute","highway":"unclassified","maxspeed":"50","name":"High Street","id":"way/297854702/1","weighting":10},"geometry":{"type":"LineString","coordinates":[[172.6412219,-43.53532180000001],[172.64117359999995,-43.535288]]}}]}